{"type":"FeatureCollection","crs":{"type":"name","properties":{"name":"EPSG:4326"}},"features":[{"type":"Feature","id":60,"geometry":{"type":"Point","coordinates":[-81.4603823057367,30.2554614522064]},"properties":{"OBJECTID":60,"Loc_name":"World","Status":"M","Score":98.16,"Match_type":"A","Match_addr":"4763 Sutton Park Ct, Jacksonville, Florida, 32224","LongLabel":"4763 Sutton Park Ct, Jacksonville, FL, 32224, USA","ShortLabel":"4763 Sutton Park Ct","Addr_type":"PointAddress","Type":null,"PlaceName":null,"Place_addr":"4763 Sutton Park Ct, Jacksonville, Florida, 32224","Phone":null,"URL":null,"Rank":20,"AddBldg":null,"AddNum":"4763","AddNumFrom":null,"AddNumTo":null,"AddRange":null,"Side":null,"StPreDir":null,"StPreType":null,"StName":"Sutton Park","StType":"Ct","StDir":null,"BldgComp":null,"BldgType":null,"BldgName":null,"LevelType":null,"LevelName":null,"UnitType":null,"UnitName":null,"SubAddr":null,"StAddr":"4763 Sutton Park Ct","Block":null,"Sector":null,"Nbrhd":null,"District":null,"City":"Jacksonville","MetroArea":null,"Subregion":"Duval County","Region":"Florida","RegionAbbr":"FL","Territory":null,"Zone":null,"Postal":"32224","PostalExt":"5289","Country":"USA","CntryName":"United States","LangCode":"ENG","Distance":0,"X":-81.461631796072,"Y":30.256492006712,"DisplayX":-81.460382305766,"DisplayY":30.255461451716,"Xmin":-81.461382305766,"Xmax":-81.459382305766,"Ymin":30.254461451716,"Ymax":30.256461451716,"ExInfo":"FL 32224","MatchID":"AQHrgAEAv9UBAJUBBAAAAAAMEVNVVFRPTiBQQVJLIENPVVJUFQQ0NzYzZgNFTkc","StrucType":"Commercial","StrucDet":null,"IN_Address":"4763 Sutton Park Court","IN_Address2":null,"IN_Address3":null,"IN_Neighborhood":null,"IN_City":"Jacksonville, FL 32224","IN_Postal":null,"IN_PostalExt":null,"IN_CountryCode":null,"USER_Name":"J. Allen Axson Elementary School #141","USER_Website":"https://www.duvalschools.org/o/jaaes","USER_Grades_Served":"PK-5","USER_Program":"Montessori","USER_Phone":"904-992-3600","USER_ADDR1":"4763 Sutton Park Court","USER_ADDR2":"Jacksonville, FL 32224"}},{"type":"Feature","id":61,"geometry":{"type":"Point","coordinates":[-81.6698166458856,30.3391194247665]},"properties":{"OBJECTID":61,"Loc_name":"World","Status":"M","Score":95.99,"Match_type":"A","Match_addr":"1137 Cleveland St, Jacksonville, Florida, 32209","LongLabel":"1137 Cleveland St, Jacksonville, FL, 32209, USA","ShortLabel":"1137 Cleveland St","Addr_type":"PointAddress","Type":null,"PlaceName":null,"Place_addr":"1137 Cleveland St, Jacksonville, Florida, 32209","Phone":null,"URL":null,"Rank":20,"AddBldg":null,"AddNum":"1137","AddNumFrom":null,"AddNumTo":null,"AddRange":null,"Side":null,"StPreDir":null,"StPreType":null,"StName":"Cleveland","StType":"St","StDir":null,"BldgComp":null,"BldgType":null,"BldgName":null,"LevelType":null,"LevelName":null,"UnitType":null,"UnitName":null,"SubAddr":null,"StAddr":"1137 Cleveland St","Block":null,"Sector":null,"Nbrhd":null,"District":null,"City":"Jacksonville","MetroArea":null,"Subregion":"Duval County","Region":"Florida","RegionAbbr":"FL","Territory":null,"Zone":null,"Postal":"32209","PostalExt":"6497","Country":"USA","CntryName":"United States","LangCode":"ENG","Distance":0,"X":-81.670857258919,"Y":30.339306593099,"DisplayX":-81.66981664564,"DisplayY":30.339119425201,"Xmin":-81.67081664564,"Xmax":-81.66881664564,"Ymin":30.338119425201,"Ymax":30.340119425201,"ExInfo":"FL 32209","MatchID":"AQEagAEAE9YBAJUBBAAAAAAMEENMRVZFTEFORCBTVFJFRVQVBDExMzdmA0VORw","StrucType":"Commercial","StrucDet":null,"IN_Address":"1137 Cleveland Street","IN_Address2":null,"IN_Address3":null,"IN_Neighborhood":null,"IN_City":"Jacksoville, FL 32209","IN_Postal":null,"IN_PostalExt":null,"IN_CountryCode":null,"USER_Name":"John E. Ford PK-8 School #154","USER_Website":"https://www.duvalschools.org/o/jefes","USER_Grades_Served":"PK-8","USER_Program":"Montessori/Spanish Montessori)","USER_Phone":"904-630-6540","USER_ADDR1":"1137 Cleveland Street","USER_ADDR2":"Jacksoville, FL 32209"}},{"type":"Feature","id":65,"geometry":{"type":"Point","coordinates":[-81.4002689729114,30.2838950047152]},"properties":{"OBJECTID":65,"Loc_name":"World","Status":"M","Score":98.33,"Match_type":"A","Match_addr":"315 S 10th St, Jacksonville Beach, Florida, 32250","LongLabel":"315 S 10th St, Jacksonville Beach, FL, 32250, USA","ShortLabel":"315 S 10th St","Addr_type":"PointAddress","Type":null,"PlaceName":null,"Place_addr":"315 S 10th St, Jacksonville Beach, Florida, 32250","Phone":null,"URL":null,"Rank":20,"AddBldg":null,"AddNum":"315","AddNumFrom":null,"AddNumTo":null,"AddRange":null,"Side":null,"StPreDir":"S","StPreType":null,"StName":"10th","StType":"St","StDir":null,"BldgComp":null,"BldgType":null,"BldgName":null,"LevelType":null,"LevelName":null,"UnitType":null,"UnitName":null,"SubAddr":null,"StAddr":"315 S 10th St","Block":null,"Sector":null,"Nbrhd":null,"District":null,"City":"Jacksonville Beach","MetroArea":null,"Subregion":"Duval County","Region":"Florida","RegionAbbr":"FL","Territory":null,"Zone":null,"Postal":"32250","PostalExt":"3334","Country":"USA","CntryName":"United States","LangCode":"ENG","Distance":0,"X":-81.398960808944,"Y":30.284158112614,"DisplayX":-81.400268972572,"DisplayY":30.283895004673,"Xmin":-81.401268972572,"Xmax":-81.399268972572,"Ymin":30.282895004673,"Ymax":30.284895004673,"ExInfo":"FL 32250","MatchID":"AQEngQEA29UBAJUBBAAAAAAMEVNPVVRIIDEwVEggU1RSRUVUFQMzMTVmA0VORw","StrucType":"Commercial","StrucDet":null,"IN_Address":"315 South 10th Street","IN_Address2":null,"IN_Address3":null,"IN_Neighborhood":null,"IN_City":"Jacksonville Beach, FL 32250","IN_Postal":null,"IN_PostalExt":null,"IN_CountryCode":null,"USER_Name":"Jacksonville Beach Elementary School #144","USER_Website":"https://www.duvalschools.org/o/jbes","USER_Grades_Served":"PK-5","USER_Program":"Gifted & Academically Talented","USER_Phone":"904-247-5942","USER_ADDR1":"315 South 10th Street","USER_ADDR2":"Jacksonville Beach, FL 32250"}},{"type":"Feature","id":69,"geometry":{"type":"Point","coordinates":[-81.6384745298272,30.3424703421319]},"properties":{"OBJECTID":69,"Loc_name":"World","Status":"M","Score":98,"Match_type":"A","Match_addr":"1535 Milnor St, Jacksonville, Florida, 32206","LongLabel":"1535 Milnor St, Jacksonville, FL, 32206, USA","ShortLabel":"1535 Milnor St","Addr_type":"PointAddress","Type":null,"PlaceName":null,"Place_addr":"1535 Milnor St, Jacksonville, Florida, 32206","Phone":null,"URL":null,"Rank":20,"AddBldg":null,"AddNum":"1535","AddNumFrom":null,"AddNumTo":null,"AddRange":null,"Side":null,"StPreDir":null,"StPreType":null,"StName":"Milnor","StType":"St","StDir":null,"BldgComp":null,"BldgType":null,"BldgName":null,"LevelType":null,"LevelName":null,"UnitType":null,"UnitName":null,"SubAddr":null,"StAddr":"1535 Milnor St","Block":null,"Sector":null,"Nbrhd":null,"District":null,"City":"Jacksonville","MetroArea":null,"Subregion":"Duval County","Region":"Florida","RegionAbbr":"FL","Territory":null,"Zone":null,"Postal":"32206","PostalExt":"4800","Country":"USA","CntryName":"United States","LangCode":"ENG","Distance":0,"X":-81.638825815934,"Y":30.342471599738,"DisplayX":-81.638474530372,"DisplayY":30.342470342453,"Xmin":-81.639474530372,"Xmax":-81.637474530372,"Ymin":30.341470342453,"Ymax":30.343470342453,"ExInfo":"FL 32206","MatchID":"AQE5gAEAFtYBAJUBBAAAAAAMDU1JTE5PUiBTVFJFRVQVBDE1MzVmA0VORw","StrucType":"Commercial","StrucDet":null,"IN_Address":"1535 Milnor Street","IN_Address2":null,"IN_Address3":null,"IN_Neighborhood":null,"IN_City":"Jacksonville, FL 32206","IN_Postal":null,"IN_PostalExt":null,"IN_CountryCode":null,"USER_Name":"R.L. Brown Academy #58","USER_Website":"https://www.duvalschools.org/o/rlbes","USER_Grades_Served":"PK-5","USER_Program":"Gifted & Academically Talented","USER_Phone":"904-630-6570","USER_ADDR1":"1535 Milnor Street","USER_ADDR2":"Jacksonville, FL 32206"}},{"type":"Feature","id":70,"geometry":{"type":"Point","coordinates":[-81.6376517628585,30.2805338198244]},"properties":{"OBJECTID":70,"Loc_name":"World","Status":"M","Score":97.81,"Match_type":"A","Match_addr":"3929 Grant Rd, Jacksonville, Florida, 32207","LongLabel":"3929 Grant Rd, Jacksonville, FL, 32207, USA","ShortLabel":"3929 Grant Rd","Addr_type":"PointAddress","Type":null,"PlaceName":null,"Place_addr":"3929 Grant Rd, Jacksonville, Florida, 32207","Phone":null,"URL":null,"Rank":20,"AddBldg":null,"AddNum":"3929","AddNumFrom":null,"AddNumTo":null,"AddRange":null,"Side":null,"StPreDir":null,"StPreType":null,"StName":"Grant","StType":"Rd","StDir":null,"BldgComp":null,"BldgType":null,"BldgName":null,"LevelType":null,"LevelName":null,"UnitType":null,"UnitName":null,"SubAddr":null,"StAddr":"3929 Grant Rd","Block":null,"Sector":null,"Nbrhd":null,"District":null,"City":"Jacksonville","MetroArea":null,"Subregion":"Duval County","Region":"Florida","RegionAbbr":"FL","Territory":null,"Zone":null,"Postal":"32207","PostalExt":"6696","Country":"USA","CntryName":"United States","LangCode":"ENG","Distance":0,"X":-81.638411247003,"Y":30.280570616145,"DisplayX":-81.637651762756,"DisplayY":30.28053381959,"Xmin":-81.638651762756,"Xmax":-81.636651762756,"Ymin":30.27953381959,"Ymax":30.28153381959,"ExInfo":"FL 32207","MatchID":"AQE6gAEA2NUBAJUBBAAAAAAMCkdSQU5UIFJPQUQVBDM5MjlmA0VORw","StrucType":"Commercial","StrucDet":null,"IN_Address":"3929 Grant Road","IN_Address2":null,"IN_Address3":null,"IN_Neighborhood":null,"IN_City":"Jacksonville, FL 32207","IN_Postal":null,"IN_PostalExt":null,"IN_CountryCode":null,"USER_Name":"Pine Forest Elementary School #159","USER_Website":"https://www.duvalschools.org/o/pfes","USER_Grades_Served":"PK-5","USER_Program":"Visual & Performing Arts","USER_Phone":"904-346-5600","USER_ADDR1":"3929 Grant Road","USER_ADDR2":"Jacksonville, FL 32207"}},{"type":"Feature","id":81,"geometry":{"type":"Point","coordinates":[-81.5957358767297,30.3691212737554]},"properties":{"OBJECTID":81,"Loc_name":"World","Status":"M","Score":98.48,"Match_type":"A","Match_addr":"3787 University Club Blvd, Jacksonville, Florida, 32277","LongLabel":"3787 University Club Blvd, Jacksonville, FL, 32277, USA","ShortLabel":"3787 University Club Blvd","Addr_type":"PointAddress","Type":null,"PlaceName":null,"Place_addr":"3787 University Club Blvd, Jacksonville, Florida, 32277","Phone":null,"URL":null,"Rank":20,"AddBldg":null,"AddNum":"3787","AddNumFrom":null,"AddNumTo":null,"AddRange":null,"Side":null,"StPreDir":null,"StPreType":null,"StName":"University Club","StType":"Blvd","StDir":null,"BldgComp":null,"BldgType":null,"BldgName":null,"LevelType":null,"LevelName":null,"UnitType":null,"UnitName":null,"SubAddr":null,"StAddr":"3787 University Club Blvd","Block":null,"Sector":null,"Nbrhd":null,"District":null,"City":"Jacksonville","MetroArea":null,"Subregion":"Duval County","Region":"Florida","RegionAbbr":"FL","Territory":null,"Zone":null,"Postal":"32277","PostalExt":"1999","Country":"USA","CntryName":"United States","LangCode":"ENG","Distance":0,"X":-81.596747739984,"Y":30.369093530052,"DisplayX":-81.595735876633,"DisplayY":30.369121274151,"Xmin":-81.596735876633,"Xmax":-81.594735876633,"Ymin":30.368121274151,"Ymax":30.370121274151,"ExInfo":"FL 32277","MatchID":"AQFkgAEAMdYBAJUBBAAAAAAMGVVOSVZFUlNJVFkgQ0xVQiBCT1VMRVZBUkQVBDM3ODdmA0VORw","StrucType":"Commercial","StrucDet":null,"IN_Address":"3787 University Club Boulevard","IN_Address2":null,"IN_Address3":null,"IN_Neighborhood":null,"IN_City":"Jacksonville, FL 32277","IN_Postal":null,"IN_PostalExt":null,"IN_CountryCode":null,"USER_Name":"Fort Caroline Middle School #238","USER_Website":"https://www.duvalschools.org/o/fc","USER_Grades_Served":"6-8","USER_Program":"Dedicated Magnet - Visual & Performing Arts","USER_Phone":"904-745-4927","USER_ADDR1":"3787 University Club Boulevard","USER_ADDR2":"Jacksonville, FL 32277"}},{"type":"Feature","id":83,"geometry":{"type":"Point","coordinates":[-81.7256095268603,30.3433812877467]},"properties":{"OBJECTID":83,"Loc_name":"World","Status":"M","Score":98.48,"Match_type":"A","Match_addr":"3276 Norman E Thagard Blvd, Jacksonville, Florida, 32254","LongLabel":"3276 Norman E Thagard Blvd, Jacksonville, FL, 32254, USA","ShortLabel":"3276 Norman E Thagard Blvd","Addr_type":"PointAddress","Type":null,"PlaceName":null,"Place_addr":"3276 Norman E Thagard Blvd, Jacksonville, Florida, 32254","Phone":null,"URL":null,"Rank":20,"AddBldg":null,"AddNum":"3276","AddNumFrom":null,"AddNumTo":null,"AddRange":null,"Side":null,"StPreDir":null,"StPreType":null,"StName":"Norman E Thagard","StType":"Blvd","StDir":null,"BldgComp":null,"BldgType":null,"BldgName":null,"LevelType":null,"LevelName":null,"UnitType":null,"UnitName":null,"SubAddr":null,"StAddr":"3276 Norman E Thagard Blvd","Block":null,"Sector":null,"Nbrhd":null,"District":null,"City":"Jacksonville","MetroArea":null,"Subregion":"Duval County","Region":"Florida","RegionAbbr":"FL","Territory":null,"Zone":null,"Postal":"32254","PostalExt":"1793","Country":"USA","CntryName":"United States","LangCode":"ENG","Distance":0,"X":-81.72560877247,"Y":30.343838688146,"DisplayX":-81.725609526842,"DisplayY":30.34338128769,"Xmin":-81.726609526842,"Xmax":-81.724609526842,"Ymin":30.34238128769,"Ymax":30.34438128769,"ExInfo":"FL 32254","MatchID":"AQHifwEAF9YBAJUBBAAAAAAMGk5PUk1BTiBFIFRIQUdBUkQgQk9VTEVWQVJEFQQzMjc2ZgNFTkc","StrucType":"Commercial","StrucDet":null,"IN_Address":"3276 Norman e. Thagard Boulevard","IN_Address2":null,"IN_Address3":null,"IN_Neighborhood":null,"IN_City":"Jacksonville, FL 32254","IN_Postal":null,"IN_PostalExt":null,"IN_CountryCode":null,"USER_Name":"James Weldon Johnson College Preparatory Middle School #152","USER_Website":"https://www.duvalschools.org/o/jwms","USER_Grades_Served":"6-8","USER_Program":"Dedicated Magnet","USER_Phone":"904-693-7600","USER_ADDR1":"3276 Norman e. Thagard Boulevard","USER_ADDR2":"Jacksonville, FL 32254"}},{"type":"Feature","id":84,"geometry":{"type":"Point","coordinates":[-81.778143105287,30.3078145263509]},"properties":{"OBJECTID":84,"Loc_name":"World","Status":"M","Score":97.81,"Match_type":"A","Match_addr":"7840 Burma Rd, Jacksonville, Florida, 32221","LongLabel":"7840 Burma Rd, Jacksonville, FL, 32221, USA","ShortLabel":"7840 Burma Rd","Addr_type":"PointAddress","Type":null,"PlaceName":null,"Place_addr":"7840 Burma Rd, Jacksonville, Florida, 32221","Phone":null,"URL":null,"Rank":20,"AddBldg":null,"AddNum":"7840","AddNumFrom":null,"AddNumTo":null,"AddRange":null,"Side":null,"StPreDir":null,"StPreType":null,"StName":"Burma","StType":"Rd","StDir":null,"BldgComp":null,"BldgType":null,"BldgName":null,"LevelType":null,"LevelName":null,"UnitType":null,"UnitName":null,"SubAddr":null,"StAddr":"7840 Burma Rd","Block":null,"Sector":null,"Nbrhd":null,"District":null,"City":"Jacksonville","MetroArea":null,"Subregion":"Duval County","Region":"Florida","RegionAbbr":"FL","Territory":null,"Zone":null,"Postal":"32221","PostalExt":"6198","Country":"USA","CntryName":"United States","LangCode":"ENG","Distance":0,"X":-81.778163724476,"Y":30.308965360889,"DisplayX":-81.778143104994,"DisplayY":30.307814525584,"Xmin":-81.779143104994,"Xmax":-81.777143104994,"Ymin":30.306814525584,"Ymax":30.308814525584,"ExInfo":"FL 32221","MatchID":"AQGtfwEA89UBAJUBBAAAAAAMCkJVUk1BIFJPQUQVBDc4NDBmA0VORw","StrucType":"Commercial","StrucDet":null,"IN_Address":"7840 Burma Road","IN_Address2":null,"IN_Address3":null,"IN_Neighborhood":null,"IN_City":"Jacksonville, FL 32221","IN_Postal":null,"IN_PostalExt":null,"IN_CountryCode":null,"USER_Name":"Joseph Stilwell Military Academy of Leadership #219","USER_Website":"https://www.duvalschools.org/o/jsms","USER_Grades_Served":"6-8","USER_Program":"Dedicated Magnet - Military Leadership","USER_Phone":"904-693-7523","USER_ADDR1":"7840 Burma Road","USER_ADDR2":"Jacksonville, FL 32221"}},{"type":"Feature","id":86,"geometry":{"type":"Point","coordinates":[-81.6527005480089,30.3070482103529]},"properties":{"OBJECTID":86,"Loc_name":"World","Status":"M","Score":98.06,"Match_type":"A","Match_addr":"1819 Thacker Ave, Jacksonville, Florida, 32207","LongLabel":"1819 Thacker Ave, Jacksonville, FL, 32207, USA","ShortLabel":"1819 Thacker Ave","Addr_type":"PointAddress","Type":null,"PlaceName":null,"Place_addr":"1819 Thacker Ave, Jacksonville, Florida, 32207","Phone":null,"URL":null,"Rank":20,"AddBldg":null,"AddNum":"1819","AddNumFrom":null,"AddNumTo":null,"AddRange":null,"Side":null,"StPreDir":null,"StPreType":null,"StName":"Thacker","StType":"Ave","StDir":null,"BldgComp":null,"BldgType":null,"BldgName":null,"LevelType":null,"LevelName":null,"UnitType":null,"UnitName":null,"SubAddr":null,"StAddr":"1819 Thacker Ave","Block":null,"Sector":null,"Nbrhd":null,"District":null,"City":"Jacksonville","MetroArea":null,"Subregion":"Duval County","Region":"Florida","RegionAbbr":"FL","Territory":null,"Zone":null,"Postal":"32207","PostalExt":"3397","Country":"USA","CntryName":"United States","LangCode":"ENG","Distance":0,"X":-81.653137664149,"Y":30.306926588671,"DisplayX":-81.652700547899,"DisplayY":30.307048210086,"Xmin":-81.653700547899,"Xmax":-81.651700547899,"Ymin":30.306048210086,"Ymax":30.308048210086,"ExInfo":"FL 32207","MatchID":"AQErgAEA89UBAJUBBAAAAAAMDlRIQUNLRVIgQVZFTlVFFQQxODE5ZgNFTkc","StrucType":"Commercial","StrucDet":null,"IN_Address":"1819 Thacker Avenue","IN_Address2":null,"IN_Address3":null,"IN_Neighborhood":null,"IN_City":"Jacksonville, Fl 32207","IN_Postal":null,"IN_PostalExt":null,"IN_CountryCode":null,"USER_Name":"Julia Landon College Preparatory &  Leadership Development School #31","USER_Website":"https://www.duvalschools.org/o/jlms","USER_Grades_Served":"6-8","USER_Program":"Dedicated Magnet","USER_Phone":"904-346-5650","USER_ADDR1":"1819 Thacker Avenue","USER_ADDR2":"Jacksonville, Fl 32207"}},{"type":"Feature","id":87,"geometry":{"type":"Point","coordinates":[-81.6676585566032,30.3321448436432]},"properties":{"OBJECTID":87,"Loc_name":"World","Status":"M","Score":98.16,"Match_type":"A","Match_addr":"501 N Davis St, Jacksonville, Florida, 32202","LongLabel":"501 N Davis St, Jacksonville, FL, 32202, USA","ShortLabel":"501 N Davis St","Addr_type":"PointAddress","Type":null,"PlaceName":null,"Place_addr":"501 N Davis St, Jacksonville, Florida, 32202","Phone":null,"URL":null,"Rank":20,"AddBldg":null,"AddNum":"501","AddNumFrom":null,"AddNumTo":null,"AddRange":null,"Side":null,"StPreDir":"N","StPreType":null,"StName":"Davis","StType":"St","StDir":null,"BldgComp":null,"BldgType":null,"BldgName":null,"LevelType":null,"LevelName":null,"UnitType":null,"UnitName":null,"SubAddr":null,"StAddr":"501 N Davis St","Block":null,"Sector":null,"Nbrhd":null,"District":null,"City":"Jacksonville","MetroArea":null,"Subregion":"Duval County","Region":"Florida","RegionAbbr":"FL","Territory":null,"Zone":null,"Postal":"32202","PostalExt":"4728","Country":"USA","CntryName":"United States","LangCode":"ENG","Distance":0,"X":-81.667975644426,"Y":30.332226315668,"DisplayX":-81.667658557029,"DisplayY":30.332144843569,"Xmin":-81.668658557029,"Xmax":-81.666658557029,"Ymin":30.331144843569,"Ymax":30.333144843569,"ExInfo":"FL 32202","MatchID":"AQEcgAEADNYBAJUBBAAAAAAMEk5PUlRIIERBVklTIFNUUkVFVBUDNTAxZgNFTkc","StrucType":"Commercial","StrucDet":null,"IN_Address":"501 North Davis Street","IN_Address2":null,"IN_Address3":null,"IN_Neighborhood":null,"IN_City":"Jacksonville, FL 32202","IN_Postal":null,"IN_PostalExt":null,"IN_CountryCode":null,"USER_Name":"LaVilla School of the Arts #267","USER_Website":"https://www.duvalschools.org/o/sams","USER_Grades_Served":"6-8","USER_Program":"Dedicated Magnet - Visual & Performing Arts","USER_Phone":"904-633-6069","USER_ADDR1":"501 North Davis Street","USER_ADDR2":"Jacksonville, FL 32202"}},{"type":"Feature","id":90,"geometry":{"type":"Point","coordinates":[-81.6524676992974,30.3491042419506]},"properties":{"OBJECTID":90,"Loc_name":"World","Status":"M","Score":98.06,"Match_type":"A","Match_addr":"2034 Hubbard St, Jacksonville, Florida, 32206","LongLabel":"2034 Hubbard St, Jacksonville, FL, 32206, USA","ShortLabel":"2034 Hubbard St","Addr_type":"PointAddress","Type":null,"PlaceName":null,"Place_addr":"2034 Hubbard St, Jacksonville, Florida, 32206","Phone":null,"URL":null,"Rank":20,"AddBldg":null,"AddNum":"2034","AddNumFrom":null,"AddNumTo":null,"AddRange":null,"Side":null,"StPreDir":null,"StPreType":null,"StName":"Hubbard","StType":"St","StDir":null,"BldgComp":null,"BldgType":null,"BldgName":null,"LevelType":null,"LevelName":null,"UnitType":null,"UnitName":null,"SubAddr":null,"StAddr":"2034 Hubbard St","Block":null,"Sector":null,"Nbrhd":null,"District":null,"City":"Jacksonville","MetroArea":null,"Subregion":"Duval County","Region":"Florida","RegionAbbr":"FL","Territory":null,"Zone":null,"Postal":"32206","PostalExt":"3798","Country":"USA","CntryName":"United States","LangCode":"ENG","Distance":0,"X":-81.652113227943,"Y":30.349111114791,"DisplayX":-81.652467698628,"DisplayY":30.349104241631,"Xmin":-81.653467698628,"Xmax":-81.651467698628,"Ymin":30.348104241631,"Ymax":30.350104241631,"ExInfo":"FL 32206","MatchID":"AQErgAEAHdYBAJUBBAAAAAAMDkhVQkJBUkQgU1RSRUVUFQQyMDM0ZgNFTkc","StrucType":"Commercial","StrucDet":null,"IN_Address":"2034 Hubbard Street","IN_Address2":null,"IN_Address3":null,"IN_Neighborhood":null,"IN_City":"Jacksonville, FL 32206","IN_Postal":null,"IN_PostalExt":null,"IN_CountryCode":null,"USER_Name":"Springfield Middle School #251","USER_Website":"https://www.duvalschools.org/o/spms","USER_Grades_Served":"6-8","USER_Program":"Dedicated Magnet - Math, Science & Technology","USER_Phone":"904-630-6600","USER_ADDR1":"2034 Hubbard Street","USER_ADDR2":"Jacksonville, FL 32206"}},{"type":"Feature","id":91,"geometry":{"type":"Point","coordinates":[-81.6855650677253,30.3377760162893]},"properties":{"OBJECTID":91,"Loc_name":"World","Status":"M","Score":97.88,"Match_type":"A","Match_addr":"900 Acorn St, Jacksonville, Florida, 32209","LongLabel":"900 Acorn St, Jacksonville, FL, 32209, USA","ShortLabel":"900 Acorn St","Addr_type":"PointAddress","Type":null,"PlaceName":null,"Place_addr":"900 Acorn St, Jacksonville, Florida, 32209","Phone":null,"URL":null,"Rank":20,"AddBldg":null,"AddNum":"900","AddNumFrom":null,"AddNumTo":null,"AddRange":null,"Side":null,"StPreDir":null,"StPreType":null,"StName":"Acorn","StType":"St","StDir":null,"BldgComp":null,"BldgType":null,"BldgName":null,"LevelType":null,"LevelName":null,"UnitType":null,"UnitName":null,"SubAddr":null,"StAddr":"900 Acorn St","Block":null,"Sector":null,"Nbrhd":null,"District":null,"City":"Jacksonville","MetroArea":null,"Subregion":"Duval County","Region":"Florida","RegionAbbr":"FL","Territory":null,"Zone":null,"Postal":"32209","PostalExt":"7198","Country":"USA","CntryName":"United States","LangCode":"ENG","Distance":0,"X":-81.685377900342,"Y":30.33794222881,"DisplayX":-81.68556506824,"DisplayY":30.33777601567,"Xmin":-81.68656506824,"Xmax":-81.68456506824,"Ymin":30.33677601567,"Ymax":30.33877601567,"ExInfo":"FL 32209","MatchID":"AQEKgAEAEdYBAJUBBAAAAAAMDEFDT1JOIFNUUkVFVBUDOTAwZgNFTkc","StrucType":"Commercial","StrucDet":null,"IN_Address":"900 Acorn Street","IN_Address2":null,"IN_Address3":null,"IN_Neighborhood":null,"IN_City":"Jacksonville, FL 32209","IN_Postal":null,"IN_PostalExt":null,"IN_CountryCode":null,"USER_Name":"Jacksonville STEM Academy","USER_Website":"https://www.duvalschools.org/o/ymla","USER_Grades_Served":"6-8","USER_Program":"Dedicated Magnet","USER_Phone":"904-630-6900","USER_ADDR1":"900 Acorn Street","USER_ADDR2":"Jacksonville, FL 32209"}},{"type":"Feature","id":92,"geometry":{"type":"Point","coordinates":[-81.6769255887523,30.3678178457585]},"properties":{"OBJECTID":92,"Loc_name":"World","Status":"M","Score":98.21,"Match_type":"A","Match_addr":"1157 Golfair Blvd, Jacksonville, Florida, 32209","LongLabel":"1157 Golfair Blvd, Jacksonville, FL, 32209, USA","ShortLabel":"1157 Golfair Blvd","Addr_type":"PointAddress","Type":null,"PlaceName":null,"Place_addr":"1157 Golfair Blvd, Jacksonville, Florida, 32209","Phone":null,"URL":null,"Rank":20,"AddBldg":null,"AddNum":"1157","AddNumFrom":null,"AddNumTo":null,"AddRange":null,"Side":null,"StPreDir":null,"StPreType":null,"StName":"Golfair","StType":"Blvd","StDir":null,"BldgComp":null,"BldgType":null,"BldgName":null,"LevelType":null,"LevelName":null,"UnitType":null,"UnitName":null,"SubAddr":null,"StAddr":"1157 Golfair Blvd","Block":null,"Sector":null,"Nbrhd":null,"District":null,"City":"Jacksonville","MetroArea":null,"Subregion":"Duval County","Region":"Florida","RegionAbbr":"FL","Territory":null,"Zone":null,"Postal":"32209","PostalExt":"4098","Country":"USA","CntryName":"United States","LangCode":"ENG","Distance":0,"X":-81.677133963293,"Y":30.365688088521,"DisplayX":-81.67692558918,"DisplayY":30.367817846298,"Xmin":-81.67792558918,"Xmax":-81.67592558918,"Ymin":30.366817846298,"Ymax":30.368817846298,"ExInfo":"FL 32209","MatchID":"AQETgAEAL9YBAJUBBAAAAAAMEUdPTEZBSVIgQk9VTEVWQVJEFQQxMTU3ZgNFTkc","StrucType":"Commercial","StrucDet":null,"IN_Address":"1157 Golfair Boulevard","IN_Address2":null,"IN_Address3":null,"IN_Neighborhood":null,"IN_City":"Jacksonville, FL 32209","IN_Postal":null,"IN_PostalExt":null,"IN_CountryCode":null,"USER_Name":"A. Philip Randolph Career Academies #285","USER_Website":"https://www.duvalschools.org/o/prhs","USER_Grades_Served":"9-12","USER_Program":"Dedicated Magnet - Barbering Academy, Building Trades, Computer Science Academy, Cosmetology Academy, Criminal Justice Academy, Digital Sports Academy, Firefighting Academy, Health Science Academy, HVAC Academy, Welding Academy","USER_Phone":"904-924-3011","USER_ADDR1":"1157 Golfair Boulevard","USER_ADDR2":"Jacksonville, FL 32209"}},{"type":"Feature","id":93,"geometry":{"type":"Point","coordinates":[-81.653780723629,30.3621935887355]},"properties":{"OBJECTID":93,"Loc_name":"World","Status":"M","Score":98.16,"Match_type":"A","Match_addr":"3816 Main St N, Jacksonville, Florida, 32206","LongLabel":"3816 Main St N, Jacksonville, FL, 32206, USA","ShortLabel":"3816 Main St N","Addr_type":"PointAddress","Type":null,"PlaceName":null,"Place_addr":"3816 Main St N, Jacksonville, Florida, 32206","Phone":null,"URL":null,"Rank":20,"AddBldg":null,"AddNum":"3816","AddNumFrom":null,"AddNumTo":null,"AddRange":null,"Side":null,"StPreDir":null,"StPreType":null,"StName":"Main","StType":"St","StDir":"N","BldgComp":null,"BldgType":null,"BldgName":null,"LevelType":null,"LevelName":null,"UnitType":null,"UnitName":null,"SubAddr":null,"StAddr":"3816 Main St N","Block":null,"Sector":null,"Nbrhd":null,"District":null,"City":"Jacksonville","MetroArea":null,"Subregion":"Duval County","Region":"Florida","RegionAbbr":"FL","Territory":null,"Zone":null,"Postal":"32206","PostalExt":"1400","Country":"USA","CntryName":"United States","LangCode":"ENG","Distance":0,"X":-81.653409656907,"Y":30.36215444578,"DisplayX":-81.653780723761,"DisplayY":30.362193589267,"Xmin":-81.654780723761,"Xmax":-81.652780723761,"Ymin":30.361193589267,"Ymax":30.363193589267,"ExInfo":"FL 32206","MatchID":"AQEqgAEAKtYBAJUBBAAAAAAMEU1BSU4gU1RSRUVUIE5PUlRIFQQzODE2ZgNFTkc","StrucType":"Commercial","StrucDet":null,"IN_Address":"3816 Main Street North","IN_Address2":null,"IN_Address3":null,"IN_Neighborhood":null,"IN_City":"Jacksonville, FL 32206","IN_Postal":null,"IN_PostalExt":null,"IN_CountryCode":null,"USER_Name":"Andrew Jackson High School #35","USER_Website":"https://www.duvalschools.org/o/ajhs","USER_Grades_Served":"9-12","USER_Program":"Dedicated Magnet - Military Science, Sports Medicine, Cyber Security, & Video Game Development","USER_Phone":"904-630-6950","USER_ADDR1":"3816 Main Street North","USER_ADDR2":"Jacksonville, FL 32206"}},{"type":"Feature","id":95,"geometry":{"type":"Point","coordinates":[-81.6672485978469,30.3454711060509]},"properties":{"OBJECTID":95,"Loc_name":"World","Status":"M","Score":98.21,"Match_type":"A","Match_addr":"1701 N Davis St, Jacksonville, Florida, 32209","LongLabel":"1701 N Davis St, Jacksonville, FL, 32209, USA","ShortLabel":"1701 N Davis St","Addr_type":"PointAddress","Type":null,"PlaceName":null,"Place_addr":"1701 N Davis St, Jacksonville, Florida, 32209","Phone":null,"URL":null,"Rank":20,"AddBldg":null,"AddNum":"1701","AddNumFrom":null,"AddNumTo":null,"AddRange":null,"Side":null,"StPreDir":"N","StPreType":null,"StName":"Davis","StType":"St","StDir":null,"BldgComp":null,"BldgType":null,"BldgName":null,"LevelType":null,"LevelName":null,"UnitType":null,"UnitName":null,"SubAddr":null,"StAddr":"1701 N Davis St","Block":null,"Sector":null,"Nbrhd":null,"District":null,"City":"Jacksonville","MetroArea":null,"Subregion":"Duval County","Region":"Florida","RegionAbbr":"FL","Territory":null,"Zone":null,"Postal":"32209","PostalExt":"6518","Country":"USA","CntryName":"United States","LangCode":"ENG","Distance":0,"X":-81.667053886534,"Y":30.345476134841,"DisplayX":-81.667248598145,"DisplayY":30.345471105699,"Xmin":-81.668248598145,"Xmax":-81.666248598145,"Ymin":30.344471105699,"Ymax":30.346471105699,"ExInfo":"FL 32209","MatchID":"AQEcgAEAGdYBAJUBBAAAAAAMEk5PUlRIIERBVklTIFNUUkVFVBUEMTcwMWYDRU5H","StrucType":null,"StrucDet":null,"IN_Address":"1701 North Davis Street","IN_Address2":null,"IN_Address3":null,"IN_Neighborhood":null,"IN_City":"Jacksonville, FL 32209","IN_Postal":null,"IN_PostalExt":null,"IN_CountryCode":null,"USER_Name":"Darnell Cookman Medical Arts Gifted & Talendted Academy #145","USER_Website":"https://www.duvalschools.org/o/dchs","USER_Grades_Served":"6-12","USER_Program":"Dedicated Magnet - College Preparatory and Medical Arts","USER_Phone":"904-630-6805","USER_ADDR1":"1701 North Davis Street","USER_ADDR2":"Jacksonville, FL 32209"}},{"type":"Feature","id":96,"geometry":{"type":"Point","coordinates":[-81.6389947954122,30.3001274402039]},"properties":{"OBJECTID":96,"Loc_name":"World","Status":"M","Score":98,"Match_type":"A","Match_addr":"2445 San Diego Rd, Jacksonville, Florida, 32207","LongLabel":"2445 San Diego Rd, Jacksonville, FL, 32207, USA","ShortLabel":"2445 San Diego Rd","Addr_type":"PointAddress","Type":null,"PlaceName":null,"Place_addr":"2445 San Diego Rd, Jacksonville, Florida, 32207","Phone":null,"URL":null,"Rank":20,"AddBldg":null,"AddNum":"2445","AddNumFrom":null,"AddNumTo":null,"AddRange":null,"Side":null,"StPreDir":null,"StPreType":null,"StName":"San Diego","StType":"Rd","StDir":null,"BldgComp":null,"BldgType":null,"BldgName":null,"LevelType":null,"LevelName":null,"UnitType":null,"UnitName":null,"SubAddr":null,"StAddr":"2445 San Diego Rd","Block":null,"Sector":null,"Nbrhd":null,"District":null,"City":"Jacksonville","MetroArea":null,"Subregion":"Duval County","Region":"Florida","RegionAbbr":"FL","Territory":null,"Zone":null,"Postal":"32207","PostalExt":"3699","Country":"USA","CntryName":"United States","LangCode":"ENG","Distance":0,"X":-81.638997477311,"Y":30.299908840237,"DisplayX":-81.638994795102,"DisplayY":30.300127440272,"Xmin":-81.639994795102,"Xmax":-81.637994795102,"Ymin":30.299127440272,"Ymax":30.301127440272,"ExInfo":"FL 32207","MatchID":"AQE5gAEA7NUBAJUBBAAAAAAMDlNBTiBESUVHTyBST0FEFQQyNDQ1ZgNFTkc","StrucType":"Commercial","StrucDet":null,"IN_Address":"2445 San Diego Road","IN_Address2":null,"IN_Address3":null,"IN_Neighborhood":null,"IN_City":"Jacksonville, FL 32207","IN_Postal":null,"IN_PostalExt":null,"IN_CountryCode":null,"USER_Name":"Douglas Anderson School of the Arts #107","USER_Website":"https://www.duvalschools.org/o/dahs","USER_Grades_Served":"9-12","USER_Program":"Dedicated Magnet - Visual & Performing Arts","USER_Phone":"904-346-5620","USER_ADDR1":"2445 San Diego Road","USER_ADDR2":"Jacksonville, FL 32207"}},{"type":"Feature","id":97,"geometry":{"type":"Point","coordinates":[-81.7688629972606,30.2645261028464]},"properties":{"OBJECTID":97,"Loc_name":"World","Status":"M","Score":98.16,"Match_type":"A","Match_addr":"7450 Wilson Blvd, Jacksonville, Florida, 32210","LongLabel":"7450 Wilson Blvd, Jacksonville, FL, 32210, USA","ShortLabel":"7450 Wilson Blvd","Addr_type":"PointAddress","Type":null,"PlaceName":null,"Place_addr":"7450 Wilson Blvd, Jacksonville, Florida, 32210","Phone":null,"URL":null,"Rank":20,"AddBldg":null,"AddNum":"7450","AddNumFrom":null,"AddNumTo":null,"AddRange":null,"Side":null,"StPreDir":null,"StPreType":null,"StName":"Wilson","StType":"Blvd","StDir":null,"BldgComp":null,"BldgType":null,"BldgName":null,"LevelType":null,"LevelName":null,"UnitType":null,"UnitName":null,"SubAddr":null,"StAddr":"7450 Wilson Blvd","Block":null,"Sector":null,"Nbrhd":null,"District":null,"City":"Jacksonville","MetroArea":null,"Subregion":"Duval County","Region":"Florida","RegionAbbr":"FL","Territory":null,"Zone":null,"Postal":"32210","PostalExt":"3596","Country":"USA","CntryName":"United States","LangCode":"ENG","Distance":0,"X":-81.768862997074,"Y":30.264526102815,"DisplayX":-81.768862997074,"DisplayY":30.264526102815,"Xmin":-81.769862997074,"Xmax":-81.767862997074,"Ymin":30.263526102815,"Ymax":30.265526102815,"ExInfo":"FL 32210","MatchID":"AQG3fwEAyNUBAJUBBAAAAAAMEFdJTFNPTiBCT1VMRVZBUkQVBDc0NTBmA0VORw","StrucType":"Commercial","StrucDet":null,"IN_Address":"7450 Wilson Boulevard","IN_Address2":null,"IN_Address3":null,"IN_Neighborhood":null,"IN_City":"Jacksonville, FL 32210","IN_Postal":null,"IN_PostalExt":null,"IN_CountryCode":null,"USER_Name":"Frank H. Peterson Academies of Technology #280","USER_Website":"https://www.duvalschools.org/o/fhp","USER_Grades_Served":"9-12","USER_Program":"Dedicated Magnet - Advanced Manufacturing & Robotics (STEM) Academy, Agricultural Biotech & Vet Assisting Academy, Automotive Academy, Cosmetology Academy, Culinary Arts, Early Childhood Education Academy","USER_Phone":"904-573-1150","USER_ADDR1":"7450 Wilson Boulevard","USER_ADDR2":"Jacksonville, FL 32210"}},{"type":"Feature","id":100,"geometry":{"type":"Point","coordinates":[-81.723867515658,30.3443603779351]},"properties":{"OBJECTID":100,"Loc_name":"World","Status":"M","Score":98.48,"Match_type":"A","Match_addr":"3239 Norman E Thagard Blvd, Jacksonville, Florida, 32254","LongLabel":"3239 Norman E Thagard Blvd, Jacksonville, FL, 32254, USA","ShortLabel":"3239 Norman E Thagard Blvd","Addr_type":"PointAddress","Type":null,"PlaceName":null,"Place_addr":"3239 Norman E Thagard Blvd, Jacksonville, Florida, 32254","Phone":null,"URL":null,"Rank":20,"AddBldg":null,"AddNum":"3239","AddNumFrom":null,"AddNumTo":null,"AddRange":null,"Side":null,"StPreDir":null,"StPreType":null,"StName":"Norman E Thagard","StType":"Blvd","StDir":null,"BldgComp":null,"BldgType":null,"BldgName":null,"LevelType":null,"LevelName":null,"UnitType":null,"UnitName":null,"SubAddr":null,"StAddr":"3239 Norman E Thagard Blvd","Block":null,"Sector":null,"Nbrhd":null,"District":null,"City":"Jacksonville","MetroArea":null,"Subregion":"Duval County","Region":"Florida","RegionAbbr":"FL","Territory":null,"Zone":null,"Postal":"32254","PostalExt":"1796","Country":"USA","CntryName":"United States","LangCode":"ENG","Distance":0,"X":-81.723871539218,"Y":30.343896858554,"DisplayX":-81.723867515905,"DisplayY":30.3443603778,"Xmin":-81.724867515905,"Xmax":-81.722867515905,"Ymin":30.3433603778,"Ymax":30.3453603778,"ExInfo":"FL 32254","MatchID":"AQHkfwEAGNYBAJUBBAAAAAAMGk5PUk1BTiBFIFRIQUdBUkQgQk9VTEVWQVJEFQQzMjM5ZgNFTkc","StrucType":"Commercial","StrucDet":null,"IN_Address":"3239 Norman E. Thagard Boulevard","IN_Address2":null,"IN_Address3":null,"IN_Neighborhood":null,"IN_City":"Jacksonville, FL 32254","IN_Postal":null,"IN_PostalExt":null,"IN_CountryCode":null,"USER_Name":"Paxon School for Advanced Studies #75","USER_Website":"https://www.duvalschools.org/o/psa","USER_Grades_Served":"9-12","USER_Program":"Dedicated Magnet - College Preparatory","USER_Phone":"904-693-758","USER_ADDR1":"3239 Norman E. Thagard Boulevard","USER_ADDR2":"Jacksonville, FL 32254"}},{"type":"Feature","id":102,"geometry":{"type":"Point","coordinates":[-81.6157360203177,30.2509110003151]},"properties":{"OBJECTID":102,"Loc_name":"World","Status":"M","Score":98,"Match_type":"A","Match_addr":"7000 Powers Ave, Jacksonville, Florida, 32217","LongLabel":"7000 Powers Ave, Jacksonville, FL, 32217, USA","ShortLabel":"7000 Powers Ave","Addr_type":"PointAddress","Type":null,"PlaceName":null,"Place_addr":"7000 Powers Ave, Jacksonville, Florida, 32217","Phone":null,"URL":null,"Rank":20,"AddBldg":null,"AddNum":"7000","AddNumFrom":null,"AddNumTo":null,"AddRange":null,"Side":null,"StPreDir":null,"StPreType":null,"StName":"Powers","StType":"Ave","StDir":null,"BldgComp":null,"BldgType":null,"BldgName":null,"LevelType":null,"LevelName":null,"UnitType":null,"UnitName":null,"SubAddr":null,"StAddr":"7000 Powers Ave","Block":null,"Sector":null,"Nbrhd":null,"District":null,"City":"Jacksonville","MetroArea":null,"Subregion":"Duval County","Region":"Florida","RegionAbbr":"FL","Territory":null,"Zone":null,"Postal":"32217","PostalExt":"3398","Country":"USA","CntryName":"United States","LangCode":"ENG","Distance":0,"X":-81.614805879824,"Y":30.251580965822,"DisplayX":-81.615736019619,"DisplayY":30.250911000302,"Xmin":-81.616736019619,"Xmax":-81.614736019619,"Ymin":30.249911000302,"Ymax":30.251911000302,"ExInfo":"FL 32217","MatchID":"AQFQgAEAutUBAJUBBAAAAAAMDVBPV0VSUyBBVkVOVUUVBDcwMDBmA0VORw","StrucType":"Commercial","StrucDet":null,"IN_Address":"7000 Powers Avenue","IN_Address2":null,"IN_Address3":null,"IN_Neighborhood":null,"IN_City":"Jacksonville, FL 32217","IN_Postal":null,"IN_PostalExt":null,"IN_CountryCode":null,"USER_Name":"Samuel W. Wolfson School for Advanced Studies #224","USER_Website":"https://www.duvalschools.org/o/swhs","USER_Grades_Served":"9-12","USER_Program":"Dedicated Magnet - College Preparatory/Leadership","USER_Phone":"904-739-5265","USER_ADDR1":"7000 Powers Avenue","USER_ADDR2":"Jacksonville, FL 32217"}},{"type":"Feature","id":104,"geometry":{"type":"Point","coordinates":[-81.6730215500534,30.3525474436513]},"properties":{"OBJECTID":104,"Loc_name":"World","Status":"M","Score":98.11,"Match_type":"A","Match_addr":"1149 W 13th St, Jacksonville, Florida, 32209","LongLabel":"1149 W 13th St, Jacksonville, FL, 32209, USA","ShortLabel":"1149 W 13th St","Addr_type":"PointAddress","Type":null,"PlaceName":null,"Place_addr":"1149 W 13th St, Jacksonville, Florida, 32209","Phone":null,"URL":null,"Rank":20,"AddBldg":null,"AddNum":"1149","AddNumFrom":null,"AddNumTo":null,"AddRange":null,"Side":null,"StPreDir":"W","StPreType":null,"StName":"13th","StType":"St","StDir":null,"BldgComp":null,"BldgType":null,"BldgName":null,"LevelType":null,"LevelName":null,"UnitType":null,"UnitName":null,"SubAddr":null,"StAddr":"1149 W 13th St","Block":null,"Sector":null,"Nbrhd":null,"District":null,"City":"Jacksonville","MetroArea":null,"Subregion":"Duval County","Region":"Florida","RegionAbbr":"FL","Territory":null,"Zone":null,"Postal":"32209","PostalExt":"5699","Country":"USA","CntryName":"United States","LangCode":"ENG","Distance":0,"X":-81.673003948141,"Y":30.351411276661,"DisplayX":-81.673021550138,"DisplayY":30.352547443636,"Xmin":-81.674021550138,"Xmax":-81.672021550138,"Ymin":30.351547443636,"Ymax":30.353547443636,"ExInfo":"FL 32209","MatchID":"AQEWgAEAINYBAJUBBAAAAAAMEFdFU1QgMTNUSCBTVFJFRVQVBDExNDlmA0VORw","StrucType":"Commercial","StrucDet":null,"IN_Address":"1149 West 13th Street","IN_Address2":null,"IN_Address3":null,"IN_Neighborhood":null,"IN_City":"Jacksonville, FL 32209","IN_Postal":null,"IN_PostalExt":null,"IN_CountryCode":null,"USER_Name":"Stanton College Preparatory School #153","USER_Website":"https://www.duvalschools.org/o/schs","USER_Grades_Served":"9-12","USER_Program":"Dedicated Magnet - College Preparatory","USER_Phone":"904-630-6760","USER_ADDR1":"1149 West 13th Street","USER_ADDR2":"Jacksonville, FL 32209"}}]}