{"type":"FeatureCollection","name":"Duval County Boundary","metadata":{"source":"U.S. Census Bureau TIGERweb State_County service","source_url":"https://tigerweb.geo.census.gov/arcgis/rest/services/TIGERweb/State_County/MapServer/1","query":"STATE='12' AND COUNTY='031'","year":2024},"features":[{"type":"Feature","properties":{"label":"Duval County","name":"Duval County","county_name":"Duval County","geoid":"12031","statefp":"12","countyfp":"031","boundary_type":"County boundary","source":"U.S. Census Bureau TIGERweb State/County boundary","source_url":"https://tigerweb.geo.census.gov/arcgis/rest/services/TIGERweb/State_County/MapServer/1"},"geometry":{"type":"Polygon","coordinates":[[[-81.43009499956977,30.252242999665434],[-81.43005100008716,30.252242999665434],[-81.42950999958877,30.252243999902262],[-81.42950200009116,30.25227100008483],[-81.42925199984592,30.252275000254954],[-81.42919300029467,30.252275999715447],[-81.42895700029312,30.25227999988538],[-81.42606699964986,30.252324999651673],[-81.42592400043304,30.25232700012369],[-81.42579499966331,30.252328999819596],[-81.42566499996697,30.252331000291473],[-81.4233230003931,30.252367999702276],[-81.42264999965023,30.25237899996488],[-81.42249800021258,30.252380999659746],[-81.42208399993578,30.25238700029612],[-81.42206899986718,30.25238700029612],[-81.4216400004201,30.2523939996155],[-81.42155900022925,30.252394999850775],[-81.4213869998018,30.2523970003213],[-81.42025199999989,30.2524139996634],[-81.4202400003043,30.2524139996634],[-81.41958699965292,30.25242399968583],[-81.41898599977839,30.252433000248352],[-81.41844400035339,30.2524409997992],[-81.41838499990385,30.25244200003406],[-81.41835399994171,30.25244200003406],[-81.41811000044255,30.25244600019716],[-81.41798400004586,30.252447999890727],[-81.41785599999935,30.25245000036016],[-81.41780199957267,30.252450999818937],[-81.41753299995915,30.25245499998167],[-81.41748399955536,30.252456000216334],[-81.41728899956169,30.252459000144313],[-81.41727100001833,30.252459000144313],[-81.41724199970601,30.252459000144313],[-81.4171849998046,30.252460000378928],[-81.41705500010826,30.252462000072203],[-81.4168040000381,30.25246600023454],[-81.41672299984725,30.252466999693098],[-81.41666599994583,30.25246799992764],[-81.41663800035674,30.25246900016216],[-81.41637800006575,30.252473000324223],[-81.41579999975743,30.252482000106262],[-81.41493899959191,30.252495000048643],[-81.41480600042082,30.252496999741144],[-81.41391000009519,30.252510999915646],[-81.41099100003794,30.2525569998098],[-81.41058299960893,30.252562999659446],[-81.41054900017205,30.252562999659446],[-81.41049599957029,30.252563999892992],[-81.4104400003921,30.252565000126552],[-81.41041500027775,30.252565000126552],[-81.41037300044496,30.252566000360083],[-81.41033200043708,30.252566999817677],[-81.41031700036847,30.252566999817677],[-81.41030499977457,30.252566999817677],[-81.41017000005537,30.252569000284705],[-81.41012499984951,30.252569999742207],[-81.40878800038125,30.252590999987625],[-81.4079749998963,30.25260399991553],[-81.40733499966369,30.25261399991861],[-81.40726900043978,30.25261500015171],[-81.40718400005096,30.252616999841766],[-81.40711700010381,30.252618000074765],[-81.40699400008018,30.25261999976482],[-81.40686400038382,30.25262200023077],[-81.40402700034232,30.2526669998404],[-81.40401100044878,30.2526669998404],[-81.40320800000958,30.252679999758303],[-81.4027379996563,30.252696000371156],[-81.40226400000337,30.252693999906725],[-81.40152099983861,30.252706000364874],[-81.4013919999672,30.252708000053136],[-81.40120299982131,30.252718000045643],[-81.4010339997669,30.252720999965607],[-81.40101500039863,30.252720999965607],[-81.40095699977401,30.252720999965607],[-81.40085899986472,30.252720999965607],[-81.40068300013762,30.252719000277626],[-81.40061000034268,30.25271699981365],[-81.40059899957372,30.25271699981365],[-81.40021299978434,30.252723999885443],[-81.39711499962692,30.252780999897414],[-81.39648600016329,30.252792000113708],[-81.39431100009573,30.252833000274272],[-81.39426400024004,30.252833999729106],[-81.39423300027791,30.252834999959887],[-81.39369599997748,30.252834999959887],[-81.39203800011882,30.25283699964553],[-81.39046899994864,30.25283900010705],[-81.39045700025306,30.25283900010705],[-81.3884110000569,30.252840999792554],[-81.38828899985818,30.252840999792554],[-81.38827399978956,30.252840999792554],[-81.38817400023045,30.252840999792554],[-81.38804899965866,30.252840999792554],[-81.38657800029607,30.252840999792554],[-81.38631499963203,30.252840999792554],[-81.38183099960253,30.252840999792554],[-81.38180499966326,30.252840999792554],[-81.38072400028803,30.25292400028551],[-81.38050599982981,30.252941000312408],[-81.37977299971081,30.252908999939837],[-81.37820500026383,30.252842000023335],[-81.37631700025142,30.252890999677245],[-81.37480400015774,30.252931000342596],[-81.37075699997123,30.252931000342596],[-81.32018499986702,30.25292000014186],[-81.31792799978366,30.25293899985295],[-81.32587499984355,30.279242000227807],[-81.32703700030794,30.28418999996494],[-81.32806599980466,30.28857100034954],[-81.33032299988801,30.298186000082236],[-81.33062699966163,30.29948099994936],[-81.33086600003624,30.300976999741007],[-81.33177099968438,30.306640999951565],[-81.33187399961655,30.307283999991892],[-81.33316599977731,30.31537099981321],[-81.33359799959744,30.318078999902454],[-81.33417500008083,30.32445700020437],[-81.33538000020296,30.3377710000824],[-81.33538000020296,30.342407999931897],[-81.33538100002785,30.361025000305297],[-81.33538100002785,30.36129200027564],[-81.33359900032065,30.362386000052847],[-81.32943999998119,30.366762000027798],[-81.32528200036494,30.37223199995718],[-81.32354800033829,30.375240999982523],[-81.3215630002415,30.37857400033312],[-81.3207330000381,30.381616000345787],[-81.31875100031435,30.38887599990653],[-81.31792899960857,30.392793000114466],[-81.31746099980342,30.39407700029146],[-81.31725999996198,30.39611200020329],[-81.31671199979088,30.401675999928493],[-81.31689699973882,30.40772099986868],[-81.31979900007764,30.41646500005335],[-81.32487700030897,30.42473500004231],[-81.33229000044146,30.43303599973315],[-81.3386569995622,30.438230999681057],[-81.34996000042064,30.44500900036098],[-81.35357400006377,30.44666000006421],[-81.35434800019067,30.449731999974222],[-81.35391700019545,30.453346000067427],[-81.3538700003398,30.460303000296342],[-81.35344000016947,30.462666999836927],[-81.3517940000064,30.47340700019624],[-81.35244500010964,30.482118999988632],[-81.35488299994297,30.4927539999814],[-81.35803600035196,30.500238999670877],[-81.3587929998621,30.501503999944152],[-81.3748080003557,30.502567000122067],[-81.37499699960325,30.502579000127696],[-81.42219199989083,30.505636999726583],[-81.43369700041565,30.506565999734658],[-81.434776999966,30.50689599971076],[-81.43678399980409,30.507509000226083],[-81.44180299958587,30.50904399992165],[-81.44211099955746,30.509137999856783],[-81.44215400011349,30.509188000361608],[-81.44456199980957,30.51198299968463],[-81.44731699983531,30.515180999765185],[-81.44767300038576,30.51559500034473],[-81.4499990000661,30.51829600015006],[-81.45081099982782,30.519238000025343],[-81.45118599974657,30.519458000092456],[-81.4515620003885,30.51967799966165],[-81.45431599969102,30.521293000054218],[-81.45707099971676,30.522907999920125],[-81.45895200005647,30.524202999632976],[-81.45978899993256,30.52473100015034],[-81.47993899957785,30.533454000287538],[-81.48439699966808,30.5374439998346],[-81.48800299981362,30.542167999935543],[-81.48809200040037,30.54254099986684],[-81.48856100003043,30.544514999965088],[-81.48859100016767,30.544640000160488],[-81.48862100030489,30.544765999761367],[-81.49053000023369,30.55115000017731],[-81.49096200005383,30.554623000104545],[-81.49957500028557,30.563792999851117],[-81.50273399964405,30.56469199978705],[-81.50926999971747,30.566224999991874],[-81.51401400003796,30.56733699973118],[-81.5153820003667,30.565800999711694],[-81.51548899959852,30.56568100031756],[-81.51556700031465,30.56557400008805],[-81.51726299980812,30.56368999966644],[-81.52381399995016,30.556336999944214],[-81.5210139997186,30.55053700031819],[-81.51978299965721,30.546679000090855],[-81.51994800041196,30.54364499971769],[-81.52049700040796,30.541479000082216],[-81.52137500029193,30.538801000151878],[-81.52283499978387,30.536559999929448],[-81.52375700004876,30.535325000062095],[-81.5248220004288,30.53384400037301],[-81.52518399992873,30.53339699978088],[-81.52631200005796,30.53117500006306],[-81.52780900025812,30.52942599976458],[-81.52908899982499,30.52803699987916],[-81.53023799987062,30.526289999864566],[-81.53327599975357,30.525103999721665],[-81.53720900013724,30.524113000225846],[-81.5401290000194,30.523906999893477],[-81.54301799993945,30.523888999963912],[-81.54406800025086,30.524722999648034],[-81.54695299997294,30.525939000345172],[-81.54910999959887,30.528420000355784],[-81.55077800040158,30.53156200013239],[-81.55100299963415,30.53479299963689],[-81.55079699976984,30.53727999964784],[-81.5506879999899,30.53978300026792],[-81.55090800009793,30.5409359997919],[-81.55092599964127,30.54302700019566],[-81.55158400031553,30.543283999781053],[-81.5552509996621,30.544527999776253],[-81.55626099979054,30.544100000019057],[-81.55925799966562,30.542544999771263],[-81.56130600040993,30.54073400029397],[-81.56287600040501,30.539085000022638],[-81.56495600003805,30.537519999657363],[-81.56702999982332,30.536782000308545],[-81.56780899997307,30.536635999670253],[-81.5727599999828,30.53737699982949],[-81.57721800007303,30.538036999897262],[-81.5772449998372,30.538064000114],[-81.57728500002018,30.53802499962659],[-81.57974899979277,30.53953300036432],[-81.58541000035528,30.544206000369666],[-81.58654099995925,30.545230000148393],[-81.58708900013033,30.54579199970858],[-81.5878199997012,30.54668799987875],[-81.58873699994322,30.54837099970719],[-81.58891500021848,30.549047000188942],[-81.58887199966244,30.54935599984977],[-81.58889400030208,30.549589999990015],[-81.58880300006548,30.550468000274673],[-81.58799299995357,30.552309999616153],[-81.58727599972808,30.553483000049937],[-81.58675000019662,30.55423700011962],[-81.58632199967613,30.555325000194696],[-81.58608400002475,30.55599499963777],[-81.58594400028268,30.556664999870385],[-81.58585100039625,30.5572910001291],[-81.58570999993094,30.55791899985302],[-81.58518400039948,30.55883999971622],[-81.58427399983015,30.560014000312595],[-81.58389399988856,30.561019000236954],[-81.58365600023717,30.56168799965275],[-81.58356300035075,30.562272999649057],[-81.5833270003492,30.563109999686578],[-81.58323500028769,30.563861999703406],[-81.58323899958734,30.564489000080528],[-81.58353300021354,30.565198000094846],[-81.58440600007462,30.5659880001476],[-81.58508399994206,30.56631900029193],[-81.58576099998457,30.56652500038409],[-81.58653500011145,30.56668799978287],[-81.58788599982346,30.56659899964208],[-81.58889900032493,30.566427999933364],[-81.58976700016318,30.566215000349544],[-81.5905859995976,30.565959999840576],[-81.59140499993035,30.565663999746825],[-81.59212700017869,30.565326000338395],[-81.59289700010764,30.564864000368107],[-81.59352200027162,30.564442999966023],[-81.59433999988111,30.563937000361566],[-81.59506100030457,30.563474999964956],[-81.59573400014914,30.5629700001055],[-81.59655099993373,30.56234000026444],[-81.59722399977828,30.5618349999122],[-81.59799299988231,30.561372000167054],[-81.598668000275,30.561118999648503],[-81.59934299976938,30.560989999870085],[-81.60016299992705,30.560860999920106],[-81.60175399983854,30.560560999805144],[-81.60286100005136,30.560053999885007],[-81.60377400009541,30.559297999762034],[-81.60420400026575,30.55858600013385],[-81.60444100009221,30.55795800008492],[-81.60529399986181,30.55532200027453],[-81.60572300020722,30.554401000288724],[-81.60644399973235,30.553855000358737],[-81.60731099974568,30.5535999998578],[-81.60813199972822,30.553638000029558],[-81.60861799997502,30.553695999733662],[-81.60880799994582,30.553717999772452],[-81.60914900042769,30.553820000238666],[-81.6096299997533,30.553965000322545],[-81.61021200025958,30.55437999987218],[-81.61065099975241,30.55500499993705],[-81.61113899964903,30.555837999876072],[-81.61148199978071,30.55671399968168],[-81.61167900032251,30.557339000187394],[-81.61207199978459,30.558339999941104],[-81.61251000035082,30.559047999829314],[-81.61299700042255,30.559673000000558],[-81.61348399959594,30.560338999648916],[-81.61377800022211,30.560964000013858],[-81.61407199995,30.561673999653255],[-81.61426899959348,30.56238300012706],[-81.61417700043029,30.56305200019405],[-81.61374600043507,30.563638999992627],[-81.61324599994457,30.564046000358754],[-81.61307400041544,30.564184999794296],[-81.6122550000827,30.56456499961652],[-81.61148500015375,30.5649030001292],[-81.61101099960251,30.5651239997682],[-81.61076299990539,30.565240000108762],[-81.60970300044656,30.565662999622184],[-81.60869199959487,30.56600200029812],[-81.6077280003955,30.566340999789464],[-81.60657000012904,30.566512999767422],[-81.60589499973636,30.56659999975709],[-81.60512300015759,30.566686999668725],[-81.6043990002594,30.566691000125097],[-81.60357800027684,30.566735999833544],[-81.6027589999441,30.566864999707125],[-81.60237300015471,30.566984999957196],[-81.60193899978646,30.567120000157736],[-81.60146000011065,30.567665000375023],[-81.60141599972971,30.568416999891053],[-81.60156800006568,30.569544999836445],[-81.6018640003417,30.57058799975705],[-81.60215700024465,30.571129999621103],[-81.60274200022567,30.571962000289204],[-81.60332499965854,30.572585999973846],[-81.60397400011198,30.572944999879443],[-81.60442000017582,30.573192000212646],[-81.60497199964652,30.573498000203998],[-81.60685999965895,30.574199999857203],[-81.60778000027402,30.57461300019315],[-81.60844399989777,30.57485099987633],[-81.60868099972421,30.574887000174044],[-81.60871699970922,30.574892000321732],[-81.6087350001509,30.57489400038072],[-81.6088759997179,30.57488400008527],[-81.60899399971866,30.57485299993622],[-81.61100200028,30.575938000031094],[-81.61122700041089,30.576836000317535],[-81.61095000040144,30.5771210002771],[-81.61093500033284,30.57727200037212],[-81.61050400033763,30.577817000003805],[-81.60978200008925,30.57819699978642],[-81.60901200016033,30.578618000043523],[-81.6082909997369,30.57912299964338],[-81.60822399978973,30.579174999668776],[-81.60747399995228,30.579753000304056],[-81.60694500004776,30.58017399999217],[-81.60646600037197,30.580759999838158],[-81.60555499997773,30.581766999740577],[-81.60493200036188,30.582606000056032],[-81.60455099969705,30.583402000265167],[-81.60431300004569,30.58402900038286],[-81.60443199987137,30.584364999709553],[-81.60460799959846,30.584863999976122],[-81.60528700018912,30.585320000265767],[-81.60576599986491,30.58545499969067],[-81.6059680004296,30.585511999786693],[-81.60612200041538,30.585556000122786],[-81.60615800040038,30.585566000090928],[-81.60625700013459,30.585569999768566],[-81.60636699973946,30.58557400021938],[-81.6068839999484,30.585597999827414],[-81.60702700006354,30.58560400011515],[-81.60789599972668,30.585474999646767],[-81.60871500005939,30.5851779996424],[-81.60938799990397,30.584757999957688],[-81.6096430001721,30.584535000342978],[-81.61001300006795,30.584211000033793],[-81.61097299996767,30.583287999878355],[-81.61159700030674,30.582699999946918],[-81.61217200024201,30.58206999987448],[-81.61327600008181,30.581020999903043],[-81.61375599958251,30.580518000077674],[-81.61438199957139,30.580179999842287],[-81.6150569999641,30.580136000159698],[-81.61575400009811,30.58021199980981],[-81.61578199968719,30.58021499973374],[-81.61699199983217,30.58062799997334],[-81.61762200001901,30.58091700025768],[-81.61868700039906,30.5814129998242],[-81.61926900000702,30.58174499987519],[-81.62033400038706,30.582240999845958],[-81.62130400033253,30.58286300000241],[-81.62203200042866,30.58340300020689],[-81.6228090000303,30.584109999747042],[-81.62324800042144,30.58490100034926],[-81.62378499982356,30.585734000329552],[-81.6245129999197,30.586231999823216],[-81.62480900019571,30.5862299999981],[-81.62530600031317,30.586131000095442],[-81.62583299966956,30.5858409999707],[-81.62643000024444,30.58549700021241],[-81.62691899996597,30.58509900024572],[-81.62808100043038,30.58395499973018],[-81.62867700028205,30.583547000217408],[-81.62936900039318,30.583264999641592],[-81.63012599990333,30.582996999809584],[-81.6310819996051,30.582741000166983],[-81.63209299955847,30.58254200014397],[-81.6329189995639,30.582334000137998],[-81.63377899990451,30.582066000052436],[-81.63449799977982,30.58180099987422],[-81.63539300028054,30.58125600020784],[-81.63591999963693,30.58076900033207],[-81.63606500030019,30.580577999895617],[-81.63630200012666,30.579825000339888],[-81.6365380001282,30.579030000138253],[-81.6370159999791,30.5783159999434],[-81.63778699973295,30.57806300030582],[-81.63860900043872,30.578267000214876],[-81.63914300036612,30.578682000225612],[-81.64021200004578,30.57959600031982],[-81.64066200030759,30.579768999972934],[-81.64118000034145,30.579968000273965],[-81.64185700038395,30.58008899975603],[-81.64267699964329,30.580002000265157],[-81.64352000026548,30.57953599989414],[-81.6435910004106,30.57949599984755],[-81.64411699994206,30.578740999643145],[-81.64435399976851,30.577987999742287],[-81.64463900017387,30.577317999816557],[-81.64482800031976,30.57664899991335],[-81.6451129998268,30.576021000003294],[-81.64571500042456,30.575644000266347],[-81.64577399997579,30.575607000227524],[-81.64578700039458,30.575599000050058],[-81.64600599977939,30.575617999697066],[-81.64603900028966,30.57562199978512],[-81.64665600005773,30.575679000248243],[-81.64748000041332,30.57613499965363],[-81.64825500036514,30.576548000256487],[-81.64907799999752,30.57679499992062],[-81.64989800015519,30.576623999625166],[-81.65052199959592,30.576120000175397],[-81.6508079998262,30.57553300010754],[-81.65060299978678,30.573737000344632],[-81.65050099967954,30.57302800009288],[-81.65055500010621,30.572739000272737],[-81.65064100031994,30.572274999916424],[-81.65112099982065,30.571812999783138],[-81.65174699980953,30.571516999759908],[-81.65266200040173,30.571303999748682],[-81.65338600029992,30.57125899983892],[-81.65415799987868,30.571129000326266],[-81.65492899963253,30.570874999657054],[-81.65565000005597,30.570410999664837],[-81.65617899996049,30.57003299969749],[-81.65665699981137,30.569403000087796],[-81.65723099992174,30.568607000208065],[-81.65761400023636,30.56802000030316],[-81.65809399973708,30.56759999977901],[-81.65852499973231,30.567137999809333],[-81.65900400030642,30.566551000297057],[-81.65943399957843,30.565880000134218],[-81.65950899992148,30.56564599982174],[-81.65962299972429,30.565295000228456],[-81.65966600028032,30.564458999840202],[-81.65951499976927,30.56366499990551],[-81.65941299966202,30.562830999702815],[-81.6598190004412,30.562160000111074],[-81.66037099991192,30.561677000150603],[-81.66057799960116,30.561405000320566],[-81.66089599961849,30.561645999648256],[-81.66075599987639,30.561093999998658],[-81.66118199984875,30.560612999726523],[-81.66128300013108,30.560543999884313],[-81.66144799998753,30.560236999845873],[-81.66156400033847,30.56009400021448],[-81.66156400033847,30.559456999718314],[-81.6610589998251,30.55894900002445],[-81.66095199969497,30.55828099971725],[-81.66171300030139,30.558477000191385],[-81.66239899966642,30.558727000048087],[-81.66315100005203,30.558737999884652],[-81.6637419998808,30.558570000064783],[-81.66353500019157,30.558047999846224],[-81.6628820004385,30.557779999950252],[-81.66239500036679,30.55723300025262],[-81.66235299963567,30.556621000350322],[-81.66242299995588,30.556046000234872],[-81.6626299996451,30.55522699991844],[-81.6622830002138,30.554587000022533],[-81.66167499976824,30.554311000239668],[-81.66091499988505,30.554124999976942],[-81.66023700001763,30.55400399982264],[-81.65932800017151,30.553864000254972],[-81.65867000039557,30.55350999983958],[-81.65863299968734,30.552831000269997],[-81.65891999974252,30.552636999741587],[-81.6591659997898,30.552260999902273],[-81.66011300016908,30.551574999763446],[-81.66085799998366,30.551355999981553],[-81.66185100039367,30.551198999678462],[-81.66268200042197,30.551041999894984],[-81.66373299965998,30.550842000315487],[-81.6643109999683,30.5509060002567],[-81.66498600036098,30.551094999776343],[-81.66590799972758,30.551411000234637],[-81.66666900033398,30.551700999647192],[-81.66718200034498,30.552151999818534],[-81.66750399966195,30.55291800014972],[-81.66800900017533,30.55417000009817],[-81.66852600038426,30.55474899989955],[-81.66849799989686,30.554813000359026],[-81.66936400008528,30.55509500011618],[-81.67010499970188,30.555296999904847],[-81.67086299993525,30.555503000190768],[-81.67174699966702,30.555741000344756],[-81.67261600022846,30.556074999758593],[-81.6730060002158,30.55660099985862],[-81.67235799958729,30.55702799998463],[-81.67154300035082,30.55715499996395],[-81.67069200023104,30.55717699999224],[-81.67026500043376,30.55717500034147],[-81.66941799961363,30.55714100008403],[-81.66877699955612,30.557127999641143],[-81.66838499991896,30.55717100026632],[-81.66809500038906,30.557207000163334],[-81.66785600001444,30.55731199991577],[-81.66769399963275,30.557436999878135],[-81.66767400043956,30.557609000169567],[-81.6677329999908,30.557808999729343],[-81.66784799961852,30.558055999924143],[-81.66806899955147,30.55864900018667],[-81.6681349996737,30.558882000161752],[-81.6680569998559,30.559128999946108],[-81.6679589999466,30.55935700014106],[-81.66790100022028,30.559583000199243],[-81.66774100038671,30.56013399975397],[-81.66770399967848,30.56034899989686],[-81.6677329999908,30.56052400020113],[-81.66783300044821,30.560670999903426],[-81.66797700038828,30.56071600008347],[-81.66815499976519,30.560723999941448],[-81.66833700023838,30.560726999694623],[-81.66877999992917,30.560661999864895],[-81.6689990002123,30.56065000007011],[-81.66949499960653,30.560538999770543],[-81.66988700014198,30.56042400017641],[-81.67024199996924,30.560312000211997],[-81.67070899994948,30.560200000118364],[-81.67098199976094,30.56012499966563],[-81.6715149998634,30.559969999990297],[-81.67182500038314,30.559840000046727],[-81.67216799961648,30.559717999869928],[-81.67255699977892,30.559675000373353],[-81.672808999674,30.559745000245606],[-81.67290400010855,30.55986699961499],[-81.67293800044374,30.560085000122477],[-81.6728720003215,30.560364000266805],[-81.67273699970397,30.560722999765876],[-81.67260100015986,30.561065999826237],[-81.67246100041777,30.561451999722884],[-81.67234599989172,30.56176100011461],[-81.67225100035549,30.56203600020646],[-81.67212800033184,30.562319000018846],[-81.6719500000566,30.562469999952715],[-81.67170200035947,30.562566000336645],[-81.67137199974829,30.56262799997007],[-81.67107399982245,30.562624000119666],[-81.67045399968134,30.562704000190287],[-81.67015599975551,30.56275900020058],[-81.66993700037071,30.562734000199754],[-81.66970200019408,30.5627530000463],[-81.66951200022328,30.562849000150173],[-81.66938800037471,30.562946999690908],[-81.669338000146,30.563061000010862],[-81.66934200034396,30.5631790000246],[-81.66939699969723,30.563300999717395],[-81.66974400002687,30.563467999707623],[-81.67016699962616,30.5636890002949],[-81.67086499958506,30.56401300032996],[-81.67140799973329,30.56427700024602],[-81.67201600017884,30.56458000010815],[-81.67259199993902,30.565000999915725],[-81.67334900034747,30.56567900006859],[-81.67358600017393,30.565933999769218],[-81.67376100007613,30.566081999903805],[-81.67394100000118,30.56618700010803],[-81.67412799959892,30.56624299980952],[-81.67435899957762,30.566248999748034],[-81.67452599998218,30.566193000050003],[-81.67462999973927,30.566103000108473],[-81.67477200002949,30.565955000005857],[-81.67491699979445,30.565774000247714],[-81.67499700016039,30.565633999869846],[-81.67506599975735,30.565453999639626],[-81.67520300002471,30.56520299996852],[-81.67538299994976,30.564927000212343],[-81.67553199991268,30.564669999915576],[-81.67574699999783,30.564384999723398],[-81.67588099989212,30.564150000305744],[-81.67616799994731,30.56366499990551],[-81.67630600003957,30.563363999803098],[-81.67644499995676,30.563114000290454],[-81.67660099959234,30.562900000239253],[-81.67678200024064,30.562704000190287],[-81.67694100024929,30.562565000180054],[-81.67708799966407,30.56239300016435],[-81.67732600021377,30.56223499976431],[-81.67756800006309,30.56213899982646],[-81.67782699963087,30.562100999889246],[-81.67805900033277,30.562095999855718],[-81.67827900044081,30.562108999632976],[-81.67851200006932,30.56215000004978],[-81.67871100026095,30.562247000136672],[-81.67894399988946,30.56233400008426],[-81.67922699974666,30.56239200000598],[-81.67946500029635,30.562453999750584],[-81.67963500017565,30.562521000240984],[-81.6798490004359,30.562589000068016],[-81.68012999974498,30.562665999700876],[-81.68036499992162,30.562718000041173],[-81.68064500030411,30.562809000182877],[-81.68114400007138,30.563027999647044],[-81.68131300012578,30.563151999830936],[-81.68148800002798,30.56333199969103],[-81.68170300011313,30.563528000018334],[-81.68194499996245,30.563732999704282],[-81.6821440001541,30.563904999664963],[-81.68227600039859,30.564061000157178],[-81.68237400030787,30.564222999688777],[-81.68260899958621,30.564565999752485],[-81.68268599957909,30.56465799984296],[-81.68280299975494,30.56483300011054],[-81.6829120004332,30.56504599963459],[-81.68301199999232,30.565285999845365],[-81.68313400019107,30.565824000223195],[-81.68320899963582,30.56600399976691],[-81.68333699968234,30.566181000165713],[-81.6835300000262,30.566313000357756],[-81.68375000013421,30.566412000383988],[-81.6839669998692,30.566411000266978],[-81.68420200004583,30.566361999938003],[-81.68435100000873,30.56626799967965],[-81.6844959997737,30.566118000362355],[-81.68469800033837,30.56592299997493],[-81.68487800026342,30.56570299995976],[-81.68501899983043,30.565508999637935],[-81.68520299995343,30.565277000234897],[-81.68537700003071,30.565099000376787],[-81.68553699986428,30.564941999874538],[-81.68565200039032,30.564772999833362],[-81.68580399982798,30.564536999672246],[-81.68593400042263,30.564312999827333],[-81.68608699968519,30.564014999839756],[-81.68616799987605,30.56380899983243],[-81.68625800028775,30.563399000348653],[-81.68638100031139,30.563058999707888],[-81.68641100044862,30.562907999917094],[-81.68654899964255,30.562726999888962],[-81.68677499959836,30.56263099966438],[-81.68703200041463,30.56260400009169],[-81.68726400021822,30.562624000119666],[-81.68748400032624,30.56269699987733],[-81.68764800035778,30.562783000040604],[-81.68777100038142,30.56289500024688],[-81.68807099995708,30.56323600006499],[-81.68815799999571,30.563374999887515],[-81.68826099992788,30.56352900016505],[-81.68831299980641,30.563687000004865],[-81.68836700023309,30.56388999984243],[-81.68842800033245,30.56408599981607],[-81.68846799961712,30.564266000263853],[-81.6884590002946,30.564490000217283],[-81.68842699960923,30.56472599971921],[-81.68830699995863,30.5653080003506],[-81.6882349999886,30.565488000078258],[-81.68815299997284,30.56570199983551],[-81.68813000040662,30.566302999951063],[-81.6881849997599,30.56638599966027],[-81.68826699977566,30.56646300014706],[-81.68836600040818,30.566520999920872],[-81.68874899982451,30.566567999938904],[-81.68917999981973,30.566519999805056],[-81.68974999973211,30.56656099990476],[-81.69004400035831,30.56656500036632],[-81.69035700035275,30.566604000217055],[-81.69065000025572,30.56671200019794],[-81.69134400001667,30.56700399974468],[-81.6917330001791,30.567101999729356],[-81.69209499967903,30.567171999657766],[-81.69238500010725,30.567171000322144],[-81.69277699974442,30.567010999746884],[-81.69291800020973,30.566864999707125],[-81.69307499967024,30.56668500021399],[-81.69315300038636,30.56649399988378],[-81.69316199970889,30.566315999938137],[-81.6931910000212,30.565854000041423],[-81.69316000005907,30.56529600035689],[-81.69308700026414,30.564982999867627],[-81.69304100023338,30.56468099985193],[-81.69303700003542,30.56437499989142],[-81.69306700017265,30.56409900010022],[-81.6931490001884,30.563940000015407],[-81.69331999989264,30.563776999867173],[-81.69350599966548,30.56362000031964],[-81.69366899987209,30.56354600033637],[-81.69391099972144,30.56346000007594],[-81.6946279999469,30.563243000339053],[-81.69496000020793,30.563181999701875],[-81.6952670003546,30.563172999896246],[-81.69552099989951,30.56317000021868],[-81.69570199964946,30.563246000014367],[-81.69585900000831,30.563411999951402],[-81.69605200035215,30.563594999767155],[-81.6961550002843,30.563790000192736],[-81.69616799980479,30.564001000176024],[-81.69615299973617,30.564215000119354],[-81.69609400018494,30.564445000240525],[-81.69601200016918,30.564692999921707],[-81.69589800036637,30.564922999683223],[-81.69573900035772,30.56513200003619],[-81.69559399969444,30.565332999688167],[-81.69540999957141,30.56552700036195],[-81.6952749998522,30.56571000005584],[-81.69518799981357,30.565865999966153],[-81.69516100004938,30.56607499983458],[-81.69519200001152,30.566479999804326],[-81.69523800004227,30.566697000035887],[-81.69534099997443,30.56690699977286],[-81.69545800015031,30.567142000247106],[-81.69553199977014,30.567323999880916],[-81.69567300023546,30.567498999980295],[-81.69584300011478,30.56773600000052],[-81.69613000016996,30.568123999857388],[-81.69646499990571,30.56853599967315],[-81.6966199997164,30.56874800025571],[-81.69676200000663,30.568958000193515],[-81.69689599990093,30.569146000046782],[-81.69708900024477,30.569291999747357],[-81.69723300018482,30.569420000003284],[-81.69738499962247,30.56954900017496],[-81.69756000042298,30.56964300034791],[-81.69775899971629,30.56967199967526],[-81.69794899968707,30.56966599994847],[-81.69818399986372,30.569610999986587],[-81.69839200027619,30.569540000186553],[-81.69853700004114,30.569463999907278],[-81.69873000038498,30.569337999882915],[-81.69890100008922,30.5691689997652],[-81.69906099992276,30.56898300013737],[-81.69918399994644,30.568768999883172],[-81.69943400019169,30.568204000033628],[-81.6995050003368,30.567968999811665],[-81.69958900000239,30.56776100025934],[-81.69971299985095,30.567575000252152],[-81.69987500023265,30.567314000351892],[-81.70011899973181,30.56708400007108],[-81.70035599955827,30.566824999848652],[-81.70065799968206,30.566625999649958],[-81.7008300001095,30.566505999729355],[-81.70105000021753,30.566378000269186],[-81.70124299966307,30.56622000017087],[-81.70137400008264,30.56607399971416],[-81.70155200035788,30.56592600034087],[-81.70164600006919,30.565742000157083],[-81.70166000031291,30.565545999661477],[-81.70160000003844,30.56515999980874],[-81.7015320002664,30.564904999620648],[-81.7014629997711,30.564703999855457],[-81.70116599967018,30.564305999630456],[-81.70099300031613,30.563930000137564],[-81.70109000040051,30.563758000221156],[-81.70121699972381,30.563650000045875],[-81.70138199958025,30.563552999814572],[-81.70204600010229,30.563461000223302],[-81.70259500009828,30.56344900000115],[-81.70287499958245,30.563468999854898],[-81.70381799976374,30.56356000006576],[-81.7041030001691,30.563588000291997],[-81.7043779996304,30.563599000351033],[-81.70459199989065,30.56364299980116],[-81.704757999572,30.56373399984882],[-81.70487499974786,30.56389399964062],[-81.70494500006807,30.56407399967115],[-81.70499399957355,30.564231000031075],[-81.7050320001067,30.564389000274705],[-81.70506200024391,30.564694000056353],[-81.70507399993949,30.564805000243616],[-81.70510400007672,30.564971999965522],[-81.70512499999312,30.56515000005664],[-81.70507399993949,30.565304999965605],[-81.70503399975651,30.565440000183536],[-81.70494800044112,30.56560399998359],[-81.70485499965638,30.565792000149063],[-81.70472999998289,30.56592600034087],[-81.70459100006573,30.56604399996397],[-81.70384100022828,30.566593999840347],[-81.70370599961075,30.56673300026615],[-81.70362799979296,30.56685999991912],[-81.70357000006662,30.566974999619724],[-81.70355900019598,30.567079999630902],[-81.70358400031034,30.567173999875997],[-81.70365700010528,30.567256999613424],[-81.70374099977086,30.56730899981352],[-81.70383799985524,30.56734000005338],[-81.70393499993962,30.567359999878516],[-81.70409200029844,30.567359999878516],[-81.70429700033786,30.567348000138626],[-81.70474300040169,30.567281999995746],[-81.70493599984722,30.567261000046297],[-81.70514099988664,30.567197000061988],[-81.70533300040559,30.567143999692476],[-81.70555099996547,30.567143000356523],[-81.7057919999899,30.567109999834233],[-81.70599700002929,30.567066999746153],[-81.70680499959307,30.56702100008059],[-81.70698600024134,30.56697799995312],[-81.7074199997113,30.566861000031423],[-81.70786599977515,30.56677499961559],[-81.70799800001963,30.566742999855084],[-81.70811799967024,30.566700999718357],[-81.70840700027354,30.566542000030505],[-81.70855100021357,30.56645800033832],[-81.70867099986418,30.56639399982419],[-81.70881599962914,30.56636300005551],[-81.709044999958,30.566267000334676],[-81.7094049998081,30.565994000101874],[-81.70957499968742,30.565895999771406],[-81.70976100035858,30.565858999881346],[-81.70995499962902,30.565865999966153],[-81.71008799969842,30.565920999730896],[-81.71020700042241,30.566000000055716],[-81.710475000211,30.566247999629354],[-81.71059099966365,30.566346000377735],[-81.71067299967942,30.566459999797733],[-81.71073200012897,30.566577000203054],[-81.71087000022122,30.566804999913163],[-81.71100199956739,30.566959000160548],[-81.71113100033713,30.567137999809333],[-81.71121199962967,30.56728400021165],[-81.71133499965332,30.567546999629695],[-81.71142400024009,30.56767900028353],[-81.71154700026374,30.56790599962249],[-81.71165199984571,30.568029999759425],[-81.71175899997584,30.568152999638873],[-81.71186399955782,30.568253000205686],[-81.71196999986306,30.56834299969947],[-81.71205100005389,30.56847000033854],[-81.71212499967375,30.568581000072715],[-81.71223699982673,30.56869800024032],[-81.7124889997218,30.56891099978652],[-81.71311399988578,30.56952000003742],[-81.71345600019255,30.56977000005841],[-81.71385700005055,30.570015999889385],[-81.71427600035021,30.570257000256994],[-81.71475300037618,30.570508000000107],[-81.71517599997549,30.57076999988649],[-81.71551599973411,30.57098699980268],[-81.71594000005663,30.571235999842674],[-81.71643799999902,30.5714079996492],[-81.71674799962041,30.571461000009258],[-81.71705700031521,30.571431999669905],[-81.7174869995872,30.571367000051236],[-81.71773799965736,30.571329999927595],[-81.71794000022204,30.571281999829775],[-81.71833799970697,30.571144999871116],[-81.7187119998008,30.57100699964933],[-81.71973500034805,30.57058500030877],[-81.71998700024312,30.57046800009689],[-81.72024099978802,30.57045800011848],[-81.72043499995678,30.570519000047895],[-81.7206120004071,30.570666000075285],[-81.72081700044652,30.57091899967444],[-81.72099599964834,30.57114800007555],[-81.721154999657,30.571406000291727],[-81.72134999965067,30.571673000386404],[-81.72150700000951,30.571851999844295],[-81.72163000003316,30.571967999873962],[-81.7217389998131,30.571987000232284],[-81.72188299975315,30.571934000159658],[-81.72200300030207,30.571848999661643],[-81.72211100025709,30.571723999703895],[-81.72220599979335,30.571555999940028],[-81.72238400006856,30.57115900005076],[-81.72244400034302,30.57093900030857],[-81.72246600008434,30.570647000231652],[-81.72247600013007,30.570312999929314],[-81.72247299975703,30.57000000015831],[-81.72245799968842,30.56960400017201],[-81.72242099987848,30.569176000384637],[-81.72243400029728,30.56877900003571],[-81.72246500025942,30.56842000017986],[-81.72254499972703,30.56811200021201],[-81.72265199985716,30.567807999676553],[-81.72284299965287,30.56753600001829],[-81.7231680002412,30.5673159997937],[-81.72350399980186,30.567147000020594],[-81.72394999986572,30.566905000322667],[-81.72487600032856,30.566410000150043],[-81.72553800030248,30.566000000055716],[-81.72577799960366,30.56589400030031],[-81.72593800033555,30.565886000095162],[-81.72603899971958,30.565959999840576],[-81.72608499975033,30.56620600005181],[-81.72614300037496,30.566540999914906],[-81.7261669997661,30.56705499997003],[-81.72620600012415,30.567387999781516],[-81.72622200001769,30.56762700028177],[-81.7262789999191,30.567724000307102],[-81.7264050003158,30.567756999847084],[-81.7265259997913,30.567752000105045],[-81.72665399983781,30.567680999717755],[-81.72675400029524,30.5675569999082],[-81.72688800018953,30.567349000245915],[-81.72706999976442,30.567109999834233],[-81.72724899986456,30.56695100004323],[-81.72763499965393,30.56656099990476],[-81.72789099974698,30.566383000082038],[-81.7281100000301,30.566237999989458],[-81.72838600021461,30.566080999783473],[-81.72874100004185,30.565909999935133],[-81.72897100019564,30.565706000332508],[-81.72910400026501,30.565445000044743],[-81.72912199980837,30.565222000105003],[-81.72915299977052,30.564983999999296],[-81.72914100007493,30.564690000291137],[-81.72907999997558,30.56447999962267],[-81.72893500021063,30.56442300031306],[-81.72878100022483,30.564481999896348],[-81.72863599956156,30.564602000000022],[-81.72852400030689,30.56475300024836],[-81.72841100032896,30.56497400022912],[-81.72827300023671,30.56517699969428],[-81.72811500005298,30.565252000109396],[-81.72794000015078,30.565248000367184],[-81.72752699969891,30.564986999620768],[-81.72728300019975,30.564876999774565],[-81.7270680001146,30.564782999624263],[-81.72686200025028,30.564678000221004],[-81.72660199995929,30.56459300032616],[-81.72628800013992,30.564509999856497],[-81.7260260001991,30.564417999625668],[-81.72579100002245,30.56430699976916],[-81.72558400033323,30.564138000168818],[-81.72538000011872,30.563953999687943],[-81.72524700004932,30.563736000137904],[-81.72516800040661,30.563526999871666],[-81.72513400007142,30.563274999706962],[-81.72517900027727,30.562740999736516],[-81.72529100043027,30.56217299987976],[-81.72537099989789,30.56187699983494],[-81.72546600033245,30.56158900022075],[-81.72555099982296,30.56133500009873],[-81.72572700044836,30.561133999899404],[-81.72609999981894,30.560730999623214],[-81.72618900040572,30.560545000061726],[-81.72622899969036,30.56036800021036],[-81.72628599959178,30.560163000376694],[-81.72636000010995,30.55990899961601],[-81.72646300004212,30.559729000367703],[-81.72658799971556,30.559578000035945],[-81.7267860000823,30.559444000359246],[-81.72699600014458,30.559361000126177],[-81.72720799985669,30.55939400019006],[-81.72737699991107,30.55955800015366],[-81.72747800019343,30.559771999840294],[-81.72754199976752,30.560010999763826],[-81.72764999972256,30.560312000211997],[-81.72778299979196,30.5605850001888],[-81.72788099970124,30.560854999648463],[-81.72795799969413,30.561138999982578],[-81.72796100006718,30.561410999784727],[-81.7278630001579,30.56168700026065],[-81.72772800043867,30.561936000192922],[-81.7276029998669,30.56211599998836],[-81.72760799988976,30.56220300005341],[-81.72770999999702,30.56228200031164],[-81.72784100041657,30.562386999987385],[-81.72800700009793,30.562477999666065],[-81.72828099973431,30.56254600029669],[-81.72870599988177,30.56258000020743],[-81.7291510001207,30.562596999771568],[-81.72954899960563,30.562612999950098],[-81.73005199957088,30.56260400009169],[-81.73054500038869,30.562532999804443],[-81.73093500037602,30.562417000094918],[-81.73133299986098,30.562174000040397],[-81.731665000122,30.561864000026535],[-81.73186500013853,30.561623999859602],[-81.73195700020004,30.56134400007486],[-81.73196999972052,30.56107300025686],[-81.73184400022214,30.560838999953518],[-81.731516999984,30.56056800027222],[-81.73118200024824,30.560282000227247],[-81.7307090004202,30.559780999961383],[-81.73050799968046,30.5593980001736],[-81.7304120003193,30.559199000212228],[-81.73027599987687,30.559041000026138],[-81.72997399975307,30.55873299967777],[-81.72988099986665,30.558591999772297],[-81.72983300018608,30.55845000023645],[-81.72981300009458,30.558256000109825],[-81.72985300027756,30.558107999640757],[-81.72990099995812,30.55797199984698],[-81.72998499962372,30.557842999752758],[-81.73009099992895,30.557698000047786],[-81.7301939998611,30.557606000320007],[-81.73030500018918,30.5574980002592],[-81.73042999986265,30.55737600023223],[-81.73058600039657,30.557149999675556],[-81.73067199971199,30.55704199988086],[-81.73076100029876,30.55698799993843],[-81.73086900025379,30.556964000212243],[-81.73099300010234,30.556971000165227],[-81.73112299979869,30.556986999724348],[-81.73123599977659,30.557051000255143],[-81.73135899980024,30.55713599979491],[-81.73147699980102,30.557249999979934],[-81.73173200006916,30.55755099970957],[-81.7320180002994,30.557770999643573],[-81.73216499971419,30.55786400019354],[-81.73227500021737,30.55798600038059],[-81.73241099976148,30.55812200015475],[-81.7325310003104,30.558218000199087],[-81.73273200015184,30.558416999851488],[-81.73300199959027,30.558594000167353],[-81.73314300005559,30.558613000050997],[-81.73345900042307,30.558615999869424],[-81.7336939997014,30.558599000381403],[-81.73388600022035,30.558613000050997],[-81.73406199994744,30.558639999960636],[-81.7342560001162,30.55872099964444],[-81.73440599990401,30.55888499997187],[-81.73443000019348,30.559077000003025],[-81.73452599955462,30.559441999981708],[-81.73461299959325,30.55947899999824],[-81.73472200027152,30.559464000265027],[-81.73483199987638,30.559418000088847],[-81.73500500012875,30.559264000248398],[-81.73521000016814,30.5590309996434],[-81.73536300032902,30.558747000101576],[-81.73575599979111,30.558064000001348],[-81.73631099963488,30.557088999849263],[-81.73655300038253,30.55648099991622],[-81.736529999918,30.5563270000564],[-81.73649700030603,30.55619900031844],[-81.73640699989434,30.556119999749278],[-81.73632999990144,30.556071999861604],[-81.73618000011363,30.556068999964527],[-81.73603199997562,30.556091000239007],[-81.73589999973115,30.55615000024713],[-81.73569800006477,30.55624300002983],[-81.73553300020833,30.556377999705518],[-81.73535800030614,30.556570000055324],[-81.7352210000388,30.556706999710162],[-81.73504799978643,30.55682700014668],[-81.7348970001737,30.55690200005409],[-81.73478099982275,30.556896999752656],[-81.73468799993633,30.556828999804612],[-81.73458199963112,30.55669500019982],[-81.73452399990481,30.556468000158503],[-81.7345160004072,30.556178000290927],[-81.73447700004913,30.55530399997808],[-81.734482000072,30.554842000251156],[-81.73448000042218,30.55445099993611],[-81.73438800036068,30.55399199997811],[-81.7342350001998,30.55354000037066],[-81.73393800009887,30.553116000359033],[-81.73365500024167,30.552774000306464],[-81.73335700031582,30.55252900034006],[-81.73310600024567,30.5522579998874],[-81.732983000222,30.552005999855233],[-81.73297400000119,30.551827000140992],[-81.73299099971962,30.5517389997888],[-81.73304400032139,30.551626999858087],[-81.73316099959892,30.551533000023728],[-81.73331499958472,30.55148399991762],[-81.73349399968487,30.55148399991762],[-81.73360500001294,30.551529999986364],[-81.73378800031105,30.551626000362365],[-81.73397099971083,30.551799999883183],[-81.73426000031417,30.551996999786716],[-81.73454099962323,30.552139999745044],[-81.73479699971628,30.5522169999329],[-81.73508999961923,30.552171999679828],[-81.7353609997809,30.552171999679828],[-81.73568100034633,30.552407999743302],[-81.73589300005844,30.55259599994712],[-81.73605500044015,30.55263800000049],[-81.73614900015147,30.55263800000049],[-81.73628200022088,30.55256599989788],[-81.73636500006154,30.552434000344583],[-81.73655300038253,30.55201600018824],[-81.73668999975155,30.55148399991762],[-81.7369319996009,30.550551000377137],[-81.7370939999826,30.550232000136212],[-81.73727100043294,30.550082000012214],[-81.7376010001458,30.550036000030875],[-81.73774400026095,30.54997200028971],[-81.73777900042103,30.549861000155026],[-81.73776400035243,30.549674000358987],[-81.73771499994862,30.549452000054863],[-81.73756699981062,30.549167000038835],[-81.73748300014505,30.548914999718537],[-81.73745399983271,30.548604000373942],[-81.73730599969471,30.548399999976684],[-81.73707499971603,30.54828900036543],[-81.73660199988801,30.54817400018137],[-81.73629200026662,30.54817400018137],[-81.73593700043936,30.548194999619714],[-81.7356369999654,30.54816100008467],[-81.735247999803,30.54804200007118],[-81.73481400033303,30.547866999695337],[-81.7345039998133,30.54777800008613],[-81.73438099978966,30.54756900026568],[-81.73433700030705,30.547339000376418],[-81.7342279996288,30.5472450002581],[-81.734081000214,30.54726200018751],[-81.73392300003026,30.547312999957757],[-81.73374599957994,30.547351999809543],[-81.73364699984575,30.54727900011389],[-81.73363299960202,30.54716400028068],[-81.73364199982286,30.54703700038058],[-81.73372600038677,30.546858000013895],[-81.73382000009809,30.54664899976024],[-81.73399199962722,30.546381000109257],[-81.73413499974237,30.54618499996542],[-81.73431700021558,30.546103999877293],[-81.73451899988193,30.546065000297848],[-81.73481400033303,30.54607000038369],[-81.73507500044893,30.5461330000503],[-81.73540000013895,30.546236000301462],[-81.73574499992044,30.546448999640393],[-81.73598599994487,30.54666200005935],[-81.73627200017515,30.5467849999468],[-81.73658199979653,30.546951000189395],[-81.73678900038408,30.547088000269017],[-81.73703500043136,30.54712200017978],[-81.73725700018922,30.54706600027491],[-81.73746800007643,30.54692200026073],[-81.73762600026016,30.546636000233047],[-81.73770499990289,30.54636400002564],[-81.73766499971991,30.54612499976337],[-81.7374880001679,30.545937999733827],[-81.73716299957958,30.545840000037856],[-81.73675900024686,30.545796999808484],[-81.73638500015305,30.54570299974449],[-81.73603600017357,30.545452000049504],[-81.73571499978321,30.54511500020912],[-81.73565100020912,30.544859999958845],[-81.7357700000348,30.544629999841323],[-81.73611399999137,30.544322999753778],[-81.73662100015459,30.54407200035966],[-81.73702500038563,30.543829000019805],[-81.73735500009852,30.54362900028039],[-81.73765100037451,30.543399000341566],[-81.73789700042181,30.54306600022168],[-81.73800500037686,30.542827999938023],[-81.73800000035398,30.54274300024796],[-81.7379459999273,30.5426279996842],[-81.73782299990366,30.542529999742147],[-81.73774900028381,30.542512000168358],[-81.73756699981062,30.542440000292395],[-81.73720299976256,30.54239700010466],[-81.73672499991166,30.542427000201673],[-81.73635599984073,30.54245700028942],[-81.73596199965542,30.54249100027448],[-81.73553300020833,30.542385000372747],[-81.73532200032115,30.542264999877112],[-81.73519799957427,30.542137999758456],[-81.73518900025175,30.541954000120427],[-81.735247999803,30.54177099973094],[-81.73540000013895,30.54158799977028],[-81.73568600036921,30.541401000287077],[-81.73604000037153,30.541246999714133],[-81.73637000008442,30.54115800022617],[-81.73674500000315,30.541123999774396],[-81.73702000036276,30.541084999742118],[-81.73719799973966,30.54102100029],[-81.73732099976334,30.54091900030231],[-81.73741899967261,30.540795999947125],[-81.73749800021363,30.540590999782633],[-81.73748300014505,30.54038700034417],[-81.73735500009852,30.540160999692308],[-81.73704999960167,30.53971800033944],[-81.7369459998446,30.53953500037849],[-81.73684299991244,30.53927899977836],[-81.73676400026972,30.53897700024589],[-81.73669999979731,30.53862699977171],[-81.73678400036121,30.538303999733692],[-81.73697099995897,30.53802199994555],[-81.73715300043216,30.53782199985195],[-81.73724700014348,30.537710999753802],[-81.73727499973258,30.537624999813563],[-81.73725600036433,30.53747700038596],[-81.73714800040928,30.537337000197056],[-81.7370300004085,30.53710200028289],[-81.7370649996703,30.536932000089323],[-81.73723200007487,30.536765999740588],[-81.737403999604,30.5367019997634],[-81.73769999988001,30.536646999688898],[-81.73805399988234,30.536539999947053],[-81.73826599959445,30.536411999652664],[-81.73841899975531,30.536241999798857],[-81.73845300009052,30.535972999622494],[-81.73842399977819,30.535688000276753],[-81.73823700018045,30.535189999738503],[-81.73816799968516,30.534882999983388],[-81.73827099961731,30.53468699984399],[-81.73842399977819,30.534571999799137],[-81.73861600029714,30.534528999996315],[-81.73883700023006,30.534524999761803],[-81.73910800039172,30.534576000031702],[-81.73944300012747,30.534656999677214],[-81.73963499974809,30.534712000104808],[-81.73977299984035,30.534707999877813],[-81.7399800004279,30.534635999632297],[-81.74015199995704,30.53451700006596],[-81.7403100001408,30.53432899967373],[-81.74060999971644,30.533933000373423],[-81.74108799956733,30.533422000373744],[-81.74127000004053,30.53326800030241],[-81.7414370004451,30.53324299966997],[-81.7417129997313,30.53326800030241],[-81.7419589997786,30.53330199963576],[-81.74217100038902,30.533315000174245],[-81.74233799989528,30.53325100024442],[-81.74250600012476,30.533118999965904],[-81.74262400012556,30.532893000198058],[-81.7428109997233,30.532548000247214],[-81.74298800017363,30.532232999995735],[-81.74314100033452,30.53206299979186],[-81.74334300000085,30.531982000304655],[-81.7435990000939,30.531955999642932],[-81.74382500004972,30.531972999927557],[-81.74401199964747,30.532029000024863],[-81.7443029999006,30.532105000215807],[-81.74450499956697,30.532161000237018],[-81.74475099961425,30.532186000374224],[-81.74496300022467,30.532194999957774],[-81.74518900018049,30.532194999957774],[-81.74548999958105,30.532169000126878],[-81.74581500016937,30.53211000024665],[-81.74608100030817,30.53200699971415],[-81.74639099992956,30.531849999849275],[-81.74657800042563,30.531619999870006],[-81.7466810003578,30.531398000073334],[-81.74679900035855,30.53102799980063],[-81.74692300020712,30.53081900029736],[-81.74713900011719,30.53077199999175],[-81.7474000002331,30.53082299991077],[-81.74763200003667,30.530971999900128],[-81.74784799994674,30.531082999961736],[-81.7481390001999,30.531151000145954],[-81.7485619997992,30.53117200017048],[-81.74893199969505,30.53122400035902],[-81.74927099962876,30.53134300009056],[-81.74962299998126,30.53145200032153],[-81.75614099961305,30.531149999665686],[-81.7637479999143,30.53491599985743],[-81.76531500043467,30.51866200003762],[-81.76531600025957,30.518652000139358],[-81.76532200010736,30.518440000041906],[-81.7816239997578,30.503335999809646],[-81.79111200039878,30.505532999803194],[-81.79113699961482,30.505535999713207],[-81.79119299969132,30.50554000036712],[-81.79145399980725,30.5055000000126],[-81.79158799970155,30.50555699985488],[-81.79166499969443,30.50560999978692],[-81.79491799966253,30.50540599965654],[-81.8017940003929,30.494834999884056],[-81.80193199958686,30.494656000103227],[-81.80952600036764,30.48453700024063],[-81.82332700043557,30.47353699965206],[-81.82340500025337,30.473477000282188],[-81.83121199967286,30.46744899965196],[-81.83122699974147,30.467436999959855],[-81.83453999998403,30.464324999703855],[-81.83712400030554,30.462028999869556],[-81.8372270002377,30.46193700017039],[-81.84325199994997,30.456592000221605],[-81.84342699985216,30.456437000361028],[-81.85911799958232,30.442473999766],[-81.86602799974959,30.436325999835596],[-81.86610700029061,30.436256000165102],[-81.86620699984972,30.436257000072196],[-81.86629100041363,30.43625899988646],[-81.86988400014036,30.4329819998519],[-81.88015699988058,30.423619000340867],[-81.88092799963441,30.42283700027761],[-81.88241999981172,30.42151400033486],[-81.89096600009631,30.41393699986377],[-81.8987580003455,30.40699999972213],[-81.89882899959228,30.406936999832464],[-81.89889700026266,30.406868999635446],[-81.89942899964191,30.406336999694652],[-81.90304599965808,30.40311499995694],[-81.91592899965909,30.391637000334455],[-81.91628600003446,30.391351999914857],[-81.91736099956191,30.390492000310985],[-81.9173880002244,30.39046999978393],[-81.9174290002323,30.39043699975893],[-81.93540800000797,30.374056999746298],[-81.93542999974927,30.374036999708153],[-81.93548599982576,30.37398899990993],[-81.93549500004659,30.37398100019961],[-81.93555399959783,30.37393100005775],[-81.93822999998085,30.371637000303874],[-81.93832000039254,30.371560999651024],[-81.94356000010725,30.3671269997241],[-81.94602999972763,30.36503699986878],[-81.94614799972842,30.364927000311628],[-81.94619600030731,30.364883000144108],[-81.94626300025445,30.364832000136563],[-81.9518429997278,30.359879999768193],[-81.95222600004246,30.359539999651012],[-81.95240599996751,30.35936799969785],[-81.95243199990678,30.35934300015719],[-81.95487200028823,30.356995999910243],[-81.95499799978661,30.356883999946632],[-81.95695000027145,30.355186999701786],[-81.9580519995631,30.354223000360626],[-81.96143799960059,30.35126200024896],[-81.96205600009188,30.350720999812687],[-81.96290800003656,30.349975999641018],[-81.96447999968149,30.3485569999407],[-81.96650900015922,30.346805999992544],[-81.97413900002668,30.33998899980945],[-81.97443100010474,30.33973700010372],[-81.97743100035287,30.33693699978429],[-82.00796400024156,30.30927000017708],[-82.00837099994733,30.308903000213796],[-82.00838400036614,30.308896000270888],[-82.01020999955594,30.30726499994262],[-82.01026599963244,30.307214000159536],[-82.01040700009774,30.30708799971484],[-82.01044800010564,30.307051999668836],[-82.01051300040297,30.306995000150653],[-82.01149900024195,30.306116999724374],[-82.0120299997963,30.30563899963465],[-82.01514600039538,30.302956000141492],[-82.0153389998409,30.30278999993172],[-82.01535999975731,30.302772000284484],[-82.01563199974387,30.302537000192633],[-82.01578599972964,30.30240299980883],[-82.0240330002635,30.295235999638717],[-82.02417800002847,30.295133000141433],[-82.02419999976975,30.295117000239955],[-82.02473200004734,30.29473700026111],[-82.02487599998737,30.294610000264466],[-82.03688600012725,30.28403399970012],[-82.03716999980938,30.28378400019059],[-82.03754200025337,30.283457000115803],[-82.04318700002406,30.278564999692083],[-82.04911999967483,30.27343399969691],[-82.04923199982782,30.273336999939634],[-82.04923600002577,30.273431999654903],[-82.0492519999193,30.273430999633884],[-82.04930299997291,30.273429999612812],[-82.04931999969136,30.273429999612812],[-82.04931700021665,30.273407999923325],[-82.0493280000873,30.273357999623265],[-82.04933099956202,30.273340000005522],[-82.04931800004154,30.27240199975533],[-82.04927899968348,30.2695899996532],[-82.04926699998792,30.26865300010392],[-82.04925799976708,30.267969999774348],[-82.04919800039094,30.263594999831536],[-82.0489909998034,30.248421000224564],[-82.04892300003134,30.243363999755104],[-82.04891600035863,30.243212000343213],[-82.04890299993984,30.242944000337765],[-82.04884500021353,30.2416859997652],[-82.04882599994696,30.24126699973371],[-82.04881599990122,30.241033000153774],[-82.04881699972611,30.240978000237995],[-82.04884100001559,30.240112000116635],[-82.0488500002364,30.23982399991618],[-82.04887100015279,30.239066999854384],[-82.04892399985624,30.2371759996132],[-82.04892899987912,30.236795999612372],[-82.04893999974976,30.236039999915388],[-82.04896800023717,30.233942999633303],[-82.04905399955258,30.227651999740523],[-82.04907600019222,30.226080999656883],[-82.04908100021507,30.22555499985116],[-82.04912899989566,30.220693999838364],[-82.04915099963696,30.218481000125724],[-82.04927200001079,30.20611100012554],[-82.04927899968348,30.205446000265614],[-82.04931899986646,30.201433999641196],[-82.04931999969136,30.2013050001453],[-82.04931999969136,30.20124999974909],[-82.0493210004146,30.20107500011916],[-82.04932499971423,30.19976599994595],[-82.04934300015589,30.19531399986022],[-82.0493490000037,30.19382999987056],[-82.0493790001409,30.19283799970284],[-82.04947100020242,30.189866000184416],[-82.04950200016457,30.188874999790524],[-82.04941099992796,30.186932999706578],[-82.04836499981451,30.186933999831194],[-82.04523099967209,30.186938000329743],[-82.04418600028184,30.18693999980244],[-82.04350500004138,30.186940999926996],[-82.04150599970089,30.186933999831194],[-82.03346699957949,30.186906000219608],[-82.03109900006636,30.18689799999635],[-82.03078799972174,30.186900000246364],[-82.02870600043889,30.186906000219608],[-82.02246400009331,30.186926000386716],[-82.02045100040742,30.186932999706578],[-82.02038299973704,30.186932999706578],[-82.02031099976702,30.186932999706578],[-82.02025399986562,30.186865999873227],[-82.02022999957616,30.186838000242314],[-82.01997000018348,30.186821999784023],[-82.01907899988072,30.186769000091704],[-82.01878299960471,30.186752000272243],[-82.0185340000827,30.18674299990985],[-82.01825799989817,30.186739000179966],[-82.01668600025324,30.186717999848025],[-82.0161620003716,30.186710999736437],[-82.01614999977772,30.186710999736437],[-82.0161270002115,30.18671299999019],[-82.01602400027933,30.186724999959168],[-82.01598999994414,30.186729999816382],[-82.01594999976116,30.186728999689677],[-82.01583400030854,30.186728999689677],[-82.01579499995047,30.186728999689677],[-82.01577999988187,30.186728999689677],[-82.01543500010037,30.186726000085912],[-82.01442999999479,30.1867200001017],[-82.01441099972823,30.186718999974893],[-82.01407000014467,30.18671000038599],[-82.01393200005242,30.18671199986332],[-82.01342499988922,30.18669700028817],[-82.01149300039418,30.186638999890434],[-82.01142999974668,30.1866379997628],[-82.01095199989578,30.18661999979293],[-82.01084899996364,30.186616000057995],[-82.01075100005433,30.186612000322896],[-82.01045700032645,30.186600999691716],[-82.01036000024209,30.186598000084107],[-82.00599800041134,30.18654699975187],[-82.00368600007639,30.18657699972209],[-82.00352700006772,30.18657899997863],[-82.00339300017342,30.186571999857104],[-82.00320999987532,30.18655000013754],[-82.00312299983668,30.1865380001473],[-82.00278200025315,30.18649199965332],[-82.00276600035961,30.18649199965332],[-82.00272000032886,30.18649199965332],[-82.00270500026025,30.18649299978243],[-82.00258399988643,30.186496000169807],[-82.00246400023583,30.186499999909564],[-82.00223400008205,30.186505999907236],[-82.0022230002114,30.186505999907236],[-82.00210299966248,30.18650900029417],[-82.00204099973821,30.186509999646585],[-82.0020049997532,30.186510999775567],[-82.0019699995931,30.186511999904486],[-82.00188299955447,30.18651300003339],[-82.00185800033843,30.18651300003339],[-82.00179700023905,30.186514000162333],[-82.0006249997289,30.1865299998941],[-81.99802899971183,30.186568000120285],[-81.9971120003681,30.18658100023513],[-81.9959420004061,30.186598000084107],[-81.99536300027287,30.186598000084107],[-81.99411100029508,30.186598000084107],[-81.99362800042132,30.186616000057995],[-81.99305000011302,30.1866379997628],[-81.99263900020928,30.186653000123457],[-81.99140599959976,30.186698999765753],[-81.99099600041924,30.18671500024398],[-81.99095299986321,30.18671699972119],[-81.99044900007307,30.186735999800042],[-81.99040800006517,30.18673499967335],[-81.98864399990133,30.186717999848025],[-81.98805600044558,30.18671299999019],[-81.98627999968785,30.18669700028817],[-81.98564500037644,30.186690000175027],[-81.98047199971056,30.186638999890434],[-81.97876399962318,30.18662200004854],[-81.9784129999939,30.186618000313747],[-81.978039999725,30.186614999930132],[-81.97600299974968,30.18659599982795],[-81.97482899958969,30.186583999843258],[-81.9744829999833,30.18658000010691],[-81.97130700000807,30.186549000009016],[-81.97022800028266,30.186539000275953],[-81.970133999673,30.186539000275953],[-81.96888800044131,30.186539000275953],[-81.96697100011659,30.186539000275953],[-81.96515000005132,30.186539000275953],[-81.96390399992131,30.186539000275953],[-81.96372800019422,30.186539000275953],[-81.96308100028894,30.18651799990143],[-81.9606149999682,30.18643999991308],[-81.96020200041464,30.186426999779624],[-81.95979300016073,30.18641499977435],[-81.95893799984299,30.186396999763716],[-81.95637399961296,30.186343999842652],[-81.95552000001844,30.186326999949845],[-81.95499399958864,30.186330999696526],[-81.95341899957069,30.186346000103924],[-81.95289399986412,30.18635200011092],[-81.95285200003133,30.18635200011092],[-81.95262199987756,30.186354000372024],[-81.9520750004297,30.186365000254327],[-81.94962099980454,30.186419000293903],[-81.94880300019503,30.18643700030056],[-81.9471329997425,30.186485000302127],[-81.94406200024758,30.186575000242026],[-81.94212499983136,30.186630999645487],[-81.94096400009018,30.18666500009974],[-81.94045600010207,30.186679999679765],[-81.94038499995695,30.186679999679765],[-81.94017200041993,30.186684000188567],[-81.94010200009973,30.18668500031578],[-81.94004500019834,30.186685999666416],[-81.93987399959579,30.186691999652762],[-81.93981800041762,30.18669399990696],[-81.93956099960134,30.186703000273777],[-81.93879200039564,30.186733000196494],[-81.9385360003026,30.18674299990985],[-81.93801700044382,30.18674099965671],[-81.9364599999692,30.186736999926673],[-81.93627800039432,30.186736999926673],[-81.93594199993535,30.186735999800042],[-81.93530199970274,30.186747999766162],[-81.9333829997282,30.186787000034347],[-81.93281600018884,30.186797999868315],[-81.93274400021882,30.1868000001203],[-81.93096900018432,30.186834999865358],[-81.92964000021364,30.186862000148277],[-81.92564499990569,30.18693999980244],[-81.92387099969608,30.18697599962194],[-81.92317600011023,30.186968000180872],[-81.921498999985,30.18695199974375],[-81.92109399992904,30.18694699989781],[-81.9204000001681,30.186940999926996],[-81.92022600009082,30.18693899967781],[-81.91973300017132,30.186948000022287],[-81.91773499965574,30.186988999682995],[-81.91707000020709,30.187002999866223],[-81.91704099989478,30.187009999957116],[-81.91695399985613,30.18703100022673],[-81.91692600026705,30.18703899966276],[-81.91616600038385,30.18705799967944],[-81.91388599983597,30.18711900019877],[-81.91312599995277,30.187139000322624],[-81.91309300034081,30.187141999913756],[-81.91299500043152,30.187163000155245],[-81.91296199992124,30.187158999665908],[-81.91276000025486,30.187156000075284],[-81.91215400035746,30.18714899999476],[-81.91195199979278,30.187146999749814],[-81.9107340001502,30.187132000240894],[-81.909818999558,30.187150000117203],[-81.90783799965915,30.18719199981584],[-81.90341999975189,30.18727999964402],[-81.90335399962966,30.187281999886235],[-81.90128800024031,30.187324000305086],[-81.8991940003636,30.18736599992953],[-81.89291199983504,30.187493999709837],[-81.89081899978322,30.187537000156787],[-81.89079000036922,30.187537000156787],[-81.89077100010265,30.1875380002753],[-81.89073599994254,30.1875380002753],[-81.8907250000719,30.187538999617335],[-81.89070800035346,30.18754099985428],[-81.89067200036844,30.187538999617335],[-81.89065999977456,30.187539999735808],[-81.88685899963536,30.18761799962949],[-81.8754550002912,30.187855000062424],[-81.87165499997691,30.18793399982118],[-81.87160200027346,30.187934999935646],[-81.8714420004399,30.187938000279043],[-81.87138999966305,30.187939999731434],[-81.87072100001645,30.18795499989379],[-81.86871599982817,30.18800199981832],[-81.86804800000647,30.18801800008485],[-81.86507600024576,30.188087000136964],[-81.85972000018008,30.188213999645104],[-81.85616099989024,30.188297000335677],[-81.85318999995444,30.188367999635993],[-81.853137000251,30.188374999629875],[-81.85297900006724,30.188395000275175],[-81.8529270001887,30.188403000376844],[-81.85269399966188,30.188432999781753],[-81.85241199962957,30.188471000050164],[-81.85199200040333,30.188474999709786],[-81.85175800005159,30.18847800003673],[-81.8517299995642,30.18847800003673],[-81.85164699972351,30.18847800003673],[-81.85161999995933,30.188479000145676],[-81.84882800012367,30.188507000086577],[-81.84764599956777,30.188519999945566],[-81.84736199988565,30.18852300027114],[-81.8461469997178,30.18853600012795],[-81.84594500005143,30.188538000344707],[-81.84571800027071,30.188539999784926],[-81.84271499964953,30.188569999924542],[-81.8404519997184,30.188594000185024],[-81.83766099970765,30.188624000308256],[-81.83758500043798,30.188624000308256],[-81.8372270002377,30.18862699985416],[-81.83603200016134,30.18863999969726],[-81.83337900024284,30.188668000368885],[-81.83193599957104,30.1886820003135],[-81.83114700027383,30.18868999961536],[-81.83101699967918,30.188691999828986],[-81.82951899965411,30.188707999983432],[-81.82892100015262,30.188713999846605],[-81.8271300002246,30.18873200021029],[-81.8265329996497,30.188739000178295],[-81.8259910002247,30.188748000358235],[-81.825864999828,30.18874999979419],[-81.82497100005052,30.188764999833193],[-81.82171200023463,30.188820000215458],[-81.8103900000079,30.189009999887848],[-81.8092900003661,30.18902800019743],[-81.80902199967916,30.189032999937748],[-81.80863300041506,30.189039999884354],[-81.80825299957515,30.1890459997273],[-81.80752700002714,30.18905800018846],[-81.80551900036413,30.189092999907604],[-81.80526300027108,30.18909700031846],[-81.80479299991781,30.18910599968919],[-81.80436699994544,30.1891120003046],[-81.80405999979878,30.189118000143104],[-81.8031099999448,30.18913500033067],[-81.80309099967822,30.18913500033067],[-81.80298100007337,30.189136999758777],[-81.80282299988963,30.18914100016776],[-81.8026660004291,30.18913899996327],[-81.8025740003676,30.189125000083667],[-81.80229900000798,30.18908499986199],[-81.80220799977138,30.18907200007763],[-81.80141100007828,30.189057000085395],[-81.79902199975041,30.189013000198486],[-81.79822699970714,30.18899800019727],[-81.79273199972427,30.18901599973261],[-81.79236500020147,30.189090999702184],[-81.79220500036791,30.189092999907604],[-81.7917269996187,30.18909999984995],[-81.79156799961004,30.189103000157864],[-81.79086899982622,30.189108999996964],[-81.79070999981757,30.189110000099497],[-81.78813700026502,30.189132000023747],[-81.78728000029746,30.189140000065546],[-81.786234000184,30.189147000004557],[-81.78537700021641,30.189151999738822],[-81.78450699983007,30.18915899967693],[-81.77619099969922,30.1892180002451],[-81.77341999977999,30.18923900004394],[-81.77328900025874,30.18924000014515],[-81.77289900027138,30.189243999773538],[-81.77276899967673,30.189245999975903],[-81.7726399998053,30.18924700007705],[-81.772253000191,30.189250999705155],[-81.77212500014448,30.189252999907396],[-81.77056099999719,30.189270000071605],[-81.76587100010336,30.189322999971083],[-81.76452000039137,30.18933900002308],[-81.76430799978095,30.18933900002308],[-81.76007300017181,30.18933900002308],[-81.75663899955542,30.18933900002308],[-81.74790999987104,30.18933900002308],[-81.74736800044604,30.18933900002308],[-81.7432459999165,30.18933900002308],[-81.7431339997635,30.18933900002308],[-81.74306000014364,30.18933900002308],[-81.7429859996255,30.18933900002308],[-81.74270399959318,30.18934000012328],[-81.74249799972885,30.18934000012328],[-81.74240099964447,30.18933900002308],[-81.74229100003961,30.18933900002308],[-81.74020399983559,30.18933900002308],[-81.74001899988765,30.18933900002308],[-81.73947200043979,30.189328999796786],[-81.73922999969214,30.18932500017186],[-81.73892400026871,30.18932099977033],[-81.73830800032556,30.189745000277423],[-81.73829300025693,30.189754999684975],[-81.73665399976656,30.1908829997962],[-81.73504600013662,30.191989000129517],[-81.73421299956017,30.192563000163315],[-81.73436499989614,30.1928240003491],[-81.73418900016905,30.192952000023723],[-81.73399099980233,30.193097999874116],[-81.73366399956419,30.193336999661913],[-81.73349000038523,30.19346600028094],[-81.73177300007703,30.192953000087236],[-81.73171799982543,30.192934999718656],[-81.72917899970977,30.19216899996184],[-81.72539799966206,30.191029999691366],[-81.7253230002173,30.191007000107838],[-81.72520299966838,30.191008000191108],[-81.72173700016327,30.191054000128773],[-81.71762100037981,30.191107999926896],[-81.71584799999512,30.19113200034531],[-81.7113480000721,30.19119299989424],[-81.7110159998111,30.19119700021978],[-81.71089500033558,30.191198000301117],[-81.70953700005259,30.19120999972363],[-81.70908500014097,30.19121400004843],[-81.7087999997356,30.19120800033762],[-81.70864099972694,30.191167000103864],[-81.70840800009844,30.19109200016237],[-81.70823099964814,30.191021999803084],[-81.70804099967732,30.1909219999799],[-81.70776500039113,30.190759000104936],[-81.70759200013876,30.19065699984108],[-81.707510000123,30.190585999861486],[-81.70746699956698,30.190548999720555],[-81.70725300020506,30.1903649996739],[-81.70680200011834,30.18997799987598],[-81.70653599997956,30.18974999998133],[-81.70635699987942,30.189595999821925],[-81.70486499970211,30.189697999631775],[-81.70467899992929,30.189711000109977],[-81.70463299989854,30.189683999831583],[-81.70351200034033,30.18902499988725],[-81.70350099957135,30.18902499988725],[-81.7034420000201,30.189034000041108],[-81.7032789998135,30.18905999961812],[-81.7032160000643,30.189085999964764],[-81.70323399960765,30.189126000186047],[-81.70325299987422,30.189165000289112],[-81.7032789998135,30.18919899986856],[-81.70336000000434,30.18930599981602],[-81.70360600005164,30.18962699973728],[-81.70368800006742,30.189733999996168],[-81.70370599961075,30.18975799997294],[-81.7037309997251,30.189791000028542],[-81.70376300041048,30.189833000153932],[-81.70378199977873,30.18985900029651],[-81.70377400028113,30.189869999787323],[-81.70375800038761,30.189893999731005],[-81.7037519996415,30.189901999710912],[-81.703743000319,30.18991500016218],[-81.70353800027958,30.190199000155506],[-81.7029270003593,30.191054000128773],[-81.70273200036564,30.19132599975991],[-81.7027239999697,30.19134000010315],[-81.70270300005332,30.191368000007067],[-81.70264399960378,30.19145199967125],[-81.70262500023551,30.19148099962193],[-81.70250700023473,30.19146900023242],[-81.70215300023241,30.191434999883697],[-81.70203600005654,30.191423999791162],[-81.70188100024583,30.191439000199352],[-81.70031200007566,30.191558000198995],[-81.69964799955362,30.19153399988442],[-81.69937700029028,30.191512999798462],[-81.69928699987861,30.191508000184065],[-81.69901700044016,30.191496000021377],[-81.6989279998534,30.191491999708038],[-81.69883900016492,30.19148800017096],[-81.69878599956316,30.191484999935714],[-81.6987599996239,30.19148399985729],[-81.6987379998826,30.191482999778803],[-81.69849199983531,30.191470999613138],[-81.69824999998596,30.191460000301085],[-81.69816799997021,30.191454999907517],[-81.69797899982431,30.19144599997496],[-81.6978370004324,30.19143800012047],[-81.69741300010988,30.191417000014056],[-81.69727199964456,30.191410000236385],[-81.696935000259,30.191392000362164],[-81.6966900000366,30.191380000185355],[-81.69592599995546,30.191344999726084],[-81.69572400028909,30.1913349997035],[-81.69559000039479,30.191330000080043],[-81.69432199962516,30.191259999889876],[-81.6938949998279,30.19125500026263],[-81.69258699977362,30.191240999907357],[-81.69139300042048,30.191210999804838],[-81.69123100003877,30.191211999886086],[-81.68960800034023,30.19112200030107],[-81.68751899958805,30.190982999658914],[-81.68238500017853,30.190664999759015],[-81.68107999959896,30.190592999697703],[-81.67962599995484,30.190494999615918],[-81.68045399961008,30.186909999942774],[-81.68127399976774,30.1833559997951],[-81.68136199963128,30.182972000130377],[-81.68162699994515,30.181822999673674],[-81.6817159996336,30.181439999649516],[-81.68347599959951,30.17954000038185],[-81.68416000021304,30.178802000101538],[-81.68660300006923,30.176163999813546],[-81.68855999967862,30.174052000201186],[-81.68875600039551,30.17384000018474],[-81.69051600036141,30.17194000036812],[-81.69049999956958,30.171371999903055],[-81.690451999889,30.169670999959305],[-81.69043599999547,30.169103999926378],[-81.69038400011694,30.1672920002713],[-81.69023000013114,30.161856000288708],[-81.69021599988744,30.16133999977816],[-81.69036300020055,30.160052999918666],[-81.6907130000049,30.156990000100837],[-81.69102000015158,30.154313000245843],[-81.6916770001026,30.14857199999216],[-81.69176400014123,30.147801999742214],[-81.69189600038571,30.146656000278888],[-81.69211599959542,30.14473999986481],[-81.69181500019486,30.142338999686736],[-81.6904460000412,30.13980500005215],[-81.68641399992333,30.132338999899986],[-81.682798999557,30.125866000268196],[-81.68048799994527,30.121727999616905],[-81.68035200040116,30.121484000205005],[-81.6802150001338,30.121240000190184],[-81.67585999997576,30.12128400002085],[-81.66795700029678,30.121364000298524],[-81.66793300000734,30.121364000298524],[-81.66790799989299,30.121364000298524],[-81.66788199995372,30.121364000298524],[-81.66785500018953,30.121364000298524],[-81.66782599987722,30.121364000298524],[-81.66779599974,30.121364000298524],[-81.66776499977786,30.121364000298524],[-81.6677320001659,30.121364000298524],[-81.66769700000579,30.121364000298524],[-81.66766100002077,30.121364000298524],[-81.66762300038596,30.121364000298524],[-81.66758300020298,30.121364000298524],[-81.66754200019508,30.121364000298524],[-81.66749899963908,30.121364000298524],[-81.66745400033155,30.121364000298524],[-81.66740699957755,30.121364000298524],[-81.66738200036151,30.12136500031131],[-81.66735700024715,30.12136500031131],[-81.66318700003704,30.12140800007393],[-81.65096299963689,30.121536000015585],[-81.65051400009833,30.121541000070643],[-81.64996799957706,30.12178500011873],[-81.64975199966699,30.121882000120067],[-81.64720800042677,30.123020999800435],[-81.64222700027982,30.12525199985872],[-81.64166499986503,30.125522000078863],[-81.63079999957279,30.130736000071046],[-81.62918400044525,30.131511000189082],[-81.62905700022365,30.131568999614355],[-81.6286179998325,30.13175700027663],[-81.6239279999387,30.133596000316913],[-81.62381300031096,30.133640999968275],[-81.62368799973918,30.13363300008357],[-81.62365500012721,30.13363100030653],[-81.62363199966269,30.13362999964104],[-81.62359499985276,30.133626999975395],[-81.62346500015641,30.133619000089492],[-81.62228199977561,30.13354700031064],[-81.6172549995979,30.133241000275994],[-81.61695599984716,30.13322199998611],[-81.61566600023453,30.133143999780067],[-81.61476700043417,30.13309000007945],[-81.61370899972684,30.13302499995458],[-81.6131990000889,30.132994000107086],[-81.6123119999841,30.132941000219912],[-81.61125199962693,30.13271199979397],[-81.61081200030921,30.13261700012969],[-81.61039899985734,30.132527999772467],[-81.61005499990074,30.132453000273376],[-81.60563399962045,30.131496999894047],[-81.60168199986852,30.130642999896637],[-81.60121200041354,30.130541000356512],[-81.59348000043882,30.127144999743244],[-81.59157399998473,30.126308000315184],[-81.59051100015284,30.125841000308412],[-81.59026699975536,30.125835999694086],[-81.58350399990121,30.125676000104],[-81.58115800012939,30.126055000101545],[-81.58088199994486,30.12610000008251],[-81.57852899960203,30.124306000283973],[-81.57842900004293,30.123848000021457],[-81.57818100034581,30.12361500029918],[-81.57801300011633,30.123473000065406],[-81.57786599980322,30.12334800028161],[-81.57781200027488,30.123326999655962],[-81.5777169998403,30.12328899991841],[-81.57769699974881,30.123280999971865],[-81.57757100025044,30.12323100029088],[-81.57702200025443,30.123012999832106],[-81.57677000035936,30.122913000173504],[-81.57675600011567,30.122907000190747],[-81.57641899983177,30.12262799981387],[-81.57640299993825,30.12260399981148],[-81.57605899998165,30.122069999803276],[-81.57578100014732,30.12175199983225],[-81.57572699972063,30.121723000348336],[-81.57538299976406,30.12155100017999],[-81.5746329999266,30.121492000297145],[-81.57434099984856,30.121311000384047],[-81.57394500001344,30.12088900007959],[-81.57371599968458,30.120573000232305],[-81.57355800039915,30.120480999830935],[-81.57329599956,30.120442999775342],[-81.57315800036606,30.120422000085924],[-81.5731419995742,30.120420000041275],[-81.57310800013735,30.120422000085924],[-81.57284199999856,30.120435999620373],[-81.5726679999213,30.120444999819522],[-81.57262299971546,30.120446999863663],[-81.5726050001721,30.12044799988574],[-81.57229899985035,30.12046400023728],[-81.57210800005463,30.120407999772507],[-81.5719430001982,30.120246999910492],[-81.57182500019742,30.11990000026622],[-81.57165899961775,30.119837000061196],[-81.57157199957912,30.119853999762835],[-81.57155800023372,30.11985699984702],[-81.57154200034022,30.119859999931034],[-81.5713799999585,30.119892000045127],[-81.57105199989545,30.119956000242052],[-81.57090200010761,30.11978500013306],[-81.5708169997188,30.119588999739385],[-81.57055399995308,30.119379000051456],[-81.56999499991132,30.11907399965403],[-81.56952200008331,30.11881500010056],[-81.56870699994853,30.118368999754637],[-81.56792899962367,30.117864000006715],[-81.56778700023177,30.11778900024712],[-81.56774399967574,30.11778199990399],[-81.56764199956851,30.117769000042546],[-81.5674650000165,30.117744000363977],[-81.56740300009221,30.117735999968183],[-81.56738200017581,30.117742000265093],[-81.56727800041874,30.117769000042546],[-81.5672469995583,30.117776999658624],[-81.56721700031937,30.117785000051096],[-81.56718700018216,30.117792999665873],[-81.56647699962936,30.117980000092643],[-81.56537299978956,30.11796300006844],[-81.56532400028408,30.117948000136114],[-81.56504999974938,30.11786600010312],[-81.56458100011933,30.11758700024865],[-81.56433300042221,30.117465000164813],[-81.56398500026766,30.117401999960666],[-81.5633269995934,30.117372999976507],[-81.56218000009592,30.11754300032495],[-81.56168899982625,30.11748799981003],[-81.56121400034841,30.11737800024232],[-81.56067700004799,30.117159000017807],[-81.56047200000856,30.11709599961849],[-81.56039900021364,30.11708799994725],[-81.56031299999991,30.11706700032153],[-81.56027899966472,30.11705499964536],[-81.56019900019707,30.117039000295605],[-81.55998699958666,30.117011000261744],[-81.55975200030834,30.117032999955963],[-81.55930899971925,30.11716000007319],[-81.55902500003711,30.117238999751645],[-81.55865299959311,30.117218000158022],[-81.55850000033055,30.117165000349793],[-81.55847699986602,30.117156999907092],[-81.55846299962232,30.11715199963008],[-81.558440999881,30.117143999963385],[-81.55819499983372,30.117057999814552],[-81.55796600040318,30.117082000387658],[-81.55771299978487,30.117255999900408],[-81.55755399977622,30.117438000304283],[-81.55697899984095,30.117633000253846],[-81.55656200008943,30.117767999993383],[-81.5563350003087,30.117786000100132],[-81.55623700039942,30.11779399971483],[-81.55621599958471,30.11779599981265],[-81.55326300009057,30.118164000029797],[-81.55108899984788,30.118435000246397],[-81.5506460001571,30.118490000233965],[-81.54707199979862,30.118936000033496],[-81.54644800035787,30.119013999808928],[-81.53959599991693,30.119869000182742],[-81.5390090002861,30.119941999862597],[-81.53900500008815,30.119713999619158],[-81.53872100040601,30.10451600018],[-81.53871499965992,30.104194999869275],[-81.53871100036028,30.103982999719435],[-81.53870799998724,30.103842000207372],[-81.53870700016232,30.103748000161872],[-81.53564599981483,30.10383000025614],[-81.53055400023811,30.103967999995852],[-81.52596899992628,30.104092000025542],[-81.52593499959109,30.104093000213197],[-81.52362900000226,30.10410299975749],[-81.51967200022746,30.10412100002259],[-81.51827299993656,30.104127999779443],[-81.51774300020715,30.10413100034122],[-81.51742600001474,30.104131999751242],[-81.51676999988862,30.1041350003129],[-81.51672100038313,30.1041350003129],[-81.51662000010079,30.1041350003129],[-81.51644000017573,30.104135999722953],[-81.51631899980192,30.104136999910164],[-81.51624900038001,30.104136999910164],[-81.5155010001924,30.104139999694496],[-81.51538400001652,30.104139999694496],[-81.51514899983988,30.104146000040004],[-81.51494899982336,30.104143999665823],[-81.51483800039358,30.104146000040004],[-81.51438099956077,30.104156999765934],[-81.51420499983367,30.10416099973656],[-81.51392799982425,30.10416800026774],[-81.51372399960974,30.104172999647602],[-81.51354600023282,30.10417699961766],[-81.51260200022661,30.104198999838424],[-81.50949999987125,30.1042729996267],[-81.50925800002192,30.104276000184075],[-81.50426400035448,30.104348000321735],[-81.50382300031353,30.104352999692562],[-81.50361900009904,30.104355000062508],[-81.50329400040903,30.104357999840225],[-81.4954150001212,30.104444000164676],[-81.49519400018825,30.104446999939697],[-81.4947049995684,30.104453000266616],[-81.49449600022935,30.104456000041356],[-81.48322500005624,30.104598999819537],[-81.48283099987096,30.104636999752934],[-81.48277899999242,30.104647000019327],[-81.48223300036946,30.104680999984843],[-81.48179300015342,30.104674999671765],[-81.48121200037036,30.104744999933878],[-81.48086900023868,30.104767000028197],[-81.48032699991538,30.104768999612673],[-81.47993799975295,30.10477200015498],[-81.47986199958497,30.10477200015498],[-81.47961800008581,30.10477300033568],[-81.47951000013079,30.10477300033568],[-81.47943999981057,30.10477399973929],[-81.47932900038082,30.104776000100724],[-81.4791739996718,30.104778999865655],[-81.47897899967813,30.104783999991778],[-81.47438300039396,30.104911000312814],[-81.47265299966698,30.104959000361056],[-81.47260099978844,30.10496099994165],[-81.47257300019935,30.10496200012044],[-81.47252799999352,30.104963999700985],[-81.4721050003942,30.104980000229133],[-81.4718240001868,30.10498999968368],[-81.47173899979799,30.104990999862192],[-81.47120499987061,30.104994999799132],[-81.47104699968685,30.10499599997758],[-81.46847400013432,30.105015000258405],[-81.46801999967457,30.105018000016084],[-81.46752799957999,30.105021999951866],[-81.46724899992073,30.105024000308276],[-81.467206000263,30.105024000308276],[-81.46705700030009,30.105024999709343],[-81.46572099975842,30.105034999936475],[-81.46174300006722,30.105062000078306],[-81.4602569997377,30.105072000301632],[-81.45011799989179,30.105139999928504],[-81.4433580004107,30.105186000289578],[-81.44314599980027,30.105186999689003],[-81.44284700004951,30.105189000042067],[-81.44189100034774,30.105199000252558],[-81.4413459996514,30.105204999756655],[-81.44106199996926,30.105208000285735],[-81.44047500033842,30.105214999965593],[-81.4376790003048,30.10524399963302],[-81.4374519996258,30.10524599998499],[-81.43465300011744,30.10527699999468],[-81.43454000013953,30.105310999743423],[-81.43424899988638,30.105398000190128],[-81.43403399980123,30.105461999674798],[-81.43391499997554,30.105497000310425],[-81.43378299973106,30.10553600007159],[-81.43374099989826,30.105979999734277],[-81.4337369997003,30.10602800004041],[-81.43374599992114,30.10649800018697],[-81.43375000011909,30.106662999790945],[-81.43383799998264,30.11093500022618],[-81.43384100035571,30.111100000191705],[-81.4338970004322,30.11383099983623],[-81.43390900012776,30.114443000375353],[-81.43391400015064,30.114691999711436],[-81.4339180003486,30.11486999986324],[-81.43392300037146,30.11509199995227],[-81.43413199971052,30.12531599968992],[-81.43419000033515,30.128179999784052],[-81.4342780001987,30.132443999614875],[-81.43432400022945,30.13468800036094],[-81.43432500005437,30.134717999798927],[-81.43439299982643,30.13800299962585],[-81.43439399965133,30.138035999918642],[-81.43459000036823,30.14710500026453],[-81.43503200023412,30.16752899989389],[-81.43503200023412,30.167540999869424],[-81.43503200023412,30.167550999977408],[-81.43503300005904,30.16757899965299],[-81.43503399988394,30.16760300036708],[-81.43503499970886,30.167629999707298],[-81.43503600043208,30.16765399963237],[-81.435037000257,30.167680999735285],[-81.43503800008189,30.167705999967755],[-81.43503899990681,30.167731999736837],[-81.43503999973171,30.16775699995638],[-81.43524800014418,30.177348999713605],[-81.43528999997697,30.179278999939065],[-81.4352919996268,30.17936599964578],[-81.4353200001142,30.18064099978971],[-81.43535799974904,30.182368999813995],[-81.43537100016782,30.18296400036408],[-81.43537399964255,30.183090000101735],[-81.43541200017572,30.184837999691727],[-81.43561600039021,30.194219000160853],[-81.43576899965278,30.209618999786354],[-81.4360740001496,30.224216999697667],[-81.43613500024898,30.224926999881003],[-81.43613799972371,30.225003000169778],[-81.43622599958726,30.2272420001968],[-81.4362280001354,30.227373999759447],[-81.43625200042486,30.22865900000261],[-81.43625800027263,30.228983999991748],[-81.43625900009754,30.229043999669297],[-81.43626099974736,30.22910699995103],[-81.43626199957228,30.22917099988791],[-81.43628699968663,30.230526999868005],[-81.4363980000147,30.232958000152404],[-81.43658499961246,30.237046000023334],[-81.43650699979464,30.237140999919628],[-81.43650699979464,30.2371839996301],[-81.43650699979464,30.237337999828643],[-81.43654799980254,30.23728900017967],[-81.43654899962746,30.237361000225654],[-81.43655600019846,30.23760699998469],[-81.4365650004193,30.237947000190363],[-81.43656600024421,30.23798200037304],[-81.43656600024421,30.237992000312115],[-81.43656799989402,30.238053000306213],[-81.43664200041219,30.24089600009471],[-81.43686599981986,30.249431000376553],[-81.4368690001929,30.249542999779994],[-81.4368890002844,30.250498000018332],[-81.43692000024653,30.25189100025293],[-81.43692100007145,30.25195500009882],[-81.43692600009432,30.252180000244643],[-81.43692899956905,30.252314999619166],[-81.43692899956905,30.252334999683164],[-81.43431500000862,30.252344000253842],[-81.43230599962239,30.252285999751923],[-81.43101299963672,30.252249000310243],[-81.43090999970455,30.252245000139126],[-81.4308069997724,30.25224200020461],[-81.43018599980637,30.252242999665434],[-81.43017199956266,30.252242999665434],[-81.43009499956977,30.252242999665434]]]}}]}
