{
  "type": "FeatureCollection",
  "name": "FLDOE Duval charter elementary schools",
  "features": [
    {
      "type": "Feature",
      "geometry": {
        "type": "Point",
        "coordinates": [
          -81.73233,
          30.30411
        ]
      },
      "properties": {
        "source": "Florida Department of Education Know Your Schools Mapping",
        "source_url": "https://edudata.fldoe.org/ReportCards/Mapping.html",
        "year": "2526",
        "district_number": "16",
        "district_name": "DUVAL",
        "location_district": "16",
        "school_number": "1131",
        "school_name": "WAYMAN ACADEMY OF THE ARTS",
        "school_name_short": "WAYMAN ACADEMY OF THE ARTS",
        "school_type": "Elementary School",
        "charter": "YES",
        "public_school_type": "Public Charter",
        "magnet_status": "Z",
        "magnet_status_label": "Non-Magnet",
        "magnet_specialty": "Z",
        "magnet_specialty_label": "None",
        "physical_address": "1176 LABELLE ST",
        "physical_city": "JACKSONVILLE",
        "physical_state": "FL",
        "physical_zip": "32205-6487",
        "phone_number": "(904)695-9995",
        "principal_first": "MARLA",
        "principal_last": "ALMON",
        "total_students": 122,
        "cep_percentage": 100.0,
        "teacher_count": 15,
        "title1": "YES",
        "alt_school": "N",
        "alt_school_label": "No",
        "report_card_url": "https://edudata.fldoe.org/ReportCards/Schools.html?school=1131&district=16"
      }
    },
    {
      "type": "Feature",
      "geometry": {
        "type": "Point",
        "coordinates": [
          -81.71886,
          30.3743
        ]
      },
      "properties": {
        "source": "Florida Department of Education Know Your Schools Mapping",
        "source_url": "https://edudata.fldoe.org/ReportCards/Mapping.html",
        "year": "2526",
        "district_number": "16",
        "district_name": "DUVAL",
        "location_district": "16",
        "school_number": "1211",
        "school_name": "TIGER ACADEMY",
        "school_name_short": "TIGER ACADEMY",
        "school_type": "Elementary School",
        "charter": "YES",
        "public_school_type": "Public Charter",
        "magnet_status": "Z",
        "magnet_status_label": "Non-Magnet",
        "magnet_specialty": "Z",
        "magnet_specialty_label": "None",
        "physical_address": "6079 BAGLEY RD",
        "physical_city": "JACKSONVILLE",
        "physical_state": "FL",
        "physical_zip": "32209-1805",
        "phone_number": "(904)309-6840",
        "principal_first": "EASTER",
        "principal_last": "BROWN",
        "total_students": 199,
        "cep_percentage": 100.0,
        "teacher_count": 18,
        "title1": "YES",
        "alt_school": "N",
        "alt_school_label": "No",
        "report_card_url": "https://edudata.fldoe.org/ReportCards/Schools.html?school=1211&district=16"
      }
    },
    {
      "type": "Feature",
      "geometry": {
        "type": "Point",
        "coordinates": [
          -81.67971,
          30.43789
        ]
      },
      "properties": {
        "source": "Florida Department of Education Know Your Schools Mapping",
        "source_url": "https://edudata.fldoe.org/ReportCards/Mapping.html",
        "year": "2526",
        "district_number": "16",
        "district_name": "DUVAL",
        "location_district": "16",
        "school_number": "1251",
        "school_name": "SOMERSET ACADEMY-ELEMENTARY, EAGLE CAMPUS",
        "school_name_short": "SOMERSET ACADEMY-ELEMENTARY, EAGLE CAMPUS",
        "school_type": "Elementary School",
        "charter": "YES",
        "public_school_type": "Public Charter",
        "magnet_status": "Z",
        "magnet_status_label": "Non-Magnet",
        "magnet_specialty": "Z",
        "magnet_specialty_label": "None",
        "physical_address": "2100 DUNN AVE",
        "physical_city": "JACKSONVILLE",
        "physical_state": "FL",
        "physical_zip": "32218-4754",
        "phone_number": "(904)551-3292",
        "principal_first": "OLATUNJI",
        "principal_last": "WILLIAMS",
        "total_students": 307,
        "cep_percentage": 85.3,
        "teacher_count": 16,
        "title1": "YES",
        "alt_school": "N",
        "alt_school_label": "No",
        "report_card_url": "https://edudata.fldoe.org/ReportCards/Schools.html?school=1251&district=16"
      }
    },
    {
      "type": "Feature",
      "geometry": {
        "type": "Point",
        "coordinates": [
          -81.58149,
          30.2879
        ]
      },
      "properties": {
        "source": "Florida Department of Education Know Your Schools Mapping",
        "source_url": "https://edudata.fldoe.org/ReportCards/Mapping.html",
        "year": "2526",
        "district_number": "16",
        "district_name": "DUVAL",
        "location_district": "16",
        "school_number": "1291",
        "school_name": "RIVER CITY SCIENCE ELEMENTARY ACADEMY",
        "school_name_short": "RIVER CITY SCIENCE ELEMENTARY ACADEMY",
        "school_type": "Elementary School",
        "charter": "YES",
        "public_school_type": "Public Charter",
        "magnet_status": "Z",
        "magnet_status_label": "Non-Magnet",
        "magnet_specialty": "Z",
        "magnet_specialty_label": "None",
        "physical_address": "7450 BEACH BLVD",
        "physical_city": "JACKSONVILLE",
        "physical_state": "FL",
        "physical_zip": "32216-3002",
        "phone_number": "(904)855-8010",
        "principal_first": "NICOLE",
        "principal_last": "SPANBAUER",
        "total_students": 600,
        "cep_percentage": 55.2,
        "teacher_count": 38,
        "title1": "NO",
        "alt_school": "N",
        "alt_school_label": "No",
        "report_card_url": "https://edudata.fldoe.org/ReportCards/Schools.html?school=1291&district=16"
      }
    },
    {
      "type": "Feature",
      "geometry": {
        "type": "Point",
        "coordinates": [
          -81.54869,
          30.32543
        ]
      },
      "properties": {
        "source": "Florida Department of Education Know Your Schools Mapping",
        "source_url": "https://edudata.fldoe.org/ReportCards/Mapping.html",
        "year": "2526",
        "district_number": "16",
        "district_name": "DUVAL",
        "location_district": "16",
        "school_number": "1371",
        "school_name": "SEACOAST CHARTER ACADEMY",
        "school_name_short": "SEACOAST CHARTER ACADEMY",
        "school_type": "Elementary School",
        "charter": "YES",
        "public_school_type": "Public Charter",
        "magnet_status": "Z",
        "magnet_status_label": "Non-Magnet",
        "magnet_specialty": "Z",
        "magnet_specialty_label": "None",
        "physical_address": "9570 REGENCY SQUARE BLVD",
        "physical_city": "JACKSONVILLE",
        "physical_state": "FL",
        "physical_zip": "32225-9103",
        "phone_number": "(904)562-4780",
        "principal_first": "MARLA",
        "principal_last": "STREMMEL",
        "total_students": 428,
        "cep_percentage": 84.8,
        "teacher_count": 33,
        "title1": "YES",
        "alt_school": "N",
        "alt_school_label": "No",
        "report_card_url": "https://edudata.fldoe.org/ReportCards/Schools.html?school=1371&district=16"
      }
    },
    {
      "type": "Feature",
      "geometry": {
        "type": "Point",
        "coordinates": [
          -81.61034,
          30.20477
        ]
      },
      "properties": {
        "source": "Florida Department of Education Know Your Schools Mapping",
        "source_url": "https://edudata.fldoe.org/ReportCards/Mapping.html",
        "year": "2526",
        "district_number": "16",
        "district_name": "DUVAL",
        "location_district": "16",
        "school_number": "5761",
        "school_name": "SAN JOSE PRIMARY SCHOOL",
        "school_name_short": "SAN JOSE PRIMARY SCHOOL",
        "school_type": "Elementary School",
        "charter": "YES",
        "public_school_type": "Public Charter",
        "magnet_status": "Z",
        "magnet_status_label": "Non-Magnet",
        "magnet_specialty": "Z",
        "magnet_specialty_label": "None",
        "physical_address": "4072 SUNBEAM RD",
        "physical_city": "JACKSONVILLE",
        "physical_state": "FL",
        "physical_zip": "32257-8813",
        "phone_number": "(904)425-1723",
        "principal_first": "LYNDSEY",
        "principal_last": "RENAUD",
        "total_students": 212,
        "cep_percentage": 69.8,
        "teacher_count": 15,
        "title1": "YES",
        "alt_school": "N",
        "alt_school_label": "No",
        "report_card_url": "https://edudata.fldoe.org/ReportCards/Schools.html?school=5761&district=16"
      }
    },
    {
      "type": "Feature",
      "geometry": {
        "type": "Point",
        "coordinates": [
          -81.66778,
          30.37236
        ]
      },
      "properties": {
        "source": "Florida Department of Education Know Your Schools Mapping",
        "source_url": "https://edudata.fldoe.org/ReportCards/Mapping.html",
        "year": "2526",
        "district_number": "16",
        "district_name": "DUVAL",
        "location_district": "16",
        "school_number": "5871",
        "school_name": "BECOMING COLLEGIATE ACADEMY",
        "school_name_short": "BECOMING COLLEGIATE ACADEMY",
        "school_type": "Elementary School",
        "charter": "YES",
        "public_school_type": "Public Charter",
        "magnet_status": "Z",
        "magnet_status_label": "Non-Magnet",
        "magnet_specialty": "Z",
        "magnet_specialty_label": "None",
        "physical_address": "5258 NORWOOD AVE UNIT 3",
        "physical_city": "JACKSONVILLE",
        "physical_state": "FL",
        "physical_zip": "32208-5017",
        "phone_number": "(904)465-2799",
        "principal_first": "CAMERON",
        "principal_last": "FRAZIER",
        "total_students": 258,
        "cep_percentage": 100.0,
        "teacher_count": 21,
        "title1": "YES",
        "alt_school": "N",
        "alt_school_label": "No",
        "report_card_url": "https://edudata.fldoe.org/ReportCards/Schools.html?school=5871&district=16"
      }
    },
    {
      "type": "Feature",
      "geometry": {
        "type": "Point",
        "coordinates": [
          -81.59975,
          30.3649
        ]
      },
      "properties": {
        "source": "Florida Department of Education Know Your Schools Mapping",
        "source_url": "https://edudata.fldoe.org/ReportCards/Mapping.html",
        "year": "2526",
        "district_number": "16",
        "district_name": "DUVAL",
        "location_district": "16",
        "school_number": "5961",
        "school_name": "JACKSONVILLE CLASSICAL ACADEMY EAST",
        "school_name_short": "JACKSONVILLE CLASSICAL ACADEMY EAST",
        "school_type": "Elementary School",
        "charter": "YES",
        "public_school_type": "Public Charter",
        "magnet_status": "Z",
        "magnet_status_label": "Non-Magnet",
        "magnet_specialty": "Z",
        "magnet_specialty_label": "None",
        "physical_address": "5900 FORT CAROLINE RD",
        "physical_city": "JACKSONVILLE",
        "physical_state": "FL",
        "physical_zip": "32277-1806",
        "phone_number": "(904)302-9052",
        "principal_first": "CLAUDIA",
        "principal_last": "SHISLER",
        "total_students": 170,
        "cep_percentage": 84.7,
        "teacher_count": 19,
        "title1": "YES",
        "alt_school": "N",
        "alt_school_label": "No",
        "report_card_url": "https://edudata.fldoe.org/ReportCards/Schools.html?school=5961&district=16"
      }
    }
  ]
}
