{
  "type": "FeatureCollection",
  "name": "FLDOE Duval traditional magnet schools",
  "features": [
    {
      "type": "Feature",
      "geometry": {
        "type": "Point",
        "coordinates": [
          -81.69626,
          30.30849
        ]
      },
      "properties": {
        "source": "Florida Department of Education Know Your Schools Mapping",
        "source_url": "https://edudata.fldoe.org/ReportCards/Mapping.html",
        "year": "2526",
        "district_number": "16",
        "district_name": "DUVAL",
        "location_district": "16",
        "school_number": "0121",
        "school_name": "WEST RIVERSIDE ELEMENTARY SCHOOL",
        "school_name_short": "WEST RIVERSIDE ELEMENTARY SCHOOL",
        "school_type": "Elementary School",
        "charter": "NO",
        "public_school_type": "Traditional Public",
        "magnet_status": "S",
        "magnet_status_label": "Magnet School",
        "magnet_specialty": "C",
        "magnet_specialty_label": "Foreign Language",
        "physical_address": "2801 HERSCHEL ST",
        "physical_city": "JACKSONVILLE",
        "physical_state": "FL",
        "physical_zip": "32205-8116",
        "phone_number": "(904)381-3900",
        "principal_first": "TALYA",
        "principal_last": "TAYLOR",
        "total_students": 392,
        "cep_percentage": 57.9,
        "teacher_count": 24,
        "title1": "YES",
        "alt_school": "N",
        "alt_school_label": "No",
        "report_card_url": "https://edudata.fldoe.org/ReportCards/Schools.html?school=0121&district=16"
      }
    },
    {
      "type": "Feature",
      "geometry": {
        "type": "Point",
        "coordinates": [
          -81.70321,
          30.27603
        ]
      },
      "properties": {
        "source": "Florida Department of Education Know Your Schools Mapping",
        "source_url": "https://edudata.fldoe.org/ReportCards/Mapping.html",
        "year": "2526",
        "district_number": "16",
        "district_name": "DUVAL",
        "location_district": "16",
        "school_number": "0161",
        "school_name": "ORTEGA ELEMENTARY SCHOOL",
        "school_name_short": "ORTEGA ELEMENTARY SCHOOL",
        "school_type": "Elementary School",
        "charter": "NO",
        "public_school_type": "Traditional Public",
        "magnet_status": "S",
        "magnet_status_label": "Magnet School",
        "magnet_specialty": "O",
        "magnet_specialty_label": "Other",
        "physical_address": "4010 BALTIC ST",
        "physical_city": "JACKSONVILLE",
        "physical_state": "FL",
        "physical_zip": "32210-4300",
        "phone_number": "(904)381-7460",
        "principal_first": "SHANNON",
        "principal_last": "ROSE-HAMMOND",
        "total_students": 285,
        "cep_percentage": 82.8,
        "teacher_count": 18,
        "title1": "YES",
        "alt_school": "N",
        "alt_school_label": "No",
        "report_card_url": "https://edudata.fldoe.org/ReportCards/Schools.html?school=0161&district=16"
      }
    },
    {
      "type": "Feature",
      "geometry": {
        "type": "Point",
        "coordinates": [
          -81.69218,
          30.31888
        ]
      },
      "properties": {
        "source": "Florida Department of Education Know Your Schools Mapping",
        "source_url": "https://edudata.fldoe.org/ReportCards/Mapping.html",
        "year": "2526",
        "district_number": "16",
        "district_name": "DUVAL",
        "location_district": "16",
        "school_number": "0181",
        "school_name": "CENTRAL RIVERSIDE ELEMENTARY SCHOOL",
        "school_name_short": "CENTRAL RIVERSIDE ELEM. SCHOOL",
        "school_type": "Elementary School",
        "charter": "NO",
        "public_school_type": "Traditional Public",
        "magnet_status": "S",
        "magnet_status_label": "Magnet School",
        "magnet_specialty": "A",
        "magnet_specialty_label": "Academically Talented",
        "physical_address": "2555 GILMORE ST",
        "physical_city": "JACKSONVILLE",
        "physical_state": "FL",
        "physical_zip": "32204-3413",
        "phone_number": "(904)381-7495",
        "principal_first": "TODD",
        "principal_last": "SIMPSON",
        "total_students": 352,
        "cep_percentage": 68.2,
        "teacher_count": 23,
        "title1": "YES",
        "alt_school": "N",
        "alt_school_label": "No",
        "report_card_url": "https://edudata.fldoe.org/ReportCards/Schools.html?school=0181&district=16"
      }
    },
    {
      "type": "Feature",
      "geometry": {
        "type": "Point",
        "coordinates": [
          -81.71472,
          30.29193
        ]
      },
      "properties": {
        "source": "Florida Department of Education Know Your Schools Mapping",
        "source_url": "https://edudata.fldoe.org/ReportCards/Mapping.html",
        "year": "2526",
        "district_number": "16",
        "district_name": "DUVAL",
        "location_district": "16",
        "school_number": "0201",
        "school_name": "FISHWEIR ELEMENTARY SCHOOL",
        "school_name_short": "FISHWEIR ELEMENTARY SCHOOL",
        "school_type": "Elementary School",
        "charter": "NO",
        "public_school_type": "Traditional Public",
        "magnet_status": "S",
        "magnet_status_label": "Magnet School",
        "magnet_specialty": "F",
        "magnet_specialty_label": "Performing Arts",
        "physical_address": "3977 HERSCHEL ST",
        "physical_city": "JACKSONVILLE",
        "physical_state": "FL",
        "physical_zip": "32205-9267",
        "phone_number": "(904)381-3910",
        "principal_first": "KIMBERLY",
        "principal_last": "DENNIS",
        "total_students": 443,
        "cep_percentage": 33.4,
        "teacher_count": 24,
        "title1": "NO",
        "alt_school": "N",
        "alt_school_label": "No",
        "report_card_url": "https://edudata.fldoe.org/ReportCards/Schools.html?school=0201&district=16"
      }
    },
    {
      "type": "Feature",
      "geometry": {
        "type": "Point",
        "coordinates": [
          -81.65269,
          30.34923
        ]
      },
      "properties": {
        "source": "Florida Department of Education Know Your Schools Mapping",
        "source_url": "https://edudata.fldoe.org/ReportCards/Mapping.html",
        "year": "2526",
        "district_number": "16",
        "district_name": "DUVAL",
        "location_district": "16",
        "school_number": "0251",
        "school_name": "SPRINGFIELD MIDDLE SCHOOL",
        "school_name_short": "SPRINGFIELD MIDDLE SCHOOL",
        "school_type": "Middle School",
        "charter": "NO",
        "public_school_type": "Traditional Public",
        "magnet_status": "S",
        "magnet_status_label": "Magnet School",
        "magnet_specialty": "G",
        "magnet_specialty_label": "Science/Math",
        "physical_address": "2034 HUBBARD ST",
        "physical_city": "JACKSONVILLE",
        "physical_state": "FL",
        "physical_zip": "32206-3728",
        "phone_number": "(904)630-6600",
        "principal_first": "DESHUNE",
        "principal_last": "BUSH",
        "total_students": 1001,
        "cep_percentage": 72.3,
        "teacher_count": 41,
        "title1": "NO",
        "alt_school": "N",
        "alt_school_label": "No",
        "report_card_url": "https://edudata.fldoe.org/ReportCards/Schools.html?school=0251&district=16"
      }
    },
    {
      "type": "Feature",
      "geometry": {
        "type": "Point",
        "coordinates": [
          -81.60693,
          30.1577
        ]
      },
      "properties": {
        "source": "Florida Department of Education Know Your Schools Mapping",
        "source_url": "https://edudata.fldoe.org/ReportCards/Mapping.html",
        "year": "2526",
        "district_number": "16",
        "district_name": "DUVAL",
        "location_district": "16",
        "school_number": "0301",
        "school_name": "LORETTO ELEMENTARY SCHOOL",
        "school_name_short": "LORETTO ELEMENTARY SCHOOL",
        "school_type": "Elementary School",
        "charter": "NO",
        "public_school_type": "Traditional Public",
        "magnet_status": "S",
        "magnet_status_label": "Magnet School",
        "magnet_specialty": "H",
        "magnet_specialty_label": "Technology",
        "physical_address": "3900 LORETTO RD",
        "physical_city": "JACKSONVILLE",
        "physical_state": "FL",
        "physical_zip": "32223-2098",
        "phone_number": "(904)260-5800",
        "principal_first": "AARON",
        "principal_last": "WALKER",
        "total_students": 956,
        "cep_percentage": 23.0,
        "teacher_count": 63,
        "title1": "NO",
        "alt_school": "N",
        "alt_school_label": "No",
        "report_card_url": "https://edudata.fldoe.org/ReportCards/Schools.html?school=0301&district=16"
      }
    },
    {
      "type": "Feature",
      "geometry": {
        "type": "Point",
        "coordinates": [
          -81.65183,
          30.30672
        ]
      },
      "properties": {
        "source": "Florida Department of Education Know Your Schools Mapping",
        "source_url": "https://edudata.fldoe.org/ReportCards/Mapping.html",
        "year": "2526",
        "district_number": "16",
        "district_name": "DUVAL",
        "location_district": "16",
        "school_number": "0311",
        "school_name": "JULIA LANDON COLLEGE PREPARATORY & LEADERSHIP DEVELOPMENT SCHOOL",
        "school_name_short": "JULIA LANDON COLLEGE PREPARATORY & LEADERSHIP",
        "school_type": "Middle School",
        "charter": "NO",
        "public_school_type": "Traditional Public",
        "magnet_status": "S",
        "magnet_status_label": "Magnet School",
        "magnet_specialty": "A",
        "magnet_specialty_label": "Academically Talented",
        "physical_address": "1819 THACKER AVE",
        "physical_city": "JACKSONVILLE",
        "physical_state": "FL",
        "physical_zip": "32207-3397",
        "phone_number": "(904)346-5650",
        "principal_first": "RYAN",
        "principal_last": "CASEY",
        "total_students": 891,
        "cep_percentage": 16.2,
        "teacher_count": 37,
        "title1": "NO",
        "alt_school": "N",
        "alt_school_label": "No",
        "report_card_url": "https://edudata.fldoe.org/ReportCards/Schools.html?school=0311&district=16"
      }
    },
    {
      "type": "Feature",
      "geometry": {
        "type": "Point",
        "coordinates": [
          -81.70388,
          30.30705
        ]
      },
      "properties": {
        "source": "Florida Department of Education Know Your Schools Mapping",
        "source_url": "https://edudata.fldoe.org/ReportCards/Mapping.html",
        "year": "2526",
        "district_number": "16",
        "district_name": "DUVAL",
        "location_district": "16",
        "school_number": "0331",
        "school_name": "RIVERSIDE HIGH SCHOOL",
        "school_name_short": "RIVERSIDE HIGH SCHOOL",
        "school_type": "High School",
        "charter": "NO",
        "public_school_type": "Traditional Public",
        "magnet_status": "P",
        "magnet_status_label": "Magnet Program",
        "magnet_specialty": "G",
        "magnet_specialty_label": "Science/Math",
        "physical_address": "1200 S MCDUFF AVE",
        "physical_city": "JACKSONVILLE",
        "physical_state": "FL",
        "physical_zip": "32205-8098",
        "phone_number": "(904)381-3930",
        "principal_first": "CHRIS",
        "principal_last": "KOEK",
        "total_students": 1567,
        "cep_percentage": 82.5,
        "teacher_count": 67,
        "title1": "YES",
        "alt_school": "N",
        "alt_school_label": "No",
        "report_card_url": "https://edudata.fldoe.org/ReportCards/Schools.html?school=0331&district=16"
      }
    },
    {
      "type": "Feature",
      "geometry": {
        "type": "Point",
        "coordinates": [
          -81.65598,
          30.36211
        ]
      },
      "properties": {
        "source": "Florida Department of Education Know Your Schools Mapping",
        "source_url": "https://edudata.fldoe.org/ReportCards/Mapping.html",
        "year": "2526",
        "district_number": "16",
        "district_name": "DUVAL",
        "location_district": "16",
        "school_number": "0351",
        "school_name": "ANDREW JACKSON HIGH SCHOOL",
        "school_name_short": "ANDREW JACKSON HIGH SCHOOL",
        "school_type": "High School",
        "charter": "NO",
        "public_school_type": "Traditional Public",
        "magnet_status": "S",
        "magnet_status_label": "Magnet School",
        "magnet_specialty": "O",
        "magnet_specialty_label": "Other",
        "physical_address": "3816 N MAIN ST",
        "physical_city": "JACKSONVILLE",
        "physical_state": "FL",
        "physical_zip": "32206-1450",
        "phone_number": "(904)630-6950",
        "principal_first": "TRUITTE",
        "principal_last": "MORELAND",
        "total_students": 908,
        "cep_percentage": 74.4,
        "teacher_count": 39,
        "title1": "YES",
        "alt_school": "N",
        "alt_school_label": "No",
        "report_card_url": "https://edudata.fldoe.org/ReportCards/Schools.html?school=0351&district=16"
      }
    },
    {
      "type": "Feature",
      "geometry": {
        "type": "Point",
        "coordinates": [
          -81.97776,
          30.30509
        ]
      },
      "properties": {
        "source": "Florida Department of Education Know Your Schools Mapping",
        "source_url": "https://edudata.fldoe.org/ReportCards/Mapping.html",
        "year": "2526",
        "district_number": "16",
        "district_name": "DUVAL",
        "location_district": "16",
        "school_number": "0381",
        "school_name": "BALDWIN MIDDLE-SENIOR HIGH SCHOOL",
        "school_name_short": "BALDWIN MIDDLE-SENIOR HIGH SCHOOL",
        "school_type": "Combination School",
        "charter": "NO",
        "public_school_type": "Traditional Public",
        "magnet_status": "P",
        "magnet_status_label": "Magnet Program",
        "magnet_specialty": "J",
        "magnet_specialty_label": "Career Academy",
        "physical_address": "291 MILL ST W",
        "physical_city": "JACKSONVILLE",
        "physical_state": "FL",
        "physical_zip": "32234-1307",
        "phone_number": "(904)266-1200",
        "principal_first": "MICHAEL",
        "principal_last": "TOWNSEND",
        "total_students": 1356,
        "cep_percentage": 42.0,
        "teacher_count": 65,
        "title1": "YES",
        "alt_school": "N",
        "alt_school_label": "No",
        "report_card_url": "https://edudata.fldoe.org/ReportCards/Schools.html?school=0381&district=16"
      }
    },
    {
      "type": "Feature",
      "geometry": {
        "type": "Point",
        "coordinates": [
          -81.76649,
          30.42565
        ]
      },
      "properties": {
        "source": "Florida Department of Education Know Your Schools Mapping",
        "source_url": "https://edudata.fldoe.org/ReportCards/Mapping.html",
        "year": "2526",
        "district_number": "16",
        "district_name": "DUVAL",
        "location_district": "16",
        "school_number": "0451",
        "school_name": "DINSMORE ELEMENTARY SCHOOL",
        "school_name_short": "DINSMORE ELEMENTARY SCHOOL",
        "school_type": "Elementary School",
        "charter": "NO",
        "public_school_type": "Traditional Public",
        "magnet_status": "S",
        "magnet_status_label": "Magnet School",
        "magnet_specialty": "G",
        "magnet_specialty_label": "Science/Math",
        "physical_address": "7126 CIVIC CLUB DR",
        "physical_city": "JACKSONVILLE",
        "physical_state": "FL",
        "physical_zip": "32219-2004",
        "phone_number": "(904)924-3126",
        "principal_first": "MATTHEW",
        "principal_last": "PETERSON",
        "total_students": 606,
        "cep_percentage": 60.7,
        "teacher_count": 32,
        "title1": "NO",
        "alt_school": "N",
        "alt_school_label": "No",
        "report_card_url": "https://edudata.fldoe.org/ReportCards/Schools.html?school=0451&district=16"
      }
    },
    {
      "type": "Feature",
      "geometry": {
        "type": "Point",
        "coordinates": [
          -81.78733,
          30.32491
        ]
      },
      "properties": {
        "source": "Florida Department of Education Know Your Schools Mapping",
        "source_url": "https://edudata.fldoe.org/ReportCards/Mapping.html",
        "year": "2526",
        "district_number": "16",
        "district_name": "DUVAL",
        "location_district": "16",
        "school_number": "0481",
        "school_name": "THOMAS JEFFERSON ELEMENTARY",
        "school_name_short": "THOMAS JEFFERSON ELEMENTARY",
        "school_type": "Elementary School",
        "charter": "NO",
        "public_school_type": "Traditional Public",
        "magnet_status": "S",
        "magnet_status_label": "Magnet School",
        "magnet_specialty": "O",
        "magnet_specialty_label": "Other",
        "physical_address": "8233 NEVADA ST",
        "physical_city": "JACKSONVILLE",
        "physical_state": "FL",
        "physical_zip": "32220-2651",
        "phone_number": "(904)693-7500",
        "principal_first": "LORI",
        "principal_last": "TURNER",
        "total_students": 433,
        "cep_percentage": 66.5,
        "teacher_count": 26,
        "title1": "YES",
        "alt_school": "N",
        "alt_school_label": "No",
        "report_card_url": "https://edudata.fldoe.org/ReportCards/Schools.html?school=0481&district=16"
      }
    },
    {
      "type": "Feature",
      "geometry": {
        "type": "Point",
        "coordinates": [
          -81.63842,
          30.342
        ]
      },
      "properties": {
        "source": "Florida Department of Education Know Your Schools Mapping",
        "source_url": "https://edudata.fldoe.org/ReportCards/Mapping.html",
        "year": "2526",
        "district_number": "16",
        "district_name": "DUVAL",
        "location_district": "16",
        "school_number": "0581",
        "school_name": "R L BROWN GIFTED AND TALENTED ACADEMY",
        "school_name_short": "R L BROWN GIFTED AND TALENTED ACADEMY",
        "school_type": "Elementary School",
        "charter": "NO",
        "public_school_type": "Traditional Public",
        "magnet_status": "S",
        "magnet_status_label": "Magnet School",
        "magnet_specialty": "A",
        "magnet_specialty_label": "Academically Talented",
        "physical_address": "1535 MILNOR ST",
        "physical_city": "JACKSONVILLE",
        "physical_state": "FL",
        "physical_zip": "32206-4824",
        "phone_number": "(904)630-6570",
        "principal_first": "KRISTI",
        "principal_last": "KINCAID",
        "total_students": 268,
        "cep_percentage": 88.1,
        "teacher_count": 18,
        "title1": "YES",
        "alt_school": "N",
        "alt_school_label": "No",
        "report_card_url": "https://edudata.fldoe.org/ReportCards/Schools.html?school=0581&district=16"
      }
    },
    {
      "type": "Feature",
      "geometry": {
        "type": "Point",
        "coordinates": [
          -81.63194,
          30.25061
        ]
      },
      "properties": {
        "source": "Florida Department of Education Know Your Schools Mapping",
        "source_url": "https://edudata.fldoe.org/ReportCards/Mapping.html",
        "year": "2526",
        "district_number": "16",
        "district_name": "DUVAL",
        "location_district": "16",
        "school_number": "0661",
        "school_name": "ALFRED I. DUPONT MIDDLE SCHOOL",
        "school_name_short": "ALFRED I. DUPONT MIDDLE SCHOOL",
        "school_type": "Middle School",
        "charter": "NO",
        "public_school_type": "Traditional Public",
        "magnet_status": "P",
        "magnet_status_label": "Magnet Program",
        "magnet_specialty": "O",
        "magnet_specialty_label": "Other",
        "physical_address": "2710 DUPONT AVE",
        "physical_city": "JACKSONVILLE",
        "physical_state": "FL",
        "physical_zip": "32217-2635",
        "phone_number": "(904)739-5200",
        "principal_first": "MARILYN",
        "principal_last": "BARNWELL",
        "total_students": 576,
        "cep_percentage": 79.9,
        "teacher_count": 34,
        "title1": "YES",
        "alt_school": "N",
        "alt_school_label": "No",
        "report_card_url": "https://edudata.fldoe.org/ReportCards/Schools.html?school=0661&district=16"
      }
    },
    {
      "type": "Feature",
      "geometry": {
        "type": "Point",
        "coordinates": [
          -81.75614,
          30.28034
        ]
      },
      "properties": {
        "source": "Florida Department of Education Know Your Schools Mapping",
        "source_url": "https://edudata.fldoe.org/ReportCards/Mapping.html",
        "year": "2526",
        "district_number": "16",
        "district_name": "DUVAL",
        "location_district": "16",
        "school_number": "0681",
        "school_name": "VENETIA ELEMENTARY SCHOOL",
        "school_name_short": "VENETIA ELEMENTARY SCHOOL",
        "school_type": "Elementary School",
        "charter": "NO",
        "public_school_type": "Traditional Public",
        "magnet_status": "S",
        "magnet_status_label": "Magnet School",
        "magnet_specialty": "E",
        "magnet_specialty_label": "Medical",
        "physical_address": "2056 LANE AVE S",
        "physical_city": "JACKSONVILLE",
        "physical_state": "FL",
        "physical_zip": "32210-2797",
        "phone_number": "(904)381-3990",
        "principal_first": "MONIQUE",
        "principal_last": "WORTHEN",
        "total_students": 346,
        "cep_percentage": 57.2,
        "teacher_count": 20,
        "title1": "NO",
        "alt_school": "N",
        "alt_school_label": "No",
        "report_card_url": "https://edudata.fldoe.org/ReportCards/Schools.html?school=0681&district=16"
      }
    },
    {
      "type": "Feature",
      "geometry": {
        "type": "Point",
        "coordinates": [
          -81.63543,
          30.3017
        ]
      },
      "properties": {
        "source": "Florida Department of Education Know Your Schools Mapping",
        "source_url": "https://edudata.fldoe.org/ReportCards/Mapping.html",
        "year": "2526",
        "district_number": "16",
        "district_name": "DUVAL",
        "location_district": "16",
        "school_number": "0721",
        "school_name": "SPRING PARK ELEMENTARY SCHOOL",
        "school_name_short": "SPRING PARK ELEMENTARY SCHOOL",
        "school_type": "Elementary School",
        "charter": "NO",
        "public_school_type": "Traditional Public",
        "magnet_status": "S",
        "magnet_status_label": "Magnet School",
        "magnet_specialty": "D",
        "magnet_specialty_label": "International Baccalaureate",
        "physical_address": "2250 SPRING PARK RD",
        "physical_city": "JACKSONVILLE",
        "physical_state": "FL",
        "physical_zip": "32207-3638",
        "phone_number": "(904)346-5640",
        "principal_first": "CINDY",
        "principal_last": "GENTRY",
        "total_students": 490,
        "cep_percentage": 81.6,
        "teacher_count": 33,
        "title1": "YES",
        "alt_school": "N",
        "alt_school_label": "No",
        "report_card_url": "https://edudata.fldoe.org/ReportCards/Schools.html?school=0721&district=16"
      }
    },
    {
      "type": "Feature",
      "geometry": {
        "type": "Point",
        "coordinates": [
          -81.72398,
          30.34457
        ]
      },
      "properties": {
        "source": "Florida Department of Education Know Your Schools Mapping",
        "source_url": "https://edudata.fldoe.org/ReportCards/Mapping.html",
        "year": "2526",
        "district_number": "16",
        "district_name": "DUVAL",
        "location_district": "16",
        "school_number": "0751",
        "school_name": "PAXON SCHOOL/ADVANCED STUDIES",
        "school_name_short": "PAXON SCHOOL/ADVANCED STUDIES",
        "school_type": "High School",
        "charter": "NO",
        "public_school_type": "Traditional Public",
        "magnet_status": "S",
        "magnet_status_label": "Magnet School",
        "magnet_specialty": "A",
        "magnet_specialty_label": "Academically Talented",
        "physical_address": "3239 NORMAN E THAGARD BLVD",
        "physical_city": "JACKSONVILLE",
        "physical_state": "FL",
        "physical_zip": "32254-1796",
        "phone_number": "(904)693-7583",
        "principal_first": "ROYCE",
        "principal_last": "TURNER",
        "total_students": 1364,
        "cep_percentage": 32.3,
        "teacher_count": 61,
        "title1": "NO",
        "alt_school": "N",
        "alt_school_label": "No",
        "report_card_url": "https://edudata.fldoe.org/ReportCards/Schools.html?school=0751&district=16"
      }
    },
    {
      "type": "Feature",
      "geometry": {
        "type": "Point",
        "coordinates": [
          -81.40111,
          30.30611
        ]
      },
      "properties": {
        "source": "Florida Department of Education Know Your Schools Mapping",
        "source_url": "https://edudata.fldoe.org/ReportCards/Mapping.html",
        "year": "2526",
        "district_number": "16",
        "district_name": "DUVAL",
        "location_district": "16",
        "school_number": "0801",
        "school_name": "SAN PABLO ELEMENTARY SCHOOL",
        "school_name_short": "SAN PABLO ELEMENTARY SCHOOL",
        "school_type": "Elementary School",
        "charter": "NO",
        "public_school_type": "Traditional Public",
        "magnet_status": "S",
        "magnet_status_label": "Magnet School",
        "magnet_specialty": "G",
        "magnet_specialty_label": "Science/Math",
        "physical_address": "801 18TH AVE N",
        "physical_city": "JACKSONVILLE BEACH",
        "physical_state": "FL",
        "physical_zip": "32250-4898",
        "phone_number": "(904)247-5947",
        "principal_first": "JENNIFER",
        "principal_last": "BROWN",
        "total_students": 468,
        "cep_percentage": 23.9,
        "teacher_count": 29,
        "title1": "NO",
        "alt_school": "N",
        "alt_school_label": "No",
        "report_card_url": "https://edudata.fldoe.org/ReportCards/Schools.html?school=0801&district=16"
      }
    },
    {
      "type": "Feature",
      "geometry": {
        "type": "Point",
        "coordinates": [
          -81.63093,
          30.26542
        ]
      },
      "properties": {
        "source": "Florida Department of Education Know Your Schools Mapping",
        "source_url": "https://edudata.fldoe.org/ReportCards/Mapping.html",
        "year": "2526",
        "district_number": "16",
        "district_name": "DUVAL",
        "location_district": "16",
        "school_number": "0831",
        "school_name": "SAN JOSE ELEMENTARY SCHOOL",
        "school_name_short": "SAN JOSE ELEMENTARY SCHOOL",
        "school_type": "Elementary School",
        "charter": "NO",
        "public_school_type": "Traditional Public",
        "magnet_status": "P",
        "magnet_status_label": "Magnet Program",
        "magnet_specialty": "C",
        "magnet_specialty_label": "Foreign Language",
        "physical_address": "5805 SAINT AUGUSTINE RD",
        "physical_city": "JACKSONVILLE",
        "physical_state": "FL",
        "physical_zip": "32207-8088",
        "phone_number": "(904)739-5260",
        "principal_first": "JASMIN",
        "principal_last": "GOMEZ",
        "total_students": 939,
        "cep_percentage": 81.3,
        "teacher_count": 57,
        "title1": "YES",
        "alt_school": "N",
        "alt_school_label": "No",
        "report_card_url": "https://edudata.fldoe.org/ReportCards/Schools.html?school=0831&district=16"
      }
    },
    {
      "type": "Feature",
      "geometry": {
        "type": "Point",
        "coordinates": [
          -81.70376,
          30.26122
        ]
      },
      "properties": {
        "source": "Florida Department of Education Know Your Schools Mapping",
        "source_url": "https://edudata.fldoe.org/ReportCards/Mapping.html",
        "year": "2526",
        "district_number": "16",
        "district_name": "DUVAL",
        "location_district": "16",
        "school_number": "0881",
        "school_name": "JOHN STOCKTON ELEMENTARY SCHOOL",
        "school_name_short": "JOHN STOCKTON ELEMENTARY SCHOOL",
        "school_type": "Elementary School",
        "charter": "NO",
        "public_school_type": "Traditional Public",
        "magnet_status": "P",
        "magnet_status_label": "Magnet Program",
        "magnet_specialty": "G",
        "magnet_specialty_label": "Science/Math",
        "physical_address": "4827 CARLISLE RD",
        "physical_city": "JACKSONVILLE",
        "physical_state": "FL",
        "physical_zip": "32210-8164",
        "phone_number": "(904)381-3955",
        "principal_first": "STEPHANIE",
        "principal_last": "BRANNAN",
        "total_students": 489,
        "cep_percentage": 22.1,
        "teacher_count": 29,
        "title1": "NO",
        "alt_school": "N",
        "alt_school_label": "No",
        "report_card_url": "https://edudata.fldoe.org/ReportCards/Schools.html?school=0881&district=16"
      }
    },
    {
      "type": "Feature",
      "geometry": {
        "type": "Point",
        "coordinates": [
          -81.70586,
          30.39134
        ]
      },
      "properties": {
        "source": "Florida Department of Education Know Your Schools Mapping",
        "source_url": "https://edudata.fldoe.org/ReportCards/Mapping.html",
        "year": "2526",
        "district_number": "16",
        "district_name": "DUVAL",
        "location_district": "16",
        "school_number": "0911",
        "school_name": "SALLYE B. MATHIS ELEMENTARY SCHOOL",
        "school_name_short": "SALLYE B. MATHIS ELEMENTARY SCHOOL",
        "school_type": "Elementary School",
        "charter": "NO",
        "public_school_type": "Traditional Public",
        "magnet_status": "S",
        "magnet_status_label": "Magnet School",
        "magnet_specialty": "G",
        "magnet_specialty_label": "Science/Math",
        "physical_address": "3501 WINTON DR",
        "physical_city": "JACKSONVILLE",
        "physical_state": "FL",
        "physical_zip": "32208-6301",
        "phone_number": "(904)924-3086",
        "principal_first": "LATARSHA",
        "principal_last": "JONES",
        "total_students": 361,
        "cep_percentage": 94.7,
        "teacher_count": 25,
        "title1": "YES",
        "alt_school": "N",
        "alt_school_label": "No",
        "report_card_url": "https://edudata.fldoe.org/ReportCards/Schools.html?school=0911&district=16"
      }
    },
    {
      "type": "Feature",
      "geometry": {
        "type": "Point",
        "coordinates": [
          -81.72174,
          30.32352
        ]
      },
      "properties": {
        "source": "Florida Department of Education Know Your Schools Mapping",
        "source_url": "https://edudata.fldoe.org/ReportCards/Mapping.html",
        "year": "2526",
        "district_number": "16",
        "district_name": "DUVAL",
        "location_district": "16",
        "school_number": "0931",
        "school_name": "PINEDALE ELEMENTARY SCHOOL",
        "school_name_short": "PINEDALE ELEMENTARY SCHOOL",
        "school_type": "Elementary School",
        "charter": "NO",
        "public_school_type": "Traditional Public",
        "magnet_status": "S",
        "magnet_status_label": "Magnet School",
        "magnet_specialty": "G",
        "magnet_specialty_label": "Science/Math",
        "physical_address": "4228 DIGNAN ST",
        "physical_city": "JACKSONVILLE",
        "physical_state": "FL",
        "physical_zip": "32254-4111",
        "phone_number": "(904)381-7490",
        "principal_first": "ANDREA",
        "principal_last": "WILLIS",
        "total_students": 422,
        "cep_percentage": 100.0,
        "teacher_count": 35,
        "title1": "YES",
        "alt_school": "N",
        "alt_school_label": "No",
        "report_card_url": "https://edudata.fldoe.org/ReportCards/Schools.html?school=0931&district=16"
      }
    },
    {
      "type": "Feature",
      "geometry": {
        "type": "Point",
        "coordinates": [
          -81.71673,
          30.40953
        ]
      },
      "properties": {
        "source": "Florida Department of Education Know Your Schools Mapping",
        "source_url": "https://edudata.fldoe.org/ReportCards/Mapping.html",
        "year": "2526",
        "district_number": "16",
        "district_name": "DUVAL",
        "location_district": "16",
        "school_number": "0951",
        "school_name": "RUTLEDGE H. PEARSON ELEMENTARY SCHOOL",
        "school_name_short": "RUTLEDGE H. PEARSON ELEMENTARY SCHOOL",
        "school_type": "Elementary School",
        "charter": "NO",
        "public_school_type": "Traditional Public",
        "magnet_status": "S",
        "magnet_status_label": "Magnet School",
        "magnet_specialty": "O",
        "magnet_specialty_label": "Other",
        "physical_address": "4346 ROANOKE BLVD",
        "physical_city": "JACKSONVILLE",
        "physical_state": "FL",
        "physical_zip": "32208-1160",
        "phone_number": "(904)924-3077",
        "principal_first": "KATHLEEN",
        "principal_last": "ADKINS",
        "total_students": 756,
        "cep_percentage": 100.0,
        "teacher_count": 45,
        "title1": "YES",
        "alt_school": "N",
        "alt_school_label": "No",
        "report_card_url": "https://edudata.fldoe.org/ReportCards/Schools.html?school=0951&district=16"
      }
    },
    {
      "type": "Feature",
      "geometry": {
        "type": "Point",
        "coordinates": [
          -81.70931,
          30.39003
        ]
      },
      "properties": {
        "source": "Florida Department of Education Know Your Schools Mapping",
        "source_url": "https://edudata.fldoe.org/ReportCards/Mapping.html",
        "year": "2526",
        "district_number": "16",
        "district_name": "DUVAL",
        "location_district": "16",
        "school_number": "0961",
        "school_name": "JEAN RIBAULT HIGH SCHOOL",
        "school_name_short": "JEAN RIBAULT HIGH SCHOOL",
        "school_type": "High School",
        "charter": "NO",
        "public_school_type": "Traditional Public",
        "magnet_status": "P",
        "magnet_status_label": "Magnet Program",
        "magnet_specialty": "O",
        "magnet_specialty_label": "Other",
        "physical_address": "3701 WINTON DR",
        "physical_city": "JACKSONVILLE",
        "physical_state": "FL",
        "physical_zip": "32208-2998",
        "phone_number": "(904)924-3092",
        "principal_first": "GREGORY",
        "principal_last": "BOSTIC",
        "total_students": 1531,
        "cep_percentage": 88.5,
        "teacher_count": 63,
        "title1": "YES",
        "alt_school": "N",
        "alt_school_label": "No",
        "report_card_url": "https://edudata.fldoe.org/ReportCards/Schools.html?school=0961&district=16"
      }
    },
    {
      "type": "Feature",
      "geometry": {
        "type": "Point",
        "coordinates": [
          -81.63771,
          30.30085
        ]
      },
      "properties": {
        "source": "Florida Department of Education Know Your Schools Mapping",
        "source_url": "https://edudata.fldoe.org/ReportCards/Mapping.html",
        "year": "2526",
        "district_number": "16",
        "district_name": "DUVAL",
        "location_district": "16",
        "school_number": "1073",
        "school_name": "DOUGLAS ANDERSON SCHOOL OF THE ARTS",
        "school_name_short": "DOUGLAS ANDERSON SCHOOL OF THE ARTS",
        "school_type": "High School",
        "charter": "NO",
        "public_school_type": "Traditional Public",
        "magnet_status": "S",
        "magnet_status_label": "Magnet School",
        "magnet_specialty": "F",
        "magnet_specialty_label": "Performing Arts",
        "physical_address": "2445 SAN DIEGO RD",
        "physical_city": "JACKSONVILLE",
        "physical_state": "FL",
        "physical_zip": "32207-3630",
        "phone_number": "(904)346-5620",
        "principal_first": "TIMOTHY",
        "principal_last": "FEAGINS",
        "total_students": 971,
        "cep_percentage": 18.4,
        "teacher_count": 51,
        "title1": "NO",
        "alt_school": "N",
        "alt_school_label": "No",
        "report_card_url": "https://edudata.fldoe.org/ReportCards/Schools.html?school=1073&district=16"
      }
    },
    {
      "type": "Feature",
      "geometry": {
        "type": "Point",
        "coordinates": [
          -81.45977,
          30.25505
        ]
      },
      "properties": {
        "source": "Florida Department of Education Know Your Schools Mapping",
        "source_url": "https://edudata.fldoe.org/ReportCards/Mapping.html",
        "year": "2526",
        "district_number": "16",
        "district_name": "DUVAL",
        "location_district": "16",
        "school_number": "1411",
        "school_name": "J. ALLEN AXSON ELEMENTARY SCHOOL",
        "school_name_short": "J. ALLEN AXSON ELEM SCHOOL",
        "school_type": "Elementary School",
        "charter": "NO",
        "public_school_type": "Traditional Public",
        "magnet_status": "S",
        "magnet_status_label": "Magnet School",
        "magnet_specialty": "O",
        "magnet_specialty_label": "Other",
        "physical_address": "4763 SUTTON PARK CT",
        "physical_city": "JACKSONVILLE",
        "physical_state": "FL",
        "physical_zip": "32224-5289",
        "phone_number": "(904)992-3600",
        "principal_first": "TAMARA",
        "principal_last": "FEAGINS",
        "total_students": 624,
        "cep_percentage": 12.5,
        "teacher_count": 35,
        "title1": "NO",
        "alt_school": "N",
        "alt_school_label": "No",
        "report_card_url": "https://edudata.fldoe.org/ReportCards/Schools.html?school=1411&district=16"
      }
    },
    {
      "type": "Feature",
      "geometry": {
        "type": "Point",
        "coordinates": [
          -81.39664,
          30.27313
        ]
      },
      "properties": {
        "source": "Florida Department of Education Know Your Schools Mapping",
        "source_url": "https://edudata.fldoe.org/ReportCards/Mapping.html",
        "year": "2526",
        "district_number": "16",
        "district_name": "DUVAL",
        "location_district": "16",
        "school_number": "1441",
        "school_name": "JACKSONVILLE BEACH ELEMENTARY SCHOOL",
        "school_name_short": "JACKSONVILLE BEACH ELEMENTARY SCHOOL",
        "school_type": "Elementary School",
        "charter": "NO",
        "public_school_type": "Traditional Public",
        "magnet_status": "S",
        "magnet_status_label": "Magnet School",
        "magnet_specialty": "A",
        "magnet_specialty_label": "Academically Talented",
        "physical_address": "315 10TH ST S",
        "physical_city": "JACKSONVILLE BEACH",
        "physical_state": "FL",
        "physical_zip": "32250-3334",
        "phone_number": "(904)247-5942",
        "principal_first": "CAMERON",
        "principal_last": "MATTINGLY",
        "total_students": 626,
        "cep_percentage": 9.1,
        "teacher_count": 35,
        "title1": "NO",
        "alt_school": "N",
        "alt_school_label": "No",
        "report_card_url": "https://edudata.fldoe.org/ReportCards/Schools.html?school=1441&district=16"
      }
    },
    {
      "type": "Feature",
      "geometry": {
        "type": "Point",
        "coordinates": [
          -81.66585,
          30.34603
        ]
      },
      "properties": {
        "source": "Florida Department of Education Know Your Schools Mapping",
        "source_url": "https://edudata.fldoe.org/ReportCards/Mapping.html",
        "year": "2526",
        "district_number": "16",
        "district_name": "DUVAL",
        "location_district": "16",
        "school_number": "1451",
        "school_name": "DARNELL COOKMAN MIDDLE/HIGH SCHOOL",
        "school_name_short": "DARNELL COOKMAN MIDDLE/HIGH SCHOOL",
        "school_type": "Combination School",
        "charter": "NO",
        "public_school_type": "Traditional Public",
        "magnet_status": "S",
        "magnet_status_label": "Magnet School",
        "magnet_specialty": "E",
        "magnet_specialty_label": "Medical",
        "physical_address": "1701 N DAVIS ST",
        "physical_city": "JACKSONVILLE",
        "physical_state": "FL",
        "physical_zip": "32209-6518",
        "phone_number": "(904)630-6805",
        "principal_first": "PAUL",
        "principal_last": "DAVIS",
        "total_students": 1018,
        "cep_percentage": 41.4,
        "teacher_count": 44,
        "title1": "YES",
        "alt_school": "N",
        "alt_school_label": "No",
        "report_card_url": "https://edudata.fldoe.org/ReportCards/Schools.html?school=1451&district=16"
      }
    },
    {
      "type": "Feature",
      "geometry": {
        "type": "Point",
        "coordinates": [
          -81.72468,
          30.34277
        ]
      },
      "properties": {
        "source": "Florida Department of Education Know Your Schools Mapping",
        "source_url": "https://edudata.fldoe.org/ReportCards/Mapping.html",
        "year": "2526",
        "district_number": "16",
        "district_name": "DUVAL",
        "location_district": "16",
        "school_number": "1521",
        "school_name": "JAMES WELDON JOHNSON COLLEGE PREPARATORY MIDDLE SCHOOL",
        "school_name_short": "JAMES W JOHNSON COLLEG PREP MIDDLE SCHOOL",
        "school_type": "Middle School",
        "charter": "NO",
        "public_school_type": "Traditional Public",
        "magnet_status": "S",
        "magnet_status_label": "Magnet School",
        "magnet_specialty": "A",
        "magnet_specialty_label": "Academically Talented",
        "physical_address": "3276 NORMAN E THAGARD BLVD",
        "physical_city": "JACKSONVILLE",
        "physical_state": "FL",
        "physical_zip": "32254-1765",
        "phone_number": "(904)693-7600",
        "principal_first": "JAMES",
        "principal_last": "STUCKEY",
        "total_students": 1006,
        "cep_percentage": 27.9,
        "teacher_count": 40,
        "title1": "NO",
        "alt_school": "N",
        "alt_school_label": "No",
        "report_card_url": "https://edudata.fldoe.org/ReportCards/Schools.html?school=1521&district=16"
      }
    },
    {
      "type": "Feature",
      "geometry": {
        "type": "Point",
        "coordinates": [
          -81.6737,
          30.35205
        ]
      },
      "properties": {
        "source": "Florida Department of Education Know Your Schools Mapping",
        "source_url": "https://edudata.fldoe.org/ReportCards/Mapping.html",
        "year": "2526",
        "district_number": "16",
        "district_name": "DUVAL",
        "location_district": "16",
        "school_number": "1531",
        "school_name": "STANTON COLLEGE PREPARATORY",
        "school_name_short": "STANTON COLLEGE PREPARATORY",
        "school_type": "High School",
        "charter": "NO",
        "public_school_type": "Traditional Public",
        "magnet_status": "S",
        "magnet_status_label": "Magnet School",
        "magnet_specialty": "A",
        "magnet_specialty_label": "Academically Talented",
        "physical_address": "1149 W 13TH ST",
        "physical_city": "JACKSONVILLE",
        "physical_state": "FL",
        "physical_zip": "32209-5699",
        "phone_number": "(904)630-6760",
        "principal_first": "NONGONGOMA",
        "principal_last": "MAJOVA",
        "total_students": 1302,
        "cep_percentage": 15.1,
        "teacher_count": 71,
        "title1": "NO",
        "alt_school": "N",
        "alt_school_label": "No",
        "report_card_url": "https://edudata.fldoe.org/ReportCards/Schools.html?school=1531&district=16"
      }
    },
    {
      "type": "Feature",
      "geometry": {
        "type": "Point",
        "coordinates": [
          -81.67028,
          30.33895
        ]
      },
      "properties": {
        "source": "Florida Department of Education Know Your Schools Mapping",
        "source_url": "https://edudata.fldoe.org/ReportCards/Mapping.html",
        "year": "2526",
        "district_number": "16",
        "district_name": "DUVAL",
        "location_district": "16",
        "school_number": "1542",
        "school_name": "JOHN E. FORD K-8 SCHOOL",
        "school_name_short": "JOHN E. FORD K-8 SCHOOL",
        "school_type": "Combination School",
        "charter": "NO",
        "public_school_type": "Traditional Public",
        "magnet_status": "S",
        "magnet_status_label": "Magnet School",
        "magnet_specialty": "C",
        "magnet_specialty_label": "Foreign Language",
        "physical_address": "1137 CLEVELAND ST",
        "physical_city": "JACKSONVILLE",
        "physical_state": "FL",
        "physical_zip": "32209-6414",
        "phone_number": "(904)630-6540",
        "principal_first": "TINA",
        "principal_last": "BENNETT",
        "total_students": 660,
        "cep_percentage": 73.9,
        "teacher_count": 38,
        "title1": "YES",
        "alt_school": "N",
        "alt_school_label": "No",
        "report_card_url": "https://edudata.fldoe.org/ReportCards/Schools.html?school=1542&district=16"
      }
    },
    {
      "type": "Feature",
      "geometry": {
        "type": "Point",
        "coordinates": [
          -81.6858,
          30.33761
        ]
      },
      "properties": {
        "source": "Florida Department of Education Know Your Schools Mapping",
        "source_url": "https://edudata.fldoe.org/ReportCards/Mapping.html",
        "year": "2526",
        "district_number": "16",
        "district_name": "DUVAL",
        "location_district": "16",
        "school_number": "1561",
        "school_name": "JACKSONVILLE STEM ACADEMY AT EUGENE BUTLER",
        "school_name_short": "JACKSONVILLE STEM ACADEMY AT EUGENE BUTLER",
        "school_type": "Middle School",
        "charter": "NO",
        "public_school_type": "Traditional Public",
        "magnet_status": "S",
        "magnet_status_label": "Magnet School",
        "magnet_specialty": "O",
        "magnet_specialty_label": "Other",
        "physical_address": "900 ACORN ST",
        "physical_city": "JACKSONVILLE",
        "physical_state": "FL",
        "physical_zip": "32209-7106",
        "phone_number": "(904)630-6900",
        "principal_first": "LEON",
        "principal_last": "MUNGIN",
        "total_students": 241,
        "cep_percentage": 100.0,
        "teacher_count": 15,
        "title1": "YES",
        "alt_school": "N",
        "alt_school_label": "No",
        "report_card_url": "https://edudata.fldoe.org/ReportCards/Schools.html?school=1561&district=16"
      }
    },
    {
      "type": "Feature",
      "geometry": {
        "type": "Point",
        "coordinates": [
          -81.63722,
          30.2801
        ]
      },
      "properties": {
        "source": "Florida Department of Education Know Your Schools Mapping",
        "source_url": "https://edudata.fldoe.org/ReportCards/Mapping.html",
        "year": "2526",
        "district_number": "16",
        "district_name": "DUVAL",
        "location_district": "16",
        "school_number": "1591",
        "school_name": "PINE FOREST ELEMENTARY SCHOOL",
        "school_name_short": "PINE FOREST ELEMENTARY SCHOOL",
        "school_type": "Elementary School",
        "charter": "NO",
        "public_school_type": "Traditional Public",
        "magnet_status": "S",
        "magnet_status_label": "Magnet School",
        "magnet_specialty": "F",
        "magnet_specialty_label": "Performing Arts",
        "physical_address": "3929 GRANT RD",
        "physical_city": "JACKSONVILLE",
        "physical_state": "FL",
        "physical_zip": "32207-6628",
        "phone_number": "(904)346-5600",
        "principal_first": "MICHELLE",
        "principal_last": "MATTHEWS",
        "total_students": 405,
        "cep_percentage": 60.7,
        "teacher_count": 31,
        "title1": "NO",
        "alt_school": "N",
        "alt_school_label": "No",
        "report_card_url": "https://edudata.fldoe.org/ReportCards/Schools.html?school=1591&district=16"
      }
    },
    {
      "type": "Feature",
      "geometry": {
        "type": "Point",
        "coordinates": [
          -81.72706,
          30.38171
        ]
      },
      "properties": {
        "source": "Florida Department of Education Know Your Schools Mapping",
        "source_url": "https://edudata.fldoe.org/ReportCards/Mapping.html",
        "year": "2526",
        "district_number": "16",
        "district_name": "DUVAL",
        "location_district": "16",
        "school_number": "1631",
        "school_name": "RUFUS E. PAYNE ELEMENTARY SCHOOL",
        "school_name_short": "RUFUS E. PAYNE ELEMENTARY SCHOOL",
        "school_type": "Elementary School",
        "charter": "NO",
        "public_school_type": "Traditional Public",
        "magnet_status": "S",
        "magnet_status_label": "Magnet School",
        "magnet_specialty": "G",
        "magnet_specialty_label": "Science/Math",
        "physical_address": "6725 HEMA RD",
        "physical_city": "JACKSONVILLE",
        "physical_state": "FL",
        "physical_zip": "32209-1424",
        "phone_number": "(904)924-3020",
        "principal_first": "WEISHA",
        "principal_last": "DAY-KILETTE",
        "total_students": 236,
        "cep_percentage": 99.6,
        "teacher_count": 14,
        "title1": "YES",
        "alt_school": "N",
        "alt_school_label": "No",
        "report_card_url": "https://edudata.fldoe.org/ReportCards/Schools.html?school=1631&district=16"
      }
    },
    {
      "type": "Feature",
      "geometry": {
        "type": "Point",
        "coordinates": [
          -81.71082,
          30.38277
        ]
      },
      "properties": {
        "source": "Florida Department of Education Know Your Schools Mapping",
        "source_url": "https://edudata.fldoe.org/ReportCards/Mapping.html",
        "year": "2526",
        "district_number": "16",
        "district_name": "DUVAL",
        "location_district": "16",
        "school_number": "1651",
        "school_name": "WILLIAM M. RAINES HIGH SCHOOL",
        "school_name_short": "WILLIAM M. RAINES HIGH SCHOOL",
        "school_type": "High School",
        "charter": "NO",
        "public_school_type": "Traditional Public",
        "magnet_status": "P",
        "magnet_status_label": "Magnet Program",
        "magnet_specialty": "O",
        "magnet_specialty_label": "Other",
        "physical_address": "3663 RAINES AVE",
        "physical_city": "JACKSONVILLE",
        "physical_state": "FL",
        "physical_zip": "32209-1999",
        "phone_number": "(904)924-3049",
        "principal_first": "VINCENT",
        "principal_last": "HALL",
        "total_students": 1332,
        "cep_percentage": 96.5,
        "teacher_count": 61,
        "title1": "YES",
        "alt_school": "N",
        "alt_school_label": "No",
        "report_card_url": "https://edudata.fldoe.org/ReportCards/Schools.html?school=1651&district=16"
      }
    },
    {
      "type": "Feature",
      "geometry": {
        "type": "Point",
        "coordinates": [
          -81.58535,
          30.3013
        ]
      },
      "properties": {
        "source": "Florida Department of Education Know Your Schools Mapping",
        "source_url": "https://edudata.fldoe.org/ReportCards/Mapping.html",
        "year": "2526",
        "district_number": "16",
        "district_name": "DUVAL",
        "location_district": "16",
        "school_number": "2091",
        "school_name": "HOLIDAY HILL ELEMENTARY SCHOOL",
        "school_name_short": "HOLIDAY HILL ELEMENTARY SCHOOL",
        "school_type": "Elementary School",
        "charter": "NO",
        "public_school_type": "Traditional Public",
        "magnet_status": "S",
        "magnet_status_label": "Magnet School",
        "magnet_specialty": "A",
        "magnet_specialty_label": "Academically Talented",
        "physical_address": "6900 ALTAMA RD",
        "physical_city": "JACKSONVILLE",
        "physical_state": "FL",
        "physical_zip": "32216-9104",
        "phone_number": "(904)720-1676",
        "principal_first": "BRETT",
        "principal_last": "HARTLEY",
        "total_students": 465,
        "cep_percentage": 63.2,
        "teacher_count": 35,
        "title1": "NO",
        "alt_school": "N",
        "alt_school_label": "No",
        "report_card_url": "https://edudata.fldoe.org/ReportCards/Schools.html?school=2091&district=16"
      }
    },
    {
      "type": "Feature",
      "geometry": {
        "type": "Point",
        "coordinates": [
          -81.59563,
          30.27119
        ]
      },
      "properties": {
        "source": "Florida Department of Education Know Your Schools Mapping",
        "source_url": "https://edudata.fldoe.org/ReportCards/Mapping.html",
        "year": "2526",
        "district_number": "16",
        "district_name": "DUVAL",
        "location_district": "16",
        "school_number": "2111",
        "school_name": "SOUTHSIDE MIDDLE SCHOOL",
        "school_name_short": "SOUTHSIDE MIDDLE SCHOOL",
        "school_type": "Middle School",
        "charter": "NO",
        "public_school_type": "Traditional Public",
        "magnet_status": "S",
        "magnet_status_label": "Magnet School",
        "magnet_specialty": "D",
        "magnet_specialty_label": "International Baccalaureate",
        "physical_address": "2948 KNIGHTS LN E",
        "physical_city": "JACKSONVILLE",
        "physical_state": "FL",
        "physical_zip": "32216-5697",
        "phone_number": "(904)739-5238",
        "principal_first": "JENNIFER",
        "principal_last": "CRADY",
        "total_students": 800,
        "cep_percentage": 74.1,
        "teacher_count": 38,
        "title1": "YES",
        "alt_school": "N",
        "alt_school_label": "No",
        "report_card_url": "https://edudata.fldoe.org/ReportCards/Schools.html?school=2111&district=16"
      }
    },
    {
      "type": "Feature",
      "geometry": {
        "type": "Point",
        "coordinates": [
          -81.71001,
          30.39296
        ]
      },
      "properties": {
        "source": "Florida Department of Education Know Your Schools Mapping",
        "source_url": "https://edudata.fldoe.org/ReportCards/Mapping.html",
        "year": "2526",
        "district_number": "16",
        "district_name": "DUVAL",
        "location_district": "16",
        "school_number": "2121",
        "school_name": "JEAN RIBAULT MIDDLE SCHOOL",
        "school_name_short": "JEAN RIBAULT MIDDLE SCHOOL",
        "school_type": "Middle School",
        "charter": "NO",
        "public_school_type": "Traditional Public",
        "magnet_status": "P",
        "magnet_status_label": "Magnet Program",
        "magnet_specialty": "O",
        "magnet_specialty_label": "Other",
        "physical_address": "3610 RIBAULT SCENIC DR",
        "physical_city": "JACKSONVILLE",
        "physical_state": "FL",
        "physical_zip": "32208-2997",
        "phone_number": "(904)924-3062",
        "principal_first": "LATOYA",
        "principal_last": "BROWN",
        "total_students": 558,
        "cep_percentage": 100.0,
        "teacher_count": 30,
        "title1": "YES",
        "alt_school": "N",
        "alt_school_label": "No",
        "report_card_url": "https://edudata.fldoe.org/ReportCards/Schools.html?school=2121&district=16"
      }
    },
    {
      "type": "Feature",
      "geometry": {
        "type": "Point",
        "coordinates": [
          -81.628,
          30.439
        ]
      },
      "properties": {
        "source": "Florida Department of Education Know Your Schools Mapping",
        "source_url": "https://edudata.fldoe.org/ReportCards/Mapping.html",
        "year": "2526",
        "district_number": "16",
        "district_name": "DUVAL",
        "location_district": "16",
        "school_number": "2181",
        "school_name": "SAN MATEO ELEMENTARY SCHOOL",
        "school_name_short": "SAN MATEO ELEMENTARY SCHOOL",
        "school_type": "Elementary School",
        "charter": "NO",
        "public_school_type": "Traditional Public",
        "magnet_status": "S",
        "magnet_status_label": "Magnet School",
        "magnet_specialty": "A",
        "magnet_specialty_label": "Academically Talented",
        "physical_address": "600 BAISDEN RD",
        "physical_city": "JACKSONVILLE",
        "physical_state": "FL",
        "physical_zip": "32218-4299",
        "phone_number": "(904)696-8750",
        "principal_first": "TAMMY",
        "principal_last": "BOYD",
        "total_students": 526,
        "cep_percentage": 56.8,
        "teacher_count": 32,
        "title1": "NO",
        "alt_school": "N",
        "alt_school_label": "No",
        "report_card_url": "https://edudata.fldoe.org/ReportCards/Schools.html?school=2181&district=16"
      }
    },
    {
      "type": "Feature",
      "geometry": {
        "type": "Point",
        "coordinates": [
          -81.77863,
          30.30732
        ]
      },
      "properties": {
        "source": "Florida Department of Education Know Your Schools Mapping",
        "source_url": "https://edudata.fldoe.org/ReportCards/Mapping.html",
        "year": "2526",
        "district_number": "16",
        "district_name": "DUVAL",
        "location_district": "16",
        "school_number": "2191",
        "school_name": "JOSEPH STILWELL MIDDLE SCHOOL",
        "school_name_short": "JOSEPH STILWELL MIDDLE SCHOOL",
        "school_type": "Middle School",
        "charter": "NO",
        "public_school_type": "Traditional Public",
        "magnet_status": "S",
        "magnet_status_label": "Magnet School",
        "magnet_specialty": "O",
        "magnet_specialty_label": "Other",
        "physical_address": "7840 BURMA RD",
        "physical_city": "JACKSONVILLE",
        "physical_state": "FL",
        "physical_zip": "32221-6198",
        "phone_number": "(904)693-7523",
        "principal_first": "TREVOR",
        "principal_last": "CLAYTON",
        "total_students": 495,
        "cep_percentage": 90.1,
        "teacher_count": 32,
        "title1": "YES",
        "alt_school": "N",
        "alt_school_label": "No",
        "report_card_url": "https://edudata.fldoe.org/ReportCards/Schools.html?school=2191&district=16"
      }
    },
    {
      "type": "Feature",
      "geometry": {
        "type": "Point",
        "coordinates": [
          -81.61571,
          30.25098
        ]
      },
      "properties": {
        "source": "Florida Department of Education Know Your Schools Mapping",
        "source_url": "https://edudata.fldoe.org/ReportCards/Mapping.html",
        "year": "2526",
        "district_number": "16",
        "district_name": "DUVAL",
        "location_district": "16",
        "school_number": "2241",
        "school_name": "SAMUEL W. WOLFSON HIGH SCHOOL",
        "school_name_short": "SAMUEL W. WOLFSON HIGH SCHOOL",
        "school_type": "High School",
        "charter": "NO",
        "public_school_type": "Traditional Public",
        "magnet_status": "S",
        "magnet_status_label": "Magnet School",
        "magnet_specialty": "A",
        "magnet_specialty_label": "Academically Talented",
        "physical_address": "7000 POWERS AVE",
        "physical_city": "JACKSONVILLE",
        "physical_state": "FL",
        "physical_zip": "32217-3398",
        "phone_number": "(904)739-5265",
        "principal_first": "CHRISTOPHER",
        "principal_last": "BEGLEY",
        "total_students": 1129,
        "cep_percentage": 13.5,
        "teacher_count": 52,
        "title1": "NO",
        "alt_school": "N",
        "alt_school_label": "No",
        "report_card_url": "https://edudata.fldoe.org/ReportCards/Schools.html?school=2241&district=16"
      }
    },
    {
      "type": "Feature",
      "geometry": {
        "type": "Point",
        "coordinates": [
          -81.79923,
          30.30053
        ]
      },
      "properties": {
        "source": "Florida Department of Education Know Your Schools Mapping",
        "source_url": "https://edudata.fldoe.org/ReportCards/Mapping.html",
        "year": "2526",
        "district_number": "16",
        "district_name": "DUVAL",
        "location_district": "16",
        "school_number": "2261",
        "school_name": "CRYSTAL SPRINGS ELEMENTARY SCHOOL",
        "school_name_short": "CRYSTAL SPRINGS ELEM. SCHOOL",
        "school_type": "Elementary School",
        "charter": "NO",
        "public_school_type": "Traditional Public",
        "magnet_status": "S",
        "magnet_status_label": "Magnet School",
        "magnet_specialty": "H",
        "magnet_specialty_label": "Technology",
        "physical_address": "1200 HAMMOND BLVD",
        "physical_city": "JACKSONVILLE",
        "physical_state": "FL",
        "physical_zip": "32221-1439",
        "phone_number": "(904)693-7645",
        "principal_first": "CLAIRE",
        "principal_last": "ST AMAND",
        "total_students": 957,
        "cep_percentage": 84.0,
        "teacher_count": 59,
        "title1": "YES",
        "alt_school": "N",
        "alt_school_label": "No",
        "report_card_url": "https://edudata.fldoe.org/ReportCards/Schools.html?school=2261&district=16"
      }
    },
    {
      "type": "Feature",
      "geometry": {
        "type": "Point",
        "coordinates": [
          -81.41794,
          30.36265
        ]
      },
      "properties": {
        "source": "Florida Department of Education Know Your Schools Mapping",
        "source_url": "https://edudata.fldoe.org/ReportCards/Mapping.html",
        "year": "2526",
        "district_number": "16",
        "district_name": "DUVAL",
        "location_district": "16",
        "school_number": "2271",
        "school_name": "MAYPORT ELEMENTARY SCHOOL",
        "school_name_short": "MAYPORT ELEMENTARY SCHOOL",
        "school_type": "Elementary School",
        "charter": "NO",
        "public_school_type": "Traditional Public",
        "magnet_status": "S",
        "magnet_status_label": "Magnet School",
        "magnet_specialty": "G",
        "magnet_specialty_label": "Science/Math",
        "physical_address": "2753 SHANGRI LA DR",
        "physical_city": "ATLANTIC BEACH",
        "physical_state": "FL",
        "physical_zip": "32233-2999",
        "phone_number": "(904)247-5988",
        "principal_first": "ABIGAIL",
        "principal_last": "WATSON",
        "total_students": 425,
        "cep_percentage": 39.3,
        "teacher_count": 35,
        "title1": "NO",
        "alt_school": "N",
        "alt_school_label": "No",
        "report_card_url": "https://edudata.fldoe.org/ReportCards/Schools.html?school=2271&district=16"
      }
    },
    {
      "type": "Feature",
      "geometry": {
        "type": "Point",
        "coordinates": [
          -81.80212,
          30.19704
        ]
      },
      "properties": {
        "source": "Florida Department of Education Know Your Schools Mapping",
        "source_url": "https://edudata.fldoe.org/ReportCards/Mapping.html",
        "year": "2526",
        "district_number": "16",
        "district_name": "DUVAL",
        "location_district": "16",
        "school_number": "2321",
        "school_name": "CHIMNEY LAKES ELEMENTARY SCHOOL",
        "school_name_short": "CHIMNEY LAKES ELEMENTARY SCHL",
        "school_type": "Elementary School",
        "charter": "NO",
        "public_school_type": "Traditional Public",
        "magnet_status": "S",
        "magnet_status_label": "Magnet School",
        "magnet_specialty": "O",
        "magnet_specialty_label": "Other",
        "physical_address": "9353 STAPLES MILL DR",
        "physical_city": "JACKSONVILLE",
        "physical_state": "FL",
        "physical_zip": "32244-6318",
        "phone_number": "(904)573-1100",
        "principal_first": "MARIANNE",
        "principal_last": "LEE",
        "total_students": 823,
        "cep_percentage": 63.5,
        "teacher_count": 51,
        "title1": "YES",
        "alt_school": "N",
        "alt_school_label": "No",
        "report_card_url": "https://edudata.fldoe.org/ReportCards/Schools.html?school=2321&district=16"
      }
    },
    {
      "type": "Feature",
      "geometry": {
        "type": "Point",
        "coordinates": [
          -81.52844,
          30.33769
        ]
      },
      "properties": {
        "source": "Florida Department of Education Know Your Schools Mapping",
        "source_url": "https://edudata.fldoe.org/ReportCards/Mapping.html",
        "year": "2526",
        "district_number": "16",
        "district_name": "DUVAL",
        "location_district": "16",
        "school_number": "2331",
        "school_name": "LONE STAR ELEMENTARY SCHOOL",
        "school_name_short": "LONE STAR ELEMENTARY SCHOOL",
        "school_type": "Elementary School",
        "charter": "NO",
        "public_school_type": "Traditional Public",
        "magnet_status": "S",
        "magnet_status_label": "Magnet School",
        "magnet_specialty": "G",
        "magnet_specialty_label": "Science/Math",
        "physical_address": "10400 LONE STAR RD",
        "physical_city": "JACKSONVILLE",
        "physical_state": "FL",
        "physical_zip": "32225-6797",
        "phone_number": "(904)565-2711",
        "principal_first": "CHERYL",
        "principal_last": "QUARLES-GASTON",
        "total_students": 291,
        "cep_percentage": 73.5,
        "teacher_count": 18,
        "title1": "YES",
        "alt_school": "N",
        "alt_school_label": "No",
        "report_card_url": "https://edudata.fldoe.org/ReportCards/Schools.html?school=2331&district=16"
      }
    },
    {
      "type": "Feature",
      "geometry": {
        "type": "Point",
        "coordinates": [
          -81.59597,
          30.36888
        ]
      },
      "properties": {
        "source": "Florida Department of Education Know Your Schools Mapping",
        "source_url": "https://edudata.fldoe.org/ReportCards/Mapping.html",
        "year": "2526",
        "district_number": "16",
        "district_name": "DUVAL",
        "location_district": "16",
        "school_number": "2381",
        "school_name": "FORT CAROLINE MIDDLE SCHOOL",
        "school_name_short": "FORT CAROLINE MIDDLE SCHOOL",
        "school_type": "Middle School",
        "charter": "NO",
        "public_school_type": "Traditional Public",
        "magnet_status": "S",
        "magnet_status_label": "Magnet School",
        "magnet_specialty": "F",
        "magnet_specialty_label": "Performing Arts",
        "physical_address": "3787 UNIVERSITY CLUB BLVD",
        "physical_city": "JACKSONVILLE",
        "physical_state": "FL",
        "physical_zip": "32277-1973",
        "phone_number": "(904)745-4927",
        "principal_first": "CHELVERT",
        "principal_last": "WELLINGTON",
        "total_students": 467,
        "cep_percentage": 85.7,
        "teacher_count": 23,
        "title1": "YES",
        "alt_school": "N",
        "alt_school_label": "No",
        "report_card_url": "https://edudata.fldoe.org/ReportCards/Schools.html?school=2381&district=16"
      }
    },
    {
      "type": "Feature",
      "geometry": {
        "type": "Point",
        "coordinates": [
          -81.68244,
          30.43386
        ]
      },
      "properties": {
        "source": "Florida Department of Education Know Your Schools Mapping",
        "source_url": "https://edudata.fldoe.org/ReportCards/Mapping.html",
        "year": "2526",
        "district_number": "16",
        "district_name": "DUVAL",
        "location_district": "16",
        "school_number": "2441",
        "school_name": "HIGHLANDS MIDDLE SCHOOL",
        "school_name_short": "HIGHLANDS MIDDLE SCHOOL",
        "school_type": "Middle School",
        "charter": "NO",
        "public_school_type": "Traditional Public",
        "magnet_status": "P",
        "magnet_status_label": "Magnet Program",
        "magnet_specialty": "O",
        "magnet_specialty_label": "Other",
        "physical_address": "10913 PINE ESTATES RD E",
        "physical_city": "JACKSONVILLE",
        "physical_state": "FL",
        "physical_zip": "32218-4634",
        "phone_number": "(904)696-8771",
        "principal_first": "AMANDA",
        "principal_last": "CARDOZA",
        "total_students": 576,
        "cep_percentage": 87.7,
        "teacher_count": 26,
        "title1": "YES",
        "alt_school": "N",
        "alt_school_label": "No",
        "report_card_url": "https://edudata.fldoe.org/ReportCards/Schools.html?school=2441&district=16"
      }
    },
    {
      "type": "Feature",
      "geometry": {
        "type": "Point",
        "coordinates": [
          -81.77032,
          30.28941
        ]
      },
      "properties": {
        "source": "Florida Department of Education Know Your Schools Mapping",
        "source_url": "https://edudata.fldoe.org/ReportCards/Mapping.html",
        "year": "2526",
        "district_number": "16",
        "district_name": "DUVAL",
        "location_district": "16",
        "school_number": "2481",
        "school_name": "EDWARD H. WHITE HIGH SCHOOL",
        "school_name_short": "EDWARD H. WHITE HIGH SCHOOL",
        "school_type": "High School",
        "charter": "NO",
        "public_school_type": "Traditional Public",
        "magnet_status": "P",
        "magnet_status_label": "Magnet Program",
        "magnet_specialty": "O",
        "magnet_specialty_label": "Other",
        "physical_address": "1700 OLD MIDDLEBURG RD N",
        "physical_city": "JACKSONVILLE",
        "physical_state": "FL",
        "physical_zip": "32210-1232",
        "phone_number": "(904)693-7620",
        "principal_first": "TRACI",
        "principal_last": "BATTEST",
        "total_students": 1758,
        "cep_percentage": 78.7,
        "teacher_count": 78,
        "title1": "YES",
        "alt_school": "N",
        "alt_school_label": "No",
        "report_card_url": "https://edudata.fldoe.org/ReportCards/Schools.html?school=2481&district=16"
      }
    },
    {
      "type": "Feature",
      "geometry": {
        "type": "Point",
        "coordinates": [
          -81.41387,
          30.36263
        ]
      },
      "properties": {
        "source": "Florida Department of Education Know Your Schools Mapping",
        "source_url": "https://edudata.fldoe.org/ReportCards/Mapping.html",
        "year": "2526",
        "district_number": "16",
        "district_name": "DUVAL",
        "location_district": "16",
        "school_number": "2541",
        "school_name": "MAYPORT COASTAL SCIENCE MIDDLE SCHOOL",
        "school_name_short": "MAYPORT COASTAL SCIENCE MIDDLE SCHOOL",
        "school_type": "Middle School",
        "charter": "NO",
        "public_school_type": "Traditional Public",
        "magnet_status": "S",
        "magnet_status_label": "Magnet School",
        "magnet_specialty": "G",
        "magnet_specialty_label": "Science/Math",
        "physical_address": "2600 MAYPORT RD",
        "physical_city": "ATLANTIC BEACH",
        "physical_state": "FL",
        "physical_zip": "32233-2804",
        "phone_number": "(904)247-5977",
        "principal_first": "AARON",
        "principal_last": "LAKATOS",
        "total_students": 815,
        "cep_percentage": 26.9,
        "teacher_count": 38,
        "title1": "NO",
        "alt_school": "N",
        "alt_school_label": "No",
        "report_card_url": "https://edudata.fldoe.org/ReportCards/Schools.html?school=2541&district=16"
      }
    },
    {
      "type": "Feature",
      "geometry": {
        "type": "Point",
        "coordinates": [
          -81.65636,
          30.35199
        ]
      },
      "properties": {
        "source": "Florida Department of Education Know Your Schools Mapping",
        "source_url": "https://edudata.fldoe.org/ReportCards/Mapping.html",
        "year": "2526",
        "district_number": "16",
        "district_name": "DUVAL",
        "location_district": "16",
        "school_number": "2621",
        "school_name": "ANDREW A. ROBINSON ELEMENTARY SCHOOL",
        "school_name_short": "ANDREW A. ROBINSON ELEMENTARY SCHOOL",
        "school_type": "Elementary School",
        "charter": "NO",
        "public_school_type": "Traditional Public",
        "magnet_status": "S",
        "magnet_status_label": "Magnet School",
        "magnet_specialty": "G",
        "magnet_specialty_label": "Science/Math",
        "physical_address": "101 W 12TH ST",
        "physical_city": "JACKSONVILLE",
        "physical_state": "FL",
        "physical_zip": "32206-3622",
        "phone_number": "(904)630-6550",
        "principal_first": "MYCHELLE",
        "principal_last": "GROVER",
        "total_students": 478,
        "cep_percentage": 100.0,
        "teacher_count": 32,
        "title1": "YES",
        "alt_school": "N",
        "alt_school_label": "No",
        "report_card_url": "https://edudata.fldoe.org/ReportCards/Schools.html?school=2621&district=16"
      }
    },
    {
      "type": "Feature",
      "geometry": {
        "type": "Point",
        "coordinates": [
          -81.66762,
          30.33236
        ]
      },
      "properties": {
        "source": "Florida Department of Education Know Your Schools Mapping",
        "source_url": "https://edudata.fldoe.org/ReportCards/Mapping.html",
        "year": "2526",
        "district_number": "16",
        "district_name": "DUVAL",
        "location_district": "16",
        "school_number": "2671",
        "school_name": "LAVILLA SCHOOL OF THE ARTS",
        "school_name_short": "LAVILLA SCHOOL OF THE ARTS",
        "school_type": "Middle School",
        "charter": "NO",
        "public_school_type": "Traditional Public",
        "magnet_status": "S",
        "magnet_status_label": "Magnet School",
        "magnet_specialty": "F",
        "magnet_specialty_label": "Performing Arts",
        "physical_address": "501 N DAVIS ST",
        "physical_city": "JACKSONVILLE",
        "physical_state": "FL",
        "physical_zip": "32202-4728",
        "phone_number": "(904)633-6069",
        "principal_first": "KIMBERLY",
        "principal_last": "HARRISON",
        "total_students": 1005,
        "cep_percentage": 29.1,
        "teacher_count": 51,
        "title1": "NO",
        "alt_school": "N",
        "alt_school_label": "No",
        "report_card_url": "https://edudata.fldoe.org/ReportCards/Schools.html?school=2671&district=16"
      }
    },
    {
      "type": "Feature",
      "geometry": {
        "type": "Point",
        "coordinates": [
          -81.77266,
          30.26313
        ]
      },
      "properties": {
        "source": "Florida Department of Education Know Your Schools Mapping",
        "source_url": "https://edudata.fldoe.org/ReportCards/Mapping.html",
        "year": "2526",
        "district_number": "16",
        "district_name": "DUVAL",
        "location_district": "16",
        "school_number": "2801",
        "school_name": "FRANK H. PETERSON ACADEMIES",
        "school_name_short": "FRANK H. PETERSON ACADEMIES",
        "school_type": "High School",
        "charter": "NO",
        "public_school_type": "Traditional Public",
        "magnet_status": "S",
        "magnet_status_label": "Magnet School",
        "magnet_specialty": "J",
        "magnet_specialty_label": "Career Academy",
        "physical_address": "7450 WILSON BLVD",
        "physical_city": "JACKSONVILLE",
        "physical_state": "FL",
        "physical_zip": "32210-3523",
        "phone_number": "(904)573-1150",
        "principal_first": "JESSICA",
        "principal_last": "MASTROMATTO",
        "total_students": 1202,
        "cep_percentage": 71.2,
        "teacher_count": 53,
        "title1": "YES",
        "alt_school": "N",
        "alt_school_label": "No",
        "report_card_url": "https://edudata.fldoe.org/ReportCards/Schools.html?school=2801&district=16"
      }
    },
    {
      "type": "Feature",
      "geometry": {
        "type": "Point",
        "coordinates": [
          -81.67677,
          30.36774
        ]
      },
      "properties": {
        "source": "Florida Department of Education Know Your Schools Mapping",
        "source_url": "https://edudata.fldoe.org/ReportCards/Mapping.html",
        "year": "2526",
        "district_number": "16",
        "district_name": "DUVAL",
        "location_district": "16",
        "school_number": "2851",
        "school_name": "A. PHILIP RANDOLPH ACADEMIES",
        "school_name_short": "A. PHILIP RANDOLPH ACADEMIES",
        "school_type": "High School",
        "charter": "NO",
        "public_school_type": "Traditional Public",
        "magnet_status": "S",
        "magnet_status_label": "Magnet School",
        "magnet_specialty": "J",
        "magnet_specialty_label": "Career Academy",
        "physical_address": "1157 GOLFAIR BLVD",
        "physical_city": "JACKSONVILLE",
        "physical_state": "FL",
        "physical_zip": "32209-4037",
        "phone_number": "(904)924-3011",
        "principal_first": "MARY",
        "principal_last": "FLYNN",
        "total_students": 323,
        "cep_percentage": 92.6,
        "teacher_count": 18,
        "title1": "YES",
        "alt_school": "N",
        "alt_school_label": "No",
        "report_card_url": "https://edudata.fldoe.org/ReportCards/Schools.html?school=2851&district=16"
      }
    }
  ]
}
