{
  "type": "FeatureCollection",
  "name": "FLDOE Duval traditional combination schools",
  "features": [
    {
      "type": "Feature",
      "geometry": {
        "type": "Point",
        "coordinates": [
          -81.70069,
          30.35488
        ]
      },
      "properties": {
        "source": "Florida Department of Education Know Your Schools Mapping",
        "source_url": "https://edudata.fldoe.org/ReportCards/Mapping.html",
        "year": "2526",
        "district_number": "16",
        "district_name": "DUVAL",
        "location_district": "16",
        "school_number": "0141",
        "school_name": "Grand Park Career Center",
        "school_name_short": "Grand Park Career Center",
        "school_type": "Combination School",
        "charter": "NO",
        "public_school_type": "Traditional Public",
        "magnet_status": "Z",
        "magnet_status_label": "Non-Magnet",
        "magnet_specialty": "Z",
        "magnet_specialty_label": "None",
        "physical_address": "2335 W. 18th St",
        "physical_city": "Jacksonville",
        "physical_state": "FL",
        "physical_zip": "32209-4599",
        "phone_number": "(904)630-6894",
        "total_students": 225,
        "cep_percentage": 97.8,
        "teacher_count": 19,
        "title1": "YES",
        "alt_school": "A",
        "alt_school_label": "Alternative Education Center",
        "report_card_url": "https://edudata.fldoe.org/ReportCards/Schools.html?school=0141&district=16",
        "formatted_address": "2335 W. 18th St, Jacksonville FL 32209-4599"
      }
    },
    {
      "type": "Feature",
      "geometry": {
        "type": "Point",
        "coordinates": [
          -81.68543,
          30.37245
        ]
      },
      "properties": {
        "source": "Florida Department of Education Know Your Schools Mapping",
        "source_url": "https://edudata.fldoe.org/ReportCards/Mapping.html",
        "year": "2526",
        "district_number": "16",
        "district_name": "DUVAL",
        "location_district": "16",
        "school_number": "0171",
        "school_name": "The Bridge to Success Academy Middle School",
        "school_name_short": "The Bridge to Success Academy Middle School",
        "school_type": "Combination School",
        "charter": "NO",
        "public_school_type": "Traditional Public",
        "magnet_status": "Z",
        "magnet_status_label": "Non-Magnet",
        "magnet_specialty": "Z",
        "magnet_specialty_label": "None",
        "physical_address": "5443 Moncrief Rd",
        "physical_city": "Jacksonville",
        "physical_state": "FL",
        "physical_zip": "32209-3160",
        "phone_number": "(904)924-3035",
        "total_students": 359,
        "cep_percentage": 95.3,
        "teacher_count": 23,
        "title1": "YES",
        "alt_school": "A",
        "alt_school_label": "Alternative Education Center",
        "report_card_url": "https://edudata.fldoe.org/ReportCards/Schools.html?school=0171&district=16",
        "formatted_address": "5443 Moncrief Rd, Jacksonville FL 32209-3160"
      }
    },
    {
      "type": "Feature",
      "geometry": {
        "type": "Point",
        "coordinates": [
          -81.55793,
          30.36034
        ]
      },
      "properties": {
        "source": "Florida Department of Education Know Your Schools Mapping",
        "source_url": "https://edudata.fldoe.org/ReportCards/Mapping.html",
        "year": "2526",
        "district_number": "16",
        "district_name": "DUVAL",
        "location_district": "16",
        "school_number": "0271",
        "school_name": "GRASP Academy at Don Brewer",
        "school_name_short": "GRASP Academy at Don Brewer",
        "school_type": "Combination School",
        "charter": "NO",
        "public_school_type": "Traditional Public",
        "magnet_status": "Z",
        "magnet_status_label": "Non-Magnet",
        "magnet_specialty": "Z",
        "magnet_specialty_label": "None",
        "physical_address": "3385 Hartsfield Rd",
        "physical_city": "Jacksonville",
        "physical_state": "FL",
        "physical_zip": "32277-0917",
        "phone_number": "(904)745-4909",
        "total_students": 295,
        "cep_percentage": 72.5,
        "teacher_count": 30,
        "title1": "YES",
        "alt_school": "A",
        "alt_school_label": "Alternative Education Center",
        "report_card_url": "https://edudata.fldoe.org/ReportCards/Schools.html?school=0271&district=16",
        "formatted_address": "3385 Hartsfield Rd, Jacksonville FL 32277-0917"
      }
    },
    {
      "type": "Feature",
      "geometry": {
        "type": "Point",
        "coordinates": [
          -81.76059,
          30.25234
        ]
      },
      "properties": {
        "source": "Florida Department of Education Know Your Schools Mapping",
        "source_url": "https://edudata.fldoe.org/ReportCards/Mapping.html",
        "year": "2526",
        "district_number": "16",
        "district_name": "DUVAL",
        "location_district": "16",
        "school_number": "0281",
        "school_name": "Oak Hill Academy",
        "school_name_short": "Oak Hill Academy",
        "school_type": "Combination School",
        "charter": "NO",
        "public_school_type": "Traditional Public",
        "magnet_status": "Z",
        "magnet_status_label": "Non-Magnet",
        "magnet_specialty": "Z",
        "magnet_specialty_label": "None",
        "physical_address": "6910 Daughtry Blvd S.",
        "physical_city": "Jacksonville",
        "physical_state": "FL",
        "physical_zip": "32210-6844",
        "phone_number": "(904)573-1030",
        "total_students": 272,
        "cep_percentage": 75.7,
        "teacher_count": 39,
        "title1": "YES",
        "alt_school": "E",
        "alt_school_label": "ESE Center",
        "report_card_url": "https://edudata.fldoe.org/ReportCards/Schools.html?school=0281&district=16",
        "formatted_address": "6910 Daughtry Blvd S., Jacksonville FL 32210-6844"
      }
    },
    {
      "type": "Feature",
      "geometry": {
        "type": "Point",
        "coordinates": [
          -81.97776,
          30.30509
        ]
      },
      "properties": {
        "source": "Florida Department of Education Know Your Schools Mapping",
        "source_url": "https://edudata.fldoe.org/ReportCards/Mapping.html",
        "year": "2526",
        "district_number": "16",
        "district_name": "DUVAL",
        "location_district": "16",
        "school_number": "0381",
        "school_name": "Baldwin Middle-Senior High School",
        "school_name_short": "Baldwin Middle-Senior High School",
        "school_type": "Combination School",
        "charter": "NO",
        "public_school_type": "Traditional Public",
        "magnet_status": "P",
        "magnet_status_label": "Magnet Program",
        "magnet_specialty": "J",
        "magnet_specialty_label": "Career Academy",
        "physical_address": "291 Mill St W.",
        "physical_city": "Jacksonville",
        "physical_state": "FL",
        "physical_zip": "32234-1307",
        "phone_number": "(904)266-1200",
        "total_students": 1356,
        "cep_percentage": 42.0,
        "teacher_count": 65,
        "title1": "YES",
        "alt_school": "N",
        "alt_school_label": "No",
        "report_card_url": "https://edudata.fldoe.org/ReportCards/Schools.html?school=0381&district=16",
        "formatted_address": "291 Mill St W., Jacksonville FL 32234-1307",
        "school_website": "https://dcps.duvalschools.org/o/bhs"
      }
    },
    {
      "type": "Feature",
      "geometry": {
        "type": "Point",
        "coordinates": [
          -81.63903,
          30.34488
        ]
      },
      "properties": {
        "source": "Florida Department of Education Know Your Schools Mapping",
        "source_url": "https://edudata.fldoe.org/ReportCards/Mapping.html",
        "year": "2526",
        "district_number": "16",
        "district_name": "DUVAL",
        "location_district": "16",
        "school_number": "0491",
        "school_name": "Duval Regional Juvenile Detention Center",
        "school_name_short": "Duval Regional Juvenile Detention Center",
        "school_type": "Combination School",
        "charter": "NO",
        "public_school_type": "Traditional Public",
        "magnet_status": "Z",
        "magnet_status_label": "Non-Magnet",
        "magnet_specialty": "Z",
        "magnet_specialty_label": "None",
        "physical_address": "1214 E. 8th St",
        "physical_city": "Jacksonville",
        "physical_state": "FL",
        "physical_zip": "32206-4006",
        "phone_number": "(904)798-4819",
        "total_students": 90,
        "cep_percentage": 36.7,
        "teacher_count": 9,
        "title1": "NO",
        "alt_school": "D",
        "alt_school_label": "DJJ School",
        "report_card_url": "https://edudata.fldoe.org/ReportCards/Schools.html?school=0491&district=16",
        "formatted_address": "1214 E. 8th St, Jacksonville FL 32206-4006"
      }
    },
    {
      "type": "Feature",
      "geometry": {
        "type": "Point",
        "coordinates": [
          -81.60184,
          30.35361
        ]
      },
      "properties": {
        "source": "Florida Department of Education Know Your Schools Mapping",
        "source_url": "https://edudata.fldoe.org/ReportCards/Mapping.html",
        "year": "2526",
        "district_number": "16",
        "district_name": "DUVAL",
        "location_district": "16",
        "school_number": "0811",
        "school_name": "Pace Center for Girls-Jax",
        "school_name_short": "Pace Center for Girls-Jax",
        "school_type": "Combination School",
        "charter": "NO",
        "public_school_type": "Traditional Public",
        "magnet_status": "Z",
        "magnet_status_label": "Non-Magnet",
        "magnet_specialty": "Z",
        "magnet_specialty_label": "None",
        "physical_address": "2933 University Blvd N.",
        "physical_city": "Jacksonville",
        "physical_state": "FL",
        "physical_zip": "32211-3322",
        "phone_number": "(904)448-8002",
        "total_students": 69,
        "cep_percentage": 81.2,
        "teacher_count": 5,
        "title1": "YES",
        "alt_school": "D",
        "alt_school_label": "DJJ School",
        "report_card_url": "https://edudata.fldoe.org/ReportCards/Schools.html?school=0811&district=16",
        "formatted_address": "2933 University Blvd N., Jacksonville FL 32211-3322"
      }
    },
    {
      "type": "Feature",
      "geometry": {
        "type": "Point",
        "coordinates": [
          -81.66585,
          30.34603
        ]
      },
      "properties": {
        "source": "Florida Department of Education Know Your Schools Mapping",
        "source_url": "https://edudata.fldoe.org/ReportCards/Mapping.html",
        "year": "2526",
        "district_number": "16",
        "district_name": "DUVAL",
        "location_district": "16",
        "school_number": "1451",
        "school_name": "Darnell Cookman Middle/High School",
        "school_name_short": "Darnell Cookman Middle/High School",
        "school_type": "Combination School",
        "charter": "NO",
        "public_school_type": "Traditional Public",
        "magnet_status": "S",
        "magnet_status_label": "Magnet School",
        "magnet_specialty": "E",
        "magnet_specialty_label": "Medical",
        "physical_address": "1701 N. Davis St",
        "physical_city": "Jacksonville",
        "physical_state": "FL",
        "physical_zip": "32209-6518",
        "phone_number": "(904)630-6805",
        "total_students": 1018,
        "cep_percentage": 41.4,
        "teacher_count": 44,
        "title1": "YES",
        "alt_school": "N",
        "alt_school_label": "No",
        "report_card_url": "https://edudata.fldoe.org/ReportCards/Schools.html?school=1451&district=16",
        "formatted_address": "1701 N. Davis St, Jacksonville FL 32209-6518",
        "school_website": "https://www.duvalschools.org/o/dchs"
      }
    },
    {
      "type": "Feature",
      "geometry": {
        "type": "Point",
        "coordinates": [
          -81.67028,
          30.33895
        ]
      },
      "properties": {
        "source": "Florida Department of Education Know Your Schools Mapping",
        "source_url": "https://edudata.fldoe.org/ReportCards/Mapping.html",
        "year": "2526",
        "district_number": "16",
        "district_name": "DUVAL",
        "location_district": "16",
        "school_number": "1542",
        "school_name": "John E. Ford K-8 School",
        "school_name_short": "John E. Ford K-8 School",
        "school_type": "Combination School",
        "charter": "NO",
        "public_school_type": "Traditional Public",
        "magnet_status": "S",
        "magnet_status_label": "Magnet School",
        "magnet_specialty": "C",
        "magnet_specialty_label": "Foreign Language",
        "physical_address": "1137 Cleveland St",
        "physical_city": "Jacksonville",
        "physical_state": "FL",
        "physical_zip": "32209-6414",
        "phone_number": "(904)630-6540",
        "total_students": 660,
        "cep_percentage": 73.9,
        "teacher_count": 38,
        "title1": "YES",
        "alt_school": "N",
        "alt_school_label": "No",
        "report_card_url": "https://edudata.fldoe.org/ReportCards/Schools.html?school=1542&district=16",
        "formatted_address": "1137 Cleveland St, Jacksonville FL 32209-6414",
        "school_website": "https://dcps.duvalschools.org/o/jefes"
      }
    },
    {
      "type": "Feature",
      "geometry": {
        "type": "Point",
        "coordinates": [
          -81.72781,
          30.34278
        ]
      },
      "properties": {
        "source": "Florida Department of Education Know Your Schools Mapping",
        "source_url": "https://edudata.fldoe.org/ReportCards/Mapping.html",
        "year": "2526",
        "district_number": "16",
        "district_name": "DUVAL",
        "location_district": "16",
        "school_number": "1701",
        "school_name": "Palm Avenue Exceptional. Student Center",
        "school_name_short": "Palm Avenue Exceptional. Student Ctr",
        "school_type": "Combination School",
        "charter": "NO",
        "public_school_type": "Traditional Public",
        "magnet_status": "Z",
        "magnet_status_label": "Non-Magnet",
        "magnet_specialty": "Z",
        "magnet_specialty_label": "None",
        "physical_address": "1301 W. Palm Ave",
        "physical_city": "Jacksonville",
        "physical_state": "FL",
        "physical_zip": "32254-2349",
        "phone_number": "(904)693-7516",
        "total_students": 232,
        "cep_percentage": 46.6,
        "teacher_count": 22,
        "title1": "YES",
        "alt_school": "E",
        "alt_school_label": "ESE Center",
        "report_card_url": "https://edudata.fldoe.org/ReportCards/Schools.html?school=1701&district=16",
        "formatted_address": "1301 W. Palm Ave, Jacksonville FL 32254-2349"
      }
    },
    {
      "type": "Feature",
      "geometry": {
        "type": "Point",
        "coordinates": [
          -81.76024,
          30.25482
        ]
      },
      "properties": {
        "source": "Florida Department of Education Know Your Schools Mapping",
        "source_url": "https://edudata.fldoe.org/ReportCards/Mapping.html",
        "year": "2526",
        "district_number": "16",
        "district_name": "DUVAL",
        "location_district": "16",
        "school_number": "1811",
        "school_name": "Hospital and Homebound",
        "school_name_short": "Hospital and Homebound",
        "school_type": "Combination School",
        "charter": "NO",
        "public_school_type": "Traditional Public",
        "magnet_status": "Z",
        "magnet_status_label": "Non-Magnet",
        "magnet_specialty": "Z",
        "magnet_specialty_label": "None",
        "physical_address": "7050 Melvin Rd",
        "physical_city": "Jacksonville",
        "physical_state": "FL",
        "physical_zip": "32210",
        "phone_number": "(904)348-5191",
        "total_students": 86,
        "cep_percentage": 17.4,
        "teacher_count": 10,
        "title1": "NO",
        "alt_school": "E",
        "alt_school_label": "ESE Center",
        "report_card_url": "https://edudata.fldoe.org/ReportCards/Schools.html?school=1811&district=16",
        "formatted_address": "7050 Melvin Rd, Jacksonville FL 32210"
      }
    },
    {
      "type": "Feature",
      "geometry": {
        "type": "Point",
        "coordinates": [
          -81.82094,
          30.25322
        ]
      },
      "properties": {
        "source": "Florida Department of Education Know Your Schools Mapping",
        "source_url": "https://edudata.fldoe.org/ReportCards/Mapping.html",
        "year": "2526",
        "district_number": "16",
        "district_name": "DUVAL",
        "location_district": "16",
        "school_number": "2741",
        "school_name": "Westview K-8",
        "school_name_short": "Westview K-8",
        "school_type": "Combination School",
        "charter": "NO",
        "public_school_type": "Traditional Public",
        "magnet_status": "Z",
        "magnet_status_label": "Non-Magnet",
        "magnet_specialty": "Z",
        "magnet_specialty_label": "None",
        "physical_address": "5270 Connie Jean Rd",
        "physical_city": "Jacksonville",
        "physical_state": "FL",
        "physical_zip": "32210-8697",
        "phone_number": "(904)573-1082",
        "total_students": 1051,
        "cep_percentage": 84.3,
        "teacher_count": 79,
        "title1": "YES",
        "alt_school": "N",
        "alt_school_label": "No",
        "report_card_url": "https://edudata.fldoe.org/ReportCards/Schools.html?school=2741&district=16",
        "formatted_address": "5270 Connie Jean Rd, Jacksonville FL 32210-8697",
        "school_website": "https://dcps.duvalschools.org/o/wkes"
      }
    },
    {
      "type": "Feature",
      "geometry": {
        "type": "Point",
        "coordinates": [
          -81.65059,
          30.3172
        ]
      },
      "properties": {
        "source": "Florida Department of Education Know Your Schools Mapping",
        "source_url": "https://edudata.fldoe.org/ReportCards/Mapping.html",
        "year": "2526",
        "district_number": "16",
        "district_name": "DUVAL",
        "location_district": "16",
        "school_number": "7023",
        "school_name": "Duval Virtual Instruction Academy",
        "school_name_short": "Duval Virtual Instruction Academy",
        "school_type": "Combination School",
        "charter": "NO",
        "public_school_type": "Traditional Public",
        "magnet_status": "Z",
        "magnet_status_label": "Non-Magnet",
        "magnet_specialty": "Z",
        "magnet_specialty_label": "None",
        "physical_address": "1701 Prudential Dr",
        "physical_city": "Jacksonville",
        "physical_state": "FL",
        "physical_zip": "32217-3398",
        "phone_number": "(904)390-2037",
        "total_students": 659,
        "cep_percentage": 31.3,
        "teacher_count": 25,
        "title1": "NO",
        "alt_school": "N",
        "alt_school_label": "No",
        "report_card_url": "https://edudata.fldoe.org/ReportCards/Schools.html?school=7023&district=16",
        "formatted_address": "1701 Prudential Dr, Jacksonville FL 32217-3398"
      }
    }
  ]
}
