{
  "type": "FeatureCollection",
  "name": "FLDOE Duval charter combination schools",
  "features": [
    {
      "type": "Feature",
      "geometry": {
        "type": "Point",
        "coordinates": [
          -81.58029,
          30.28963
        ]
      },
      "properties": {
        "source": "Florida Department of Education Know Your Schools Mapping",
        "source_url": "https://edudata.fldoe.org/ReportCards/Mapping.html",
        "year": "2526",
        "district_number": "16",
        "district_name": "DUVAL",
        "location_district": "16",
        "school_number": "1201",
        "school_name": "RIVER CITY SCIENCE ACADEMY",
        "school_name_short": "RIVER CITY SCIENCE ACADEMY",
        "school_type": "Combination School",
        "charter": "YES",
        "public_school_type": "Public Charter",
        "magnet_status": "Z",
        "magnet_status_label": "Non-Magnet",
        "magnet_specialty": "Z",
        "magnet_specialty_label": "None",
        "physical_address": "7565 BEACH BLVD",
        "physical_city": "JACKSONVILLE",
        "physical_state": "FL",
        "physical_zip": "32216-3003",
        "phone_number": "(904)855-8010",
        "principal_first": "YAKUP",
        "principal_last": "USTAOMER",
        "total_students": 1027,
        "cep_percentage": 44.1,
        "teacher_count": 71,
        "title1": "YES",
        "alt_school": "N",
        "alt_school_label": "No",
        "report_card_url": "https://edudata.fldoe.org/ReportCards/Schools.html?school=1201&district=16"
      }
    },
    {
      "type": "Feature",
      "geometry": {
        "type": "Point",
        "coordinates": [
          -81.55823,
          30.33934
        ]
      },
      "properties": {
        "source": "Florida Department of Education Know Your Schools Mapping",
        "source_url": "https://edudata.fldoe.org/ReportCards/Mapping.html",
        "year": "2526",
        "district_number": "16",
        "district_name": "DUVAL",
        "location_district": "16",
        "school_number": "1221",
        "school_name": "GLOBAL LEADERSHIP ACADEMY DISCOVERY",
        "school_name_short": "GLOBAL LEADERSHIP ACADEMY DISCOVERY",
        "school_type": "Combination School",
        "charter": "YES",
        "public_school_type": "Public Charter",
        "magnet_status": "Z",
        "magnet_status_label": "Non-Magnet",
        "magnet_specialty": "Z",
        "magnet_specialty_label": "None",
        "physical_address": "8985 LONE STAR RD",
        "physical_city": "JACKSONVILLE",
        "physical_state": "FL",
        "physical_zip": "32211-5195",
        "phone_number": "(904)551-7104",
        "principal_first": "JOHN",
        "principal_last": "GALEANI",
        "total_students": 1082,
        "cep_percentage": 88.8,
        "teacher_count": 70,
        "title1": "YES",
        "alt_school": "N",
        "alt_school_label": "No",
        "report_card_url": "https://edudata.fldoe.org/ReportCards/Schools.html?school=1221&district=16"
      }
    },
    {
      "type": "Feature",
      "geometry": {
        "type": "Point",
        "coordinates": [
          -81.5758,
          30.31222
        ]
      },
      "properties": {
        "source": "Florida Department of Education Know Your Schools Mapping",
        "source_url": "https://edudata.fldoe.org/ReportCards/Mapping.html",
        "year": "2526",
        "district_number": "16",
        "district_name": "DUVAL",
        "location_district": "16",
        "school_number": "1231",
        "school_name": "DUVAL CHARTER SCHOLARS ACADEMY",
        "school_name_short": "DUVAL CHARTER SCHOLARS ACADEMY",
        "school_type": "Combination School",
        "charter": "YES",
        "public_school_type": "Public Charter",
        "magnet_status": "Z",
        "magnet_status_label": "Non-Magnet",
        "magnet_specialty": "Z",
        "magnet_specialty_label": "None",
        "physical_address": "100 SCHOLARS WAY",
        "physical_city": "JACKSONVILLE",
        "physical_state": "FL",
        "physical_zip": "32216-7201",
        "phone_number": "(904)724-1536",
        "principal_first": "KELLY",
        "principal_last": "LEWIS",
        "total_students": 538,
        "cep_percentage": 100.0,
        "teacher_count": 32,
        "title1": "YES",
        "alt_school": "N",
        "alt_school_label": "No",
        "report_card_url": "https://edudata.fldoe.org/ReportCards/Schools.html?school=1231&district=16"
      }
    },
    {
      "type": "Feature",
      "geometry": {
        "type": "Point",
        "coordinates": [
          -81.66583,
          30.36512
        ]
      },
      "properties": {
        "source": "Florida Department of Education Know Your Schools Mapping",
        "source_url": "https://edudata.fldoe.org/ReportCards/Mapping.html",
        "year": "2526",
        "district_number": "16",
        "district_name": "DUVAL",
        "location_district": "16",
        "school_number": "1271",
        "school_name": "KIPP V.O.I.C.E ACADEMY",
        "school_name_short": "KIPP V.O.I.C.E ACADEMY",
        "school_type": "Combination School",
        "charter": "YES",
        "public_school_type": "Public Charter",
        "magnet_status": "Z",
        "magnet_status_label": "Non-Magnet",
        "magnet_specialty": "Z",
        "magnet_specialty_label": "None",
        "physical_address": "813 GOLFAR BLVD",
        "physical_city": "JACKSONVILLE",
        "physical_state": "FL",
        "physical_zip": "32209",
        "phone_number": "(904)895-7878",
        "principal_first": "MELISSA",
        "principal_last": "MARSHALL",
        "total_students": 869,
        "cep_percentage": 100.0,
        "teacher_count": 63,
        "title1": "YES",
        "alt_school": "N",
        "alt_school_label": "No",
        "report_card_url": "https://edudata.fldoe.org/ReportCards/Schools.html?school=1271&district=16"
      }
    },
    {
      "type": "Feature",
      "geometry": {
        "type": "Point",
        "coordinates": [
          -81.58521,
          30.23017
        ]
      },
      "properties": {
        "source": "Florida Department of Education Know Your Schools Mapping",
        "source_url": "https://edudata.fldoe.org/ReportCards/Mapping.html",
        "year": "2526",
        "district_number": "16",
        "district_name": "DUVAL",
        "location_district": "16",
        "school_number": "1321",
        "school_name": "DUVAL CHARTER AT BAYMEADOWS",
        "school_name_short": "DUVAL CHARTER AT BAYMEADOWS",
        "school_type": "Combination School",
        "charter": "YES",
        "public_school_type": "Public Charter",
        "magnet_status": "Z",
        "magnet_status_label": "Non-Magnet",
        "magnet_specialty": "Z",
        "magnet_specialty_label": "None",
        "physical_address": "7510 BAYMEADOWS WAY",
        "physical_city": "JACKSONVILLE",
        "physical_state": "FL",
        "physical_zip": "32256-6818",
        "phone_number": "(904)638-7947",
        "principal_first": "MARY",
        "principal_last": "HICKS",
        "total_students": 1404,
        "cep_percentage": 49.1,
        "teacher_count": 87,
        "title1": "NO",
        "alt_school": "N",
        "alt_school_label": "No",
        "report_card_url": "https://edudata.fldoe.org/ReportCards/Schools.html?school=1321&district=16"
      }
    },
    {
      "type": "Feature",
      "geometry": {
        "type": "Point",
        "coordinates": [
          -81.55055,
          30.18587
        ]
      },
      "properties": {
        "source": "Florida Department of Education Know Your Schools Mapping",
        "source_url": "https://edudata.fldoe.org/ReportCards/Mapping.html",
        "year": "2526",
        "district_number": "16",
        "district_name": "DUVAL",
        "location_district": "16",
        "school_number": "5371",
        "school_name": "FLORIDA CYBER CHARTER ACADEMY",
        "school_name_short": "FLORIDA CYBER CHARTER ACADEMY",
        "school_type": "Combination School",
        "charter": "YES",
        "public_school_type": "Public Charter",
        "magnet_status": "Z",
        "magnet_status_label": "Non-Magnet",
        "magnet_specialty": "Z",
        "magnet_specialty_label": "None",
        "physical_address": "10199 SOUTHSIDE BLVD",
        "physical_city": "JACKSONVILLE",
        "physical_state": "FL",
        "physical_zip": "32256",
        "phone_number": "(904)247-3268",
        "principal_first": "RITA",
        "principal_last": "WHITTEN",
        "total_students": 1565,
        "cep_percentage": 56.8,
        "teacher_count": 109,
        "title1": "NO",
        "alt_school": "N",
        "alt_school_label": "No",
        "report_card_url": "https://edudata.fldoe.org/ReportCards/Schools.html?school=5371&district=16"
      }
    },
    {
      "type": "Feature",
      "geometry": {
        "type": "Point",
        "coordinates": [
          -81.61034,
          30.20477
        ]
      },
      "properties": {
        "source": "Florida Department of Education Know Your Schools Mapping",
        "source_url": "https://edudata.fldoe.org/ReportCards/Mapping.html",
        "year": "2526",
        "district_number": "16",
        "district_name": "DUVAL",
        "location_district": "16",
        "school_number": "5381",
        "school_name": "SAN JOSE PREP",
        "school_name_short": "SAN JOSE PREP",
        "school_type": "Combination School",
        "charter": "YES",
        "public_school_type": "Public Charter",
        "magnet_status": "Z",
        "magnet_status_label": "Non-Magnet",
        "magnet_specialty": "Z",
        "magnet_specialty_label": "None",
        "physical_address": "4072 SUNBEAM RD",
        "physical_city": "JACKSONVILLE",
        "physical_state": "FL",
        "physical_zip": "32257-8813",
        "phone_number": "(904)425-1725",
        "principal_first": "SARAH",
        "principal_last": "THURLOW",
        "total_students": 438,
        "cep_percentage": 75.3,
        "teacher_count": 27,
        "title1": "YES",
        "alt_school": "N",
        "alt_school_label": "No",
        "report_card_url": "https://edudata.fldoe.org/ReportCards/Schools.html?school=5381&district=16"
      }
    },
    {
      "type": "Feature",
      "geometry": {
        "type": "Point",
        "coordinates": [
          -81.60558,
          30.17763
        ]
      },
      "properties": {
        "source": "Florida Department of Education Know Your Schools Mapping",
        "source_url": "https://edudata.fldoe.org/ReportCards/Mapping.html",
        "year": "2526",
        "district_number": "16",
        "district_name": "DUVAL",
        "location_district": "16",
        "school_number": "5401",
        "school_name": "SEASIDE CHARTER MANDARIN",
        "school_name_short": "SEASIDE CHARTER MANDARIN",
        "school_type": "Combination School",
        "charter": "YES",
        "public_school_type": "Public Charter",
        "magnet_status": "Z",
        "magnet_status_label": "Non-Magnet",
        "magnet_specialty": "Z",
        "magnet_specialty_label": "None",
        "physical_address": "10850 OLD ST AUGUSTINE RD",
        "physical_city": "JACKSONVILLE",
        "physical_state": "FL",
        "physical_zip": "32257-1154",
        "phone_number": "(904)619-3933",
        "principal_first": "LISA",
        "principal_last": "HOLLINGSWORTH",
        "total_students": 471,
        "cep_percentage": 7.0,
        "teacher_count": 43,
        "title1": "NO",
        "alt_school": "N",
        "alt_school_label": "No",
        "report_card_url": "https://edudata.fldoe.org/ReportCards/Schools.html?school=5401&district=16"
      }
    },
    {
      "type": "Feature",
      "geometry": {
        "type": "Point",
        "coordinates": [
          -81.8075,
          30.24661
        ]
      },
      "properties": {
        "source": "Florida Department of Education Know Your Schools Mapping",
        "source_url": "https://edudata.fldoe.org/ReportCards/Mapping.html",
        "year": "2526",
        "district_number": "16",
        "district_name": "DUVAL",
        "location_district": "16",
        "school_number": "5411",
        "school_name": "DUVAL CHARTER SCHOOL AT WESTSIDE",
        "school_name_short": "DUVAL CHARTER SCHOOL AT WESTSIDE",
        "school_type": "Combination School",
        "charter": "YES",
        "public_school_type": "Public Charter",
        "magnet_status": "Z",
        "magnet_status_label": "Non-Magnet",
        "magnet_specialty": "Z",
        "magnet_specialty_label": "None",
        "physical_address": "9238 103RD ST",
        "physical_city": "JACKSONVILLE",
        "physical_state": "FL",
        "physical_zip": "32210-8610",
        "phone_number": "(904)421-0250",
        "principal_first": "PAUL",
        "principal_last": "LOVELY",
        "total_students": 963,
        "cep_percentage": 70.1,
        "teacher_count": 55,
        "title1": "YES",
        "alt_school": "N",
        "alt_school_label": "No",
        "report_card_url": "https://edudata.fldoe.org/ReportCards/Schools.html?school=5411&district=16"
      }
    },
    {
      "type": "Feature",
      "geometry": {
        "type": "Point",
        "coordinates": [
          -81.58999,
          30.23124
        ]
      },
      "properties": {
        "source": "Florida Department of Education Know Your Schools Mapping",
        "source_url": "https://edudata.fldoe.org/ReportCards/Mapping.html",
        "year": "2526",
        "district_number": "16",
        "district_name": "DUVAL",
        "location_district": "16",
        "school_number": "5441",
        "school_name": "RIVER CITY SCIENCE ACADEMY INNOVATION SCHOOL",
        "school_name_short": "RIVER CITY SCIENCE ACADEMY INNOVATION SCHOOL",
        "school_type": "Combination School",
        "charter": "YES",
        "public_school_type": "Public Charter",
        "magnet_status": "Z",
        "magnet_status_label": "Non-Magnet",
        "magnet_specialty": "Z",
        "magnet_specialty_label": "None",
        "physical_address": "8160 BAYMEADOWS WAY W",
        "physical_city": "JACKSONVILLE",
        "physical_state": "FL",
        "physical_zip": "32256-4445",
        "phone_number": "(904)855-8010",
        "principal_first": "MESUT",
        "principal_last": "ERDOGAN",
        "total_students": 844,
        "cep_percentage": 47.9,
        "teacher_count": 59,
        "title1": "NO",
        "alt_school": "N",
        "alt_school_label": "No",
        "report_card_url": "https://edudata.fldoe.org/ReportCards/Schools.html?school=5441&district=16"
      }
    },
    {
      "type": "Feature",
      "geometry": {
        "type": "Point",
        "coordinates": [
          -81.58008,
          30.19393
        ]
      },
      "properties": {
        "source": "Florida Department of Education Know Your Schools Mapping",
        "source_url": "https://edudata.fldoe.org/ReportCards/Mapping.html",
        "year": "2526",
        "district_number": "16",
        "district_name": "DUVAL",
        "location_district": "16",
        "school_number": "5511",
        "school_name": "DUVAL CHARTER SCHOOL AT MANDARIN",
        "school_name_short": "DUVAL CHARTER SCHOOL AT MANDARIN",
        "school_type": "Combination School",
        "charter": "YES",
        "public_school_type": "Public Charter",
        "magnet_status": "Z",
        "magnet_status_label": "Non-Magnet",
        "magnet_specialty": "Z",
        "magnet_specialty_label": "None",
        "physical_address": "5209 SHAD RD",
        "physical_city": "JACKSONVILLE",
        "physical_state": "FL",
        "physical_zip": "32257-2005",
        "phone_number": "(904)440-2901",
        "principal_first": "KACY",
        "principal_last": "HARVEY",
        "total_students": 806,
        "cep_percentage": 33.9,
        "teacher_count": 54,
        "title1": "NO",
        "alt_school": "N",
        "alt_school_label": "No",
        "report_card_url": "https://edudata.fldoe.org/ReportCards/Schools.html?school=5511&district=16"
      }
    },
    {
      "type": "Feature",
      "geometry": {
        "type": "Point",
        "coordinates": [
          -81.55455,
          30.24644
        ]
      },
      "properties": {
        "source": "Florida Department of Education Know Your Schools Mapping",
        "source_url": "https://edudata.fldoe.org/ReportCards/Mapping.html",
        "year": "2526",
        "district_number": "16",
        "district_name": "DUVAL",
        "location_district": "16",
        "school_number": "5551",
        "school_name": "DUVAL CHARTER SCHOOL AT SOUTHSIDE",
        "school_name_short": "DUVAL CHARTER SCHOOL AT SOUTHSIDE",
        "school_type": "Combination School",
        "charter": "YES",
        "public_school_type": "Public Charter",
        "magnet_status": "Z",
        "magnet_status_label": "Non-Magnet",
        "magnet_specialty": "Z",
        "magnet_specialty_label": "None",
        "physical_address": "8680 AC SKINNER PKWY",
        "physical_city": "JACKSONVILLE",
        "physical_state": "FL",
        "physical_zip": "32256-6985",
        "phone_number": "(904)423-5348",
        "principal_first": "AMANDA",
        "principal_last": "SAUER",
        "total_students": 953,
        "cep_percentage": 52.7,
        "teacher_count": 65,
        "title1": "NO",
        "alt_school": "N",
        "alt_school_label": "No",
        "report_card_url": "https://edudata.fldoe.org/ReportCards/Schools.html?school=5551&district=16"
      }
    },
    {
      "type": "Feature",
      "geometry": {
        "type": "Point",
        "coordinates": [
          -81.51687,
          30.13855
        ]
      },
      "properties": {
        "source": "Florida Department of Education Know Your Schools Mapping",
        "source_url": "https://edudata.fldoe.org/ReportCards/Mapping.html",
        "year": "2526",
        "district_number": "16",
        "district_name": "DUVAL",
        "location_district": "16",
        "school_number": "5591",
        "school_name": "DUVAL CHARTER SCHOOL AT FLAGLER CENTER",
        "school_name_short": "DUVAL CHARTER SCHOOL AT FLAGLER CENTER",
        "school_type": "Combination School",
        "charter": "YES",
        "public_school_type": "Public Charter",
        "magnet_status": "Z",
        "magnet_status_label": "Non-Magnet",
        "magnet_specialty": "Z",
        "magnet_specialty_label": "None",
        "physical_address": "12755 FLAGLER CENTER BLVD",
        "physical_city": "JACKSONVILLE",
        "physical_state": "FL",
        "physical_zip": "32258-2610",
        "phone_number": "(904)899-1010",
        "principal_first": "CHARLENE",
        "principal_last": "COOK",
        "total_students": 786,
        "cep_percentage": 28.1,
        "teacher_count": 52,
        "title1": "NO",
        "alt_school": "N",
        "alt_school_label": "No",
        "report_card_url": "https://edudata.fldoe.org/ReportCards/Schools.html?school=5591&district=16"
      }
    },
    {
      "type": "Feature",
      "geometry": {
        "type": "Point",
        "coordinates": [
          -81.60413,
          30.1767
        ]
      },
      "properties": {
        "source": "Florida Department of Education Know Your Schools Mapping",
        "source_url": "https://edudata.fldoe.org/ReportCards/Mapping.html",
        "year": "2526",
        "district_number": "16",
        "district_name": "DUVAL",
        "location_district": "16",
        "school_number": "5601",
        "school_name": "RIVER CITY SCIENCE ACADEMY AT MANDARIN",
        "school_name_short": "RIVER CITY SCIENCE ACADEMY AT MANDARIN",
        "school_type": "Combination School",
        "charter": "YES",
        "public_school_type": "Public Charter",
        "magnet_status": "Z",
        "magnet_status_label": "Non-Magnet",
        "magnet_specialty": "Z",
        "magnet_specialty_label": "None",
        "physical_address": "10911 OLD ST AUGUSTINE RD",
        "physical_city": "JACKSONVILLE",
        "physical_state": "FL",
        "physical_zip": "32257-1155",
        "phone_number": "(904)855-8010",
        "principal_first": "BEKIR",
        "principal_last": "DURMUS",
        "total_students": 887,
        "cep_percentage": 23.4,
        "teacher_count": 61,
        "title1": "NO",
        "alt_school": "N",
        "alt_school_label": "No",
        "report_card_url": "https://edudata.fldoe.org/ReportCards/Schools.html?school=5601&district=16"
      }
    },
    {
      "type": "Feature",
      "geometry": {
        "type": "Point",
        "coordinates": [
          -81.59406,
          30.3119
        ]
      },
      "properties": {
        "source": "Florida Department of Education Know Your Schools Mapping",
        "source_url": "https://edudata.fldoe.org/ReportCards/Mapping.html",
        "year": "2526",
        "district_number": "16",
        "district_name": "DUVAL",
        "location_district": "16",
        "school_number": "5611",
        "school_name": "BRIDGEPREP ACADEMY",
        "school_name_short": "BRIDGEPREP ACADEMY",
        "school_type": "Combination School",
        "charter": "YES",
        "public_school_type": "Public Charter",
        "magnet_status": "Z",
        "magnet_status_label": "Non-Magnet",
        "magnet_specialty": "Z",
        "magnet_specialty_label": "None",
        "physical_address": "6400 ATLANTIC BLVD",
        "physical_city": "JACKSONVILLE",
        "physical_state": "FL",
        "physical_zip": "32211-8768",
        "phone_number": "(904)694-2660",
        "principal_first": "EVA",
        "principal_last": "CERDA",
        "total_students": 395,
        "cep_percentage": 85.8,
        "teacher_count": 25,
        "title1": "YES",
        "alt_school": "N",
        "alt_school_label": "No",
        "report_card_url": "https://edudata.fldoe.org/ReportCards/Schools.html?school=5611&district=16"
      }
    },
    {
      "type": "Feature",
      "geometry": {
        "type": "Point",
        "coordinates": [
          -81.4802,
          30.28478
        ]
      },
      "properties": {
        "source": "Florida Department of Education Know Your Schools Mapping",
        "source_url": "https://edudata.fldoe.org/ReportCards/Mapping.html",
        "year": "2526",
        "district_number": "16",
        "district_name": "DUVAL",
        "location_district": "16",
        "school_number": "5621",
        "school_name": "DUVAL CHARTER SCHOOL AT COASTAL",
        "school_name_short": "DUVAL CHARTER SCHOOL AT COASTAL",
        "school_type": "Combination School",
        "charter": "YES",
        "public_school_type": "Public Charter",
        "magnet_status": "Z",
        "magnet_status_label": "Non-Magnet",
        "magnet_specialty": "Z",
        "magnet_specialty_label": "None",
        "physical_address": "12800 BEACH BLVD",
        "physical_city": "JACKSONVILLE",
        "physical_state": "FL",
        "physical_zip": "32226-4152",
        "phone_number": "(904)512-6757",
        "principal_first": "MICHAEL",
        "principal_last": "HILLIKER",
        "total_students": 991,
        "cep_percentage": 56.5,
        "teacher_count": 57,
        "title1": "NO",
        "alt_school": "N",
        "alt_school_label": "No",
        "report_card_url": "https://edudata.fldoe.org/ReportCards/Schools.html?school=5621&district=16"
      }
    },
    {
      "type": "Feature",
      "geometry": {
        "type": "Point",
        "coordinates": [
          -81.40964,
          30.36866
        ]
      },
      "properties": {
        "source": "Florida Department of Education Know Your Schools Mapping",
        "source_url": "https://edudata.fldoe.org/ReportCards/Mapping.html",
        "year": "2526",
        "district_number": "16",
        "district_name": "DUVAL",
        "location_district": "16",
        "school_number": "5631",
        "school_name": "SEASIDE CHARTER BEACHES",
        "school_name_short": "SEASIDE CHARTER BEACHES",
        "school_type": "Combination School",
        "charter": "YES",
        "public_school_type": "Public Charter",
        "magnet_status": "Z",
        "magnet_status_label": "Non-Magnet",
        "magnet_specialty": "Z",
        "magnet_specialty_label": "None",
        "physical_address": "2865 MAYPORT RD",
        "physical_city": "ATLANTIC BEACH",
        "physical_state": "FL",
        "physical_zip": "32233-6630",
        "phone_number": "(904)853-6287",
        "principal_first": "MELISSA",
        "principal_last": "OMEECHEVARRIA",
        "total_students": 484,
        "cep_percentage": 4.3,
        "teacher_count": 39,
        "title1": "NO",
        "alt_school": "N",
        "alt_school_label": "No",
        "report_card_url": "https://edudata.fldoe.org/ReportCards/Schools.html?school=5631&district=16"
      }
    },
    {
      "type": "Feature",
      "geometry": {
        "type": "Point",
        "coordinates": [
          -81.52121,
          30.14815
        ]
      },
      "properties": {
        "source": "Florida Department of Education Know Your Schools Mapping",
        "source_url": "https://edudata.fldoe.org/ReportCards/Mapping.html",
        "year": "2526",
        "district_number": "16",
        "district_name": "DUVAL",
        "location_district": "16",
        "school_number": "5641",
        "school_name": "RIVER CITY SCIENCE ACADEMY SOUTHEAST",
        "school_name_short": "RIVER CITY SCIENCE ACADEMY SE",
        "school_type": "Combination School",
        "charter": "YES",
        "public_school_type": "Public Charter",
        "magnet_status": "Z",
        "magnet_status_label": "Non-Magnet",
        "magnet_specialty": "Z",
        "magnet_specialty_label": "None",
        "physical_address": "12397 PHILIPS HWY",
        "physical_city": "JACKSONVILLE",
        "physical_state": "FL",
        "physical_zip": "32256-1792",
        "phone_number": "(904)855-8010",
        "principal_first": "ALAADDIN",
        "principal_last": "AKGUL",
        "total_students": 841,
        "cep_percentage": 22.7,
        "teacher_count": 56,
        "title1": "NO",
        "alt_school": "N",
        "alt_school_label": "No",
        "report_card_url": "https://edudata.fldoe.org/ReportCards/Schools.html?school=5641&district=16"
      }
    },
    {
      "type": "Feature",
      "geometry": {
        "type": "Point",
        "coordinates": [
          -81.66441,
          30.41787
        ]
      },
      "properties": {
        "source": "Florida Department of Education Know Your Schools Mapping",
        "source_url": "https://edudata.fldoe.org/ReportCards/Mapping.html",
        "year": "2526",
        "district_number": "16",
        "district_name": "DUVAL",
        "location_district": "16",
        "school_number": "5711",
        "school_name": "SEASIDE CHARTER NORTH CAMPUS",
        "school_name_short": "SEASIDE CHARTER NORTH CAMPUS",
        "school_type": "Combination School",
        "charter": "YES",
        "public_school_type": "Public Charter",
        "magnet_status": "Z",
        "magnet_status_label": "Non-Magnet",
        "magnet_specialty": "Z",
        "magnet_specialty_label": "None",
        "physical_address": "1429 BROWARD RD",
        "physical_city": "JACKSONVILLE",
        "physical_state": "FL",
        "physical_zip": "32218-5315",
        "phone_number": "(904)973-2743",
        "principal_first": "DELANA",
        "principal_last": "HILL",
        "total_students": 537,
        "cep_percentage": 58.8,
        "teacher_count": 40,
        "title1": "NO",
        "alt_school": "N",
        "alt_school_label": "No",
        "report_card_url": "https://edudata.fldoe.org/ReportCards/Schools.html?school=5711&district=16"
      }
    },
    {
      "type": "Feature",
      "geometry": {
        "type": "Point",
        "coordinates": [
          -81.52789,
          30.30711
        ]
      },
      "properties": {
        "source": "Florida Department of Education Know Your Schools Mapping",
        "source_url": "https://edudata.fldoe.org/ReportCards/Mapping.html",
        "year": "2526",
        "district_number": "16",
        "district_name": "DUVAL",
        "location_district": "16",
        "school_number": "5801",
        "school_name": "CORNERSTONE CLASSICAL ACADEMY",
        "school_name_short": "CORNERSTONE CLASSICAL ACADEMY",
        "school_type": "Combination School",
        "charter": "YES",
        "public_school_type": "Public Charter",
        "magnet_status": "Z",
        "magnet_status_label": "Non-Magnet",
        "magnet_specialty": "Z",
        "magnet_specialty_label": "None",
        "physical_address": "2360 ST JOHNS BLUFF RD S",
        "physical_city": "JACKSONVILLE",
        "physical_state": "FL",
        "physical_zip": "32246-2310",
        "phone_number": "(904)481-8163",
        "principal_first": "DAWN",
        "principal_last": "OEHMANN",
        "total_students": 1042,
        "cep_percentage": 3.0,
        "teacher_count": 80,
        "title1": "NO",
        "alt_school": "N",
        "alt_school_label": "No",
        "report_card_url": "https://edudata.fldoe.org/ReportCards/Schools.html?school=5801&district=16"
      }
    },
    {
      "type": "Feature",
      "geometry": {
        "type": "Point",
        "coordinates": [
          -81.68356,
          30.32532
        ]
      },
      "properties": {
        "source": "Florida Department of Education Know Your Schools Mapping",
        "source_url": "https://edudata.fldoe.org/ReportCards/Mapping.html",
        "year": "2526",
        "district_number": "16",
        "district_name": "DUVAL",
        "location_district": "16",
        "school_number": "5831",
        "school_name": "JACKSONVILLE CLASSICAL ACADEMY",
        "school_name_short": "JACKSONVILLE CLASSICAL ACADEMY",
        "school_type": "Combination School",
        "charter": "YES",
        "public_school_type": "Public Charter",
        "magnet_status": "Z",
        "magnet_status_label": "Non-Magnet",
        "magnet_specialty": "Z",
        "magnet_specialty_label": "None",
        "physical_address": "2043 FOREST ST",
        "physical_city": "JACKSONVILLE",
        "physical_state": "FL",
        "physical_zip": "32204-2723",
        "phone_number": "(904)288-7732",
        "principal_first": "NICHOLAS",
        "principal_last": "BARKER",
        "total_students": 774,
        "cep_percentage": 46.6,
        "teacher_count": 64,
        "title1": "NO",
        "alt_school": "N",
        "alt_school_label": "No",
        "report_card_url": "https://edudata.fldoe.org/ReportCards/Schools.html?school=5831&district=16"
      }
    },
    {
      "type": "Feature",
      "geometry": {
        "type": "Point",
        "coordinates": [
          -81.44919,
          30.3143
        ]
      },
      "properties": {
        "source": "Florida Department of Education Know Your Schools Mapping",
        "source_url": "https://edudata.fldoe.org/ReportCards/Mapping.html",
        "year": "2526",
        "district_number": "16",
        "district_name": "DUVAL",
        "location_district": "16",
        "school_number": "5841",
        "school_name": "RIVER CITY SCIENCE ACADEMY INTRACOASTAL",
        "school_name_short": "RIVER CITY SCIENCE ACADEMY INTRACOASTAL",
        "school_type": "Combination School",
        "charter": "YES",
        "public_school_type": "Public Charter",
        "magnet_status": "Z",
        "magnet_status_label": "Non-Magnet",
        "magnet_specialty": "Z",
        "magnet_specialty_label": "None",
        "physical_address": "2002 SAN PABLO RD S",
        "physical_city": "JACKSONVILLE",
        "physical_state": "FL",
        "physical_zip": "32224-1032",
        "phone_number": "(904)855-8010",
        "principal_first": "MEGAN",
        "principal_last": "JACKSON",
        "total_students": 830,
        "cep_percentage": 50.8,
        "teacher_count": 64,
        "title1": "NO",
        "alt_school": "N",
        "alt_school_label": "No",
        "report_card_url": "https://edudata.fldoe.org/ReportCards/Schools.html?school=5841&district=16"
      }
    },
    {
      "type": "Feature",
      "geometry": {
        "type": "Point",
        "coordinates": [
          -81.88789,
          30.24987
        ]
      },
      "properties": {
        "source": "Florida Department of Education Know Your Schools Mapping",
        "source_url": "https://edudata.fldoe.org/ReportCards/Mapping.html",
        "year": "2526",
        "district_number": "16",
        "district_name": "DUVAL",
        "location_district": "16",
        "school_number": "5861",
        "school_name": "SAN JOSE EARLY COLLEGE AT CECIL",
        "school_name_short": "SAN JOSE EARLY COLLEGE",
        "school_type": "Combination School",
        "charter": "YES",
        "public_school_type": "Public Charter",
        "magnet_status": "Z",
        "magnet_status_label": "Non-Magnet",
        "magnet_specialty": "Z",
        "magnet_specialty_label": "None",
        "physical_address": "13520 FSCJ CECIL DR",
        "physical_city": "JACKSONVILLE",
        "physical_state": "FL",
        "physical_zip": "32221-8202",
        "phone_number": "(904)337-4090",
        "principal_first": "MARTIN",
        "principal_last": "CARTER",
        "total_students": 167,
        "cep_percentage": 47.3,
        "teacher_count": 13,
        "title1": "YES",
        "alt_school": "N",
        "alt_school_label": "No",
        "report_card_url": "https://edudata.fldoe.org/ReportCards/Schools.html?school=5861&district=16"
      }
    },
    {
      "type": "Feature",
      "geometry": {
        "type": "Point",
        "coordinates": [
          -81.70714,
          30.34252
        ]
      },
      "properties": {
        "source": "Florida Department of Education Know Your Schools Mapping",
        "source_url": "https://edudata.fldoe.org/ReportCards/Mapping.html",
        "year": "2526",
        "district_number": "16",
        "district_name": "DUVAL",
        "location_district": "16",
        "school_number": "5901",
        "school_name": "KIPP JACKSONVILLE K-12",
        "school_name_short": "KIPP JACKSONVILLE K-12",
        "school_type": "Combination School",
        "charter": "YES",
        "public_school_type": "Public Charter",
        "magnet_status": "Z",
        "magnet_status_label": "Non-Magnet",
        "magnet_specialty": "Z",
        "magnet_specialty_label": "None",
        "physical_address": "1440 MCDUFF AVE N",
        "physical_city": "JACKSONVILLE",
        "physical_state": "FL",
        "physical_zip": "32254-2035",
        "phone_number": "(904)683-6643",
        "principal_first": "DE-SHAZO",
        "principal_last": "WILKINSON",
        "total_students": 1435,
        "cep_percentage": 100.0,
        "teacher_count": 112,
        "title1": "YES",
        "alt_school": "N",
        "alt_school_label": "No",
        "report_card_url": "https://edudata.fldoe.org/ReportCards/Schools.html?school=5901&district=16"
      }
    },
    {
      "type": "Feature",
      "geometry": {
        "type": "Point",
        "coordinates": [
          -81.48681,
          30.35785
        ]
      },
      "properties": {
        "source": "Florida Department of Education Know Your Schools Mapping",
        "source_url": "https://edudata.fldoe.org/ReportCards/Mapping.html",
        "year": "2526",
        "district_number": "16",
        "district_name": "DUVAL",
        "location_district": "16",
        "school_number": "5971",
        "school_name": "GLOBAL LEADERSHIP ACADEMY INTERCOASTAL",
        "school_name_short": "GLOBAL LEADERSHIP ACADEMY INTERCOASTAL",
        "school_type": "Combination School",
        "charter": "YES",
        "public_school_type": "Public Charter",
        "magnet_status": "Z",
        "magnet_status_label": "Non-Magnet",
        "magnet_specialty": "Z",
        "magnet_specialty_label": "None",
        "physical_address": "13710 MCCORMICK RD",
        "physical_city": "JACKSONVILLE",
        "physical_state": "FL",
        "physical_zip": "32225",
        "phone_number": "(904)551-7104",
        "principal_first": "GREGORY",
        "principal_last": "STICKEL",
        "total_students": 617,
        "cep_percentage": 66.1,
        "teacher_count": 47,
        "title1": "YES",
        "alt_school": "N",
        "alt_school_label": "No",
        "report_card_url": "https://edudata.fldoe.org/ReportCards/Schools.html?school=5971&district=16"
      }
    },
    {
      "type": "Feature",
      "geometry": {
        "type": "Point",
        "coordinates": [
          -81.54073,
          30.26088
        ]
      },
      "properties": {
        "source": "Florida Department of Education Know Your Schools Mapping",
        "source_url": "https://edudata.fldoe.org/ReportCards/Mapping.html",
        "year": "2526",
        "district_number": "16",
        "district_name": "DUVAL",
        "location_district": "16",
        "school_number": "5991",
        "school_name": "GLOBAL LEADERSHIP ACADEMY ARTS",
        "school_name_short": "GLOBAL LEADERSHIP ACADEMY ARTS",
        "school_type": "Combination School",
        "charter": "YES",
        "public_school_type": "Public Charter",
        "magnet_status": "Z",
        "magnet_status_label": "Non-Magnet",
        "magnet_specialty": "Z",
        "magnet_specialty_label": "None",
        "physical_address": "4660 LUSSO LANE",
        "physical_city": "JACKSONVILLE",
        "physical_state": "FL",
        "physical_zip": "32246",
        "phone_number": "(904)551-7104",
        "principal_first": "LIANNA",
        "principal_last": "KNIGHT",
        "total_students": 605,
        "cep_percentage": 45.5,
        "teacher_count": 46,
        "title1": "NO",
        "alt_school": "N",
        "alt_school_label": "No",
        "report_card_url": "https://edudata.fldoe.org/ReportCards/Schools.html?school=5991&district=16"
      }
    }
  ]
}
