{
  "type": "FeatureCollection",
  "name": "FLDOE Duval traditional middle schools",
  "features": [
    {
      "type": "Feature",
      "geometry": {
        "type": "Point",
        "coordinates": [
          -81.65269,
          30.34923
        ]
      },
      "properties": {
        "source": "Florida Department of Education Know Your Schools Mapping",
        "source_url": "https://edudata.fldoe.org/ReportCards/Mapping.html",
        "year": "2526",
        "district_number": "16",
        "district_name": "DUVAL",
        "location_district": "16",
        "school_number": "0251",
        "school_name": "SPRINGFIELD MIDDLE SCHOOL",
        "school_name_short": "SPRINGFIELD MIDDLE SCHOOL",
        "school_type": "Middle School",
        "charter": "NO",
        "public_school_type": "Traditional Public",
        "magnet_status": "S",
        "magnet_status_label": "Magnet School",
        "magnet_specialty": "G",
        "magnet_specialty_label": "Science/Math",
        "physical_address": "2034 HUBBARD ST",
        "physical_city": "JACKSONVILLE",
        "physical_state": "FL",
        "physical_zip": "32206-3728",
        "phone_number": "(904)630-6600",
        "principal_first": "DESHUNE",
        "principal_last": "BUSH",
        "total_students": 1001,
        "cep_percentage": 72.3,
        "teacher_count": 41,
        "title1": "NO",
        "alt_school": "N",
        "alt_school_label": "No",
        "report_card_url": "https://edudata.fldoe.org/ReportCards/Schools.html?school=0251&district=16"
      }
    },
    {
      "type": "Feature",
      "geometry": {
        "type": "Point",
        "coordinates": [
          -81.65183,
          30.30672
        ]
      },
      "properties": {
        "source": "Florida Department of Education Know Your Schools Mapping",
        "source_url": "https://edudata.fldoe.org/ReportCards/Mapping.html",
        "year": "2526",
        "district_number": "16",
        "district_name": "DUVAL",
        "location_district": "16",
        "school_number": "0311",
        "school_name": "JULIA LANDON COLLEGE PREPARATORY & LEADERSHIP DEVELOPMENT SCHOOL",
        "school_name_short": "JULIA LANDON COLLEGE PREPARATORY & LEADERSHIP",
        "school_type": "Middle School",
        "charter": "NO",
        "public_school_type": "Traditional Public",
        "magnet_status": "S",
        "magnet_status_label": "Magnet School",
        "magnet_specialty": "A",
        "magnet_specialty_label": "Academically Talented",
        "physical_address": "1819 THACKER AVE",
        "physical_city": "JACKSONVILLE",
        "physical_state": "FL",
        "physical_zip": "32207-3397",
        "phone_number": "(904)346-5650",
        "principal_first": "RYAN",
        "principal_last": "CASEY",
        "total_students": 891,
        "cep_percentage": 16.2,
        "teacher_count": 37,
        "title1": "NO",
        "alt_school": "N",
        "alt_school_label": "No",
        "report_card_url": "https://edudata.fldoe.org/ReportCards/Schools.html?school=0311&district=16"
      }
    },
    {
      "type": "Feature",
      "geometry": {
        "type": "Point",
        "coordinates": [
          -81.63105,
          30.46747
        ]
      },
      "properties": {
        "source": "Florida Department of Education Know Your Schools Mapping",
        "source_url": "https://edudata.fldoe.org/ReportCards/Mapping.html",
        "year": "2526",
        "district_number": "16",
        "district_name": "DUVAL",
        "location_district": "16",
        "school_number": "0621",
        "school_name": "OCEANWAY SCHOOL",
        "school_name_short": "OCEANWAY SCHOOL",
        "school_type": "Middle School",
        "charter": "NO",
        "public_school_type": "Traditional Public",
        "magnet_status": "Z",
        "magnet_status_label": "Non-Magnet",
        "magnet_specialty": "Z",
        "magnet_specialty_label": "None",
        "physical_address": "143 OCEANWAY AVE",
        "physical_city": "JACKSONVILLE",
        "physical_state": "FL",
        "physical_zip": "32218-2615",
        "phone_number": "(904)714-4680",
        "principal_first": "ELIZABETH",
        "principal_last": "STANSEL",
        "total_students": 840,
        "cep_percentage": 75.6,
        "teacher_count": 42,
        "title1": "YES",
        "alt_school": "N",
        "alt_school_label": "No",
        "report_card_url": "https://edudata.fldoe.org/ReportCards/Schools.html?school=0621&district=16"
      }
    },
    {
      "type": "Feature",
      "geometry": {
        "type": "Point",
        "coordinates": [
          -81.39767,
          30.3066
        ]
      },
      "properties": {
        "source": "Florida Department of Education Know Your Schools Mapping",
        "source_url": "https://edudata.fldoe.org/ReportCards/Mapping.html",
        "year": "2526",
        "district_number": "16",
        "district_name": "DUVAL",
        "location_district": "16",
        "school_number": "0631",
        "school_name": "DUNCAN U. FLETCHER MIDDLE SCHOOL",
        "school_name_short": "DUNCAN U. FLETCHER MIDDLE SCHOOL",
        "school_type": "Middle School",
        "charter": "NO",
        "public_school_type": "Traditional Public",
        "magnet_status": "Z",
        "magnet_status_label": "Non-Magnet",
        "magnet_specialty": "Z",
        "magnet_specialty_label": "None",
        "physical_address": "2000 3RD ST N",
        "physical_city": "JACKSONVILLE BEACH",
        "physical_state": "FL",
        "physical_zip": "32250-7430",
        "phone_number": "(904)247-5929",
        "principal_first": "MERCEDES",
        "principal_last": "GALVEZ",
        "total_students": 1123,
        "cep_percentage": 27.6,
        "teacher_count": 52,
        "title1": "NO",
        "alt_school": "N",
        "alt_school_label": "No",
        "report_card_url": "https://edudata.fldoe.org/ReportCards/Schools.html?school=0631&district=16"
      }
    },
    {
      "type": "Feature",
      "geometry": {
        "type": "Point",
        "coordinates": [
          -81.63194,
          30.25061
        ]
      },
      "properties": {
        "source": "Florida Department of Education Know Your Schools Mapping",
        "source_url": "https://edudata.fldoe.org/ReportCards/Mapping.html",
        "year": "2526",
        "district_number": "16",
        "district_name": "DUVAL",
        "location_district": "16",
        "school_number": "0661",
        "school_name": "ALFRED I. DUPONT MIDDLE SCHOOL",
        "school_name_short": "ALFRED I. DUPONT MIDDLE SCHOOL",
        "school_type": "Middle School",
        "charter": "NO",
        "public_school_type": "Traditional Public",
        "magnet_status": "P",
        "magnet_status_label": "Magnet Program",
        "magnet_specialty": "O",
        "magnet_specialty_label": "Other",
        "physical_address": "2710 DUPONT AVE",
        "physical_city": "JACKSONVILLE",
        "physical_state": "FL",
        "physical_zip": "32217-2635",
        "phone_number": "(904)739-5200",
        "principal_first": "MARILYN",
        "principal_last": "BARNWELL",
        "total_students": 576,
        "cep_percentage": 79.9,
        "teacher_count": 34,
        "title1": "YES",
        "alt_school": "N",
        "alt_school_label": "No",
        "report_card_url": "https://edudata.fldoe.org/ReportCards/Schools.html?school=0661&district=16"
      }
    },
    {
      "type": "Feature",
      "geometry": {
        "type": "Point",
        "coordinates": [
          -81.72394,
          30.2729
        ]
      },
      "properties": {
        "source": "Florida Department of Education Know Your Schools Mapping",
        "source_url": "https://edudata.fldoe.org/ReportCards/Mapping.html",
        "year": "2526",
        "district_number": "16",
        "district_name": "DUVAL",
        "location_district": "16",
        "school_number": "0691",
        "school_name": "LAKE SHORE MIDDLE SCHOOL",
        "school_name_short": "LAKE SHORE MIDDLE SCHOOL",
        "school_type": "Middle School",
        "charter": "NO",
        "public_school_type": "Traditional Public",
        "magnet_status": "Z",
        "magnet_status_label": "Non-Magnet",
        "magnet_specialty": "Z",
        "magnet_specialty_label": "None",
        "physical_address": "2519 BAYVIEW RD",
        "physical_city": "JACKSONVILLE",
        "physical_state": "FL",
        "physical_zip": "32210-5399",
        "phone_number": "(904)381-7440",
        "principal_first": "LATASHA",
        "principal_last": "CLARK",
        "total_students": 817,
        "cep_percentage": 91.4,
        "teacher_count": 42,
        "title1": "YES",
        "alt_school": "N",
        "alt_school_label": "No",
        "report_card_url": "https://edudata.fldoe.org/ReportCards/Schools.html?school=0691&district=16"
      }
    },
    {
      "type": "Feature",
      "geometry": {
        "type": "Point",
        "coordinates": [
          -81.85404,
          30.27949
        ]
      },
      "properties": {
        "source": "Florida Department of Education Know Your Schools Mapping",
        "source_url": "https://edudata.fldoe.org/ReportCards/Mapping.html",
        "year": "2526",
        "district_number": "16",
        "district_name": "DUVAL",
        "location_district": "16",
        "school_number": "1401",
        "school_name": "CHAFFEE TRAIL MIDDLE SCHOOL",
        "school_name_short": "CHAFFEE TRAIL MIDDLE SCHOOL",
        "school_type": "Middle School",
        "charter": "NO",
        "public_school_type": "Traditional Public",
        "magnet_status": "Z",
        "magnet_status_label": "Non-Magnet",
        "magnet_specialty": "Z",
        "magnet_specialty_label": "None",
        "physical_address": "11770 SAM CARUSO WAY",
        "physical_city": "JACKSONVILLE",
        "physical_state": "FL",
        "physical_zip": "32221-1830",
        "phone_number": "()-0",
        "principal_first": "CICELY",
        "principal_last": "TYSON-WHITE",
        "total_students": 1021,
        "cep_percentage": 84.6,
        "teacher_count": 49,
        "title1": "YES",
        "alt_school": "N",
        "alt_school_label": "No",
        "report_card_url": "https://edudata.fldoe.org/ReportCards/Schools.html?school=1401&district=16"
      }
    },
    {
      "type": "Feature",
      "geometry": {
        "type": "Point",
        "coordinates": [
          -81.63985,
          30.34168
        ]
      },
      "properties": {
        "source": "Florida Department of Education Know Your Schools Mapping",
        "source_url": "https://edudata.fldoe.org/ReportCards/Mapping.html",
        "year": "2526",
        "district_number": "16",
        "district_name": "DUVAL",
        "location_district": "16",
        "school_number": "1461",
        "school_name": "MATTHEW W. GILBERT MIDDLE SCHOOL",
        "school_name_short": "MATTHEW W. GILBERT MIDDLE SCHOOL",
        "school_type": "Middle School",
        "charter": "NO",
        "public_school_type": "Traditional Public",
        "magnet_status": "Z",
        "magnet_status_label": "Non-Magnet",
        "magnet_specialty": "O",
        "magnet_specialty_label": "Other",
        "physical_address": "1424 FRANKLIN ST",
        "physical_city": "JACKSONVILLE",
        "physical_state": "FL",
        "physical_zip": "32206-4899",
        "phone_number": "(904)630-6700",
        "principal_first": "LATONYA",
        "principal_last": "PARKER",
        "total_students": 474,
        "cep_percentage": 100.0,
        "teacher_count": 25,
        "title1": "YES",
        "alt_school": "N",
        "alt_school_label": "No",
        "report_card_url": "https://edudata.fldoe.org/ReportCards/Schools.html?school=1461&district=16"
      }
    },
    {
      "type": "Feature",
      "geometry": {
        "type": "Point",
        "coordinates": [
          -81.72468,
          30.34277
        ]
      },
      "properties": {
        "source": "Florida Department of Education Know Your Schools Mapping",
        "source_url": "https://edudata.fldoe.org/ReportCards/Mapping.html",
        "year": "2526",
        "district_number": "16",
        "district_name": "DUVAL",
        "location_district": "16",
        "school_number": "1521",
        "school_name": "JAMES WELDON JOHNSON COLLEGE PREPARATORY MIDDLE SCHOOL",
        "school_name_short": "JAMES W JOHNSON COLLEG PREP MIDDLE SCHOOL",
        "school_type": "Middle School",
        "charter": "NO",
        "public_school_type": "Traditional Public",
        "magnet_status": "S",
        "magnet_status_label": "Magnet School",
        "magnet_specialty": "A",
        "magnet_specialty_label": "Academically Talented",
        "physical_address": "3276 NORMAN E THAGARD BLVD",
        "physical_city": "JACKSONVILLE",
        "physical_state": "FL",
        "physical_zip": "32254-1765",
        "phone_number": "(904)693-7600",
        "principal_first": "JAMES",
        "principal_last": "STUCKEY",
        "total_students": 1006,
        "cep_percentage": 27.9,
        "teacher_count": 40,
        "title1": "NO",
        "alt_school": "N",
        "alt_school_label": "No",
        "report_card_url": "https://edudata.fldoe.org/ReportCards/Schools.html?school=1521&district=16"
      }
    },
    {
      "type": "Feature",
      "geometry": {
        "type": "Point",
        "coordinates": [
          -81.6858,
          30.33761
        ]
      },
      "properties": {
        "source": "Florida Department of Education Know Your Schools Mapping",
        "source_url": "https://edudata.fldoe.org/ReportCards/Mapping.html",
        "year": "2526",
        "district_number": "16",
        "district_name": "DUVAL",
        "location_district": "16",
        "school_number": "1561",
        "school_name": "JACKSONVILLE STEM ACADEMY AT EUGENE BUTLER",
        "school_name_short": "JACKSONVILLE STEM ACADEMY AT EUGENE BUTLER",
        "school_type": "Middle School",
        "charter": "NO",
        "public_school_type": "Traditional Public",
        "magnet_status": "S",
        "magnet_status_label": "Magnet School",
        "magnet_specialty": "O",
        "magnet_specialty_label": "Other",
        "physical_address": "900 ACORN ST",
        "physical_city": "JACKSONVILLE",
        "physical_state": "FL",
        "physical_zip": "32209-7106",
        "phone_number": "(904)630-6900",
        "principal_first": "LEON",
        "principal_last": "MUNGIN",
        "total_students": 241,
        "cep_percentage": 100.0,
        "teacher_count": 15,
        "title1": "YES",
        "alt_school": "N",
        "alt_school_label": "No",
        "report_card_url": "https://edudata.fldoe.org/ReportCards/Schools.html?school=1561&district=16"
      }
    },
    {
      "type": "Feature",
      "geometry": {
        "type": "Point",
        "coordinates": [
          -81.73926,
          30.25553
        ]
      },
      "properties": {
        "source": "Florida Department of Education Know Your Schools Mapping",
        "source_url": "https://edudata.fldoe.org/ReportCards/Mapping.html",
        "year": "2526",
        "district_number": "16",
        "district_name": "DUVAL",
        "location_district": "16",
        "school_number": "2072",
        "school_name": "WESTSIDE MIDDLE SCHOOL",
        "school_name_short": "WESTSIDE MIDDLE SCHOOL",
        "school_type": "Middle School",
        "charter": "NO",
        "public_school_type": "Traditional Public",
        "magnet_status": "Z",
        "magnet_status_label": "Non-Magnet",
        "magnet_specialty": "Z",
        "magnet_specialty_label": "None",
        "physical_address": "4815 WESCONNETT BLVD",
        "physical_city": "JACKSONVILLE",
        "physical_state": "FL",
        "physical_zip": "32210-7398",
        "phone_number": "(904)573-1000",
        "principal_first": "DAVID",
        "principal_last": "ERRICO",
        "total_students": 917,
        "cep_percentage": 83.8,
        "teacher_count": 46,
        "title1": "YES",
        "alt_school": "N",
        "alt_school_label": "No",
        "report_card_url": "https://edudata.fldoe.org/ReportCards/Schools.html?school=2072&district=16"
      }
    },
    {
      "type": "Feature",
      "geometry": {
        "type": "Point",
        "coordinates": [
          -81.59563,
          30.27119
        ]
      },
      "properties": {
        "source": "Florida Department of Education Know Your Schools Mapping",
        "source_url": "https://edudata.fldoe.org/ReportCards/Mapping.html",
        "year": "2526",
        "district_number": "16",
        "district_name": "DUVAL",
        "location_district": "16",
        "school_number": "2111",
        "school_name": "SOUTHSIDE MIDDLE SCHOOL",
        "school_name_short": "SOUTHSIDE MIDDLE SCHOOL",
        "school_type": "Middle School",
        "charter": "NO",
        "public_school_type": "Traditional Public",
        "magnet_status": "S",
        "magnet_status_label": "Magnet School",
        "magnet_specialty": "D",
        "magnet_specialty_label": "International Baccalaureate",
        "physical_address": "2948 KNIGHTS LN E",
        "physical_city": "JACKSONVILLE",
        "physical_state": "FL",
        "physical_zip": "32216-5697",
        "phone_number": "(904)739-5238",
        "principal_first": "JENNIFER",
        "principal_last": "CRADY",
        "total_students": 800,
        "cep_percentage": 74.1,
        "teacher_count": 38,
        "title1": "YES",
        "alt_school": "N",
        "alt_school_label": "No",
        "report_card_url": "https://edudata.fldoe.org/ReportCards/Schools.html?school=2111&district=16"
      }
    },
    {
      "type": "Feature",
      "geometry": {
        "type": "Point",
        "coordinates": [
          -81.71001,
          30.39296
        ]
      },
      "properties": {
        "source": "Florida Department of Education Know Your Schools Mapping",
        "source_url": "https://edudata.fldoe.org/ReportCards/Mapping.html",
        "year": "2526",
        "district_number": "16",
        "district_name": "DUVAL",
        "location_district": "16",
        "school_number": "2121",
        "school_name": "JEAN RIBAULT MIDDLE SCHOOL",
        "school_name_short": "JEAN RIBAULT MIDDLE SCHOOL",
        "school_type": "Middle School",
        "charter": "NO",
        "public_school_type": "Traditional Public",
        "magnet_status": "P",
        "magnet_status_label": "Magnet Program",
        "magnet_specialty": "O",
        "magnet_specialty_label": "Other",
        "physical_address": "3610 RIBAULT SCENIC DR",
        "physical_city": "JACKSONVILLE",
        "physical_state": "FL",
        "physical_zip": "32208-2997",
        "phone_number": "(904)924-3062",
        "principal_first": "LATOYA",
        "principal_last": "BROWN",
        "total_students": 558,
        "cep_percentage": 100.0,
        "teacher_count": 30,
        "title1": "YES",
        "alt_school": "N",
        "alt_school_label": "No",
        "report_card_url": "https://edudata.fldoe.org/ReportCards/Schools.html?school=2121&district=16"
      }
    },
    {
      "type": "Feature",
      "geometry": {
        "type": "Point",
        "coordinates": [
          -81.56947,
          30.33956
        ]
      },
      "properties": {
        "source": "Florida Department of Education Know Your Schools Mapping",
        "source_url": "https://edudata.fldoe.org/ReportCards/Mapping.html",
        "year": "2526",
        "district_number": "16",
        "district_name": "DUVAL",
        "location_district": "16",
        "school_number": "2131",
        "school_name": "ARLINGTON MIDDLE SCHOOL",
        "school_name_short": "ARLINGTON MIDDLE SCHOOL",
        "school_type": "Middle School",
        "charter": "NO",
        "public_school_type": "Traditional Public",
        "magnet_status": "Z",
        "magnet_status_label": "Non-Magnet",
        "magnet_specialty": "Z",
        "magnet_specialty_label": "None",
        "physical_address": "8141 LONE STAR RD",
        "physical_city": "JACKSONVILLE",
        "physical_state": "FL",
        "physical_zip": "32211-5145",
        "phone_number": "(904)720-1680",
        "principal_first": "SCOTT",
        "principal_last": "STUART",
        "total_students": 595,
        "cep_percentage": 98.2,
        "teacher_count": 35,
        "title1": "YES",
        "alt_school": "N",
        "alt_school_label": "No",
        "report_card_url": "https://edudata.fldoe.org/ReportCards/Schools.html?school=2131&district=16"
      }
    },
    {
      "type": "Feature",
      "geometry": {
        "type": "Point",
        "coordinates": [
          -81.77863,
          30.30732
        ]
      },
      "properties": {
        "source": "Florida Department of Education Know Your Schools Mapping",
        "source_url": "https://edudata.fldoe.org/ReportCards/Mapping.html",
        "year": "2526",
        "district_number": "16",
        "district_name": "DUVAL",
        "location_district": "16",
        "school_number": "2191",
        "school_name": "JOSEPH STILWELL MIDDLE SCHOOL",
        "school_name_short": "JOSEPH STILWELL MIDDLE SCHOOL",
        "school_type": "Middle School",
        "charter": "NO",
        "public_school_type": "Traditional Public",
        "magnet_status": "S",
        "magnet_status_label": "Magnet School",
        "magnet_specialty": "O",
        "magnet_specialty_label": "Other",
        "physical_address": "7840 BURMA RD",
        "physical_city": "JACKSONVILLE",
        "physical_state": "FL",
        "physical_zip": "32221-6198",
        "phone_number": "(904)693-7523",
        "principal_first": "TREVOR",
        "principal_last": "CLAYTON",
        "total_students": 495,
        "cep_percentage": 90.1,
        "teacher_count": 32,
        "title1": "YES",
        "alt_school": "N",
        "alt_school_label": "No",
        "report_card_url": "https://edudata.fldoe.org/ReportCards/Schools.html?school=2191&district=16"
      }
    },
    {
      "type": "Feature",
      "geometry": {
        "type": "Point",
        "coordinates": [
          -81.59597,
          30.36888
        ]
      },
      "properties": {
        "source": "Florida Department of Education Know Your Schools Mapping",
        "source_url": "https://edudata.fldoe.org/ReportCards/Mapping.html",
        "year": "2526",
        "district_number": "16",
        "district_name": "DUVAL",
        "location_district": "16",
        "school_number": "2381",
        "school_name": "FORT CAROLINE MIDDLE SCHOOL",
        "school_name_short": "FORT CAROLINE MIDDLE SCHOOL",
        "school_type": "Middle School",
        "charter": "NO",
        "public_school_type": "Traditional Public",
        "magnet_status": "S",
        "magnet_status_label": "Magnet School",
        "magnet_specialty": "F",
        "magnet_specialty_label": "Performing Arts",
        "physical_address": "3787 UNIVERSITY CLUB BLVD",
        "physical_city": "JACKSONVILLE",
        "physical_state": "FL",
        "physical_zip": "32277-1973",
        "phone_number": "(904)745-4927",
        "principal_first": "CHELVERT",
        "principal_last": "WELLINGTON",
        "total_students": 467,
        "cep_percentage": 85.7,
        "teacher_count": 23,
        "title1": "YES",
        "alt_school": "N",
        "alt_school_label": "No",
        "report_card_url": "https://edudata.fldoe.org/ReportCards/Schools.html?school=2381&district=16"
      }
    },
    {
      "type": "Feature",
      "geometry": {
        "type": "Point",
        "coordinates": [
          -81.68244,
          30.43386
        ]
      },
      "properties": {
        "source": "Florida Department of Education Know Your Schools Mapping",
        "source_url": "https://edudata.fldoe.org/ReportCards/Mapping.html",
        "year": "2526",
        "district_number": "16",
        "district_name": "DUVAL",
        "location_district": "16",
        "school_number": "2441",
        "school_name": "HIGHLANDS MIDDLE SCHOOL",
        "school_name_short": "HIGHLANDS MIDDLE SCHOOL",
        "school_type": "Middle School",
        "charter": "NO",
        "public_school_type": "Traditional Public",
        "magnet_status": "P",
        "magnet_status_label": "Magnet Program",
        "magnet_specialty": "O",
        "magnet_specialty_label": "Other",
        "physical_address": "10913 PINE ESTATES RD E",
        "physical_city": "JACKSONVILLE",
        "physical_state": "FL",
        "physical_zip": "32218-4634",
        "phone_number": "(904)696-8771",
        "principal_first": "AMANDA",
        "principal_last": "CARDOZA",
        "total_students": 576,
        "cep_percentage": 87.7,
        "teacher_count": 26,
        "title1": "YES",
        "alt_school": "N",
        "alt_school_label": "No",
        "report_card_url": "https://edudata.fldoe.org/ReportCards/Schools.html?school=2441&district=16"
      }
    },
    {
      "type": "Feature",
      "geometry": {
        "type": "Point",
        "coordinates": [
          -81.51584,
          30.2221
        ]
      },
      "properties": {
        "source": "Florida Department of Education Know Your Schools Mapping",
        "source_url": "https://edudata.fldoe.org/ReportCards/Mapping.html",
        "year": "2526",
        "district_number": "16",
        "district_name": "DUVAL",
        "location_district": "16",
        "school_number": "2531",
        "school_name": "TWIN LAKES ACADEMY MIDDLE SCHOOL",
        "school_name_short": "TWIN LAKES ACADEMY MIDDLE",
        "school_type": "Middle School",
        "charter": "NO",
        "public_school_type": "Traditional Public",
        "magnet_status": "Z",
        "magnet_status_label": "Non-Magnet",
        "magnet_specialty": "Z",
        "magnet_specialty_label": "None",
        "physical_address": "8050 POINT MEADOWS DR",
        "physical_city": "JACKSONVILLE",
        "physical_state": "FL",
        "physical_zip": "32256-7011",
        "phone_number": "(904)538-0825",
        "principal_first": "AURELIA",
        "principal_last": "WILLIAMS",
        "total_students": 817,
        "cep_percentage": 67.1,
        "teacher_count": 36,
        "title1": "NO",
        "alt_school": "N",
        "alt_school_label": "No",
        "report_card_url": "https://edudata.fldoe.org/ReportCards/Schools.html?school=2531&district=16"
      }
    },
    {
      "type": "Feature",
      "geometry": {
        "type": "Point",
        "coordinates": [
          -81.41387,
          30.36263
        ]
      },
      "properties": {
        "source": "Florida Department of Education Know Your Schools Mapping",
        "source_url": "https://edudata.fldoe.org/ReportCards/Mapping.html",
        "year": "2526",
        "district_number": "16",
        "district_name": "DUVAL",
        "location_district": "16",
        "school_number": "2541",
        "school_name": "MAYPORT COASTAL SCIENCE MIDDLE SCHOOL",
        "school_name_short": "MAYPORT COASTAL SCIENCE MIDDLE SCHOOL",
        "school_type": "Middle School",
        "charter": "NO",
        "public_school_type": "Traditional Public",
        "magnet_status": "S",
        "magnet_status_label": "Magnet School",
        "magnet_specialty": "G",
        "magnet_specialty_label": "Science/Math",
        "physical_address": "2600 MAYPORT RD",
        "physical_city": "ATLANTIC BEACH",
        "physical_state": "FL",
        "physical_zip": "32233-2804",
        "phone_number": "(904)247-5977",
        "principal_first": "AARON",
        "principal_last": "LAKATOS",
        "total_students": 815,
        "cep_percentage": 26.9,
        "teacher_count": 38,
        "title1": "NO",
        "alt_school": "N",
        "alt_school_label": "No",
        "report_card_url": "https://edudata.fldoe.org/ReportCards/Schools.html?school=2541&district=16"
      }
    },
    {
      "type": "Feature",
      "geometry": {
        "type": "Point",
        "coordinates": [
          -81.48731,
          30.3233
        ]
      },
      "properties": {
        "source": "Florida Department of Education Know Your Schools Mapping",
        "source_url": "https://edudata.fldoe.org/ReportCards/Mapping.html",
        "year": "2526",
        "district_number": "16",
        "district_name": "DUVAL",
        "location_district": "16",
        "school_number": "2561",
        "school_name": "LANDMARK MIDDLE SCHOOL",
        "school_name_short": "LANDMARK MIDDLE SCHOOL",
        "school_type": "Middle School",
        "charter": "NO",
        "public_school_type": "Traditional Public",
        "magnet_status": "Z",
        "magnet_status_label": "Non-Magnet",
        "magnet_specialty": "Z",
        "magnet_specialty_label": "None",
        "physical_address": "101 KERNAN BLVD N",
        "physical_city": "JACKSONVILLE",
        "physical_state": "FL",
        "physical_zip": "32225-5302",
        "phone_number": "(904)221-7125",
        "principal_first": "VONTRENA",
        "principal_last": "MYERS",
        "total_students": 829,
        "cep_percentage": 65.1,
        "teacher_count": 43,
        "title1": "NO",
        "alt_school": "N",
        "alt_school_label": "No",
        "report_card_url": "https://edudata.fldoe.org/ReportCards/Schools.html?school=2561&district=16"
      }
    },
    {
      "type": "Feature",
      "geometry": {
        "type": "Point",
        "coordinates": [
          -81.58747,
          30.18941
        ]
      },
      "properties": {
        "source": "Florida Department of Education Know Your Schools Mapping",
        "source_url": "https://edudata.fldoe.org/ReportCards/Mapping.html",
        "year": "2526",
        "district_number": "16",
        "district_name": "DUVAL",
        "location_district": "16",
        "school_number": "2591",
        "school_name": "MANDARIN MIDDLE SCHOOL",
        "school_name_short": "MANDARIN MIDDLE SCHOOL",
        "school_type": "Middle School",
        "charter": "NO",
        "public_school_type": "Traditional Public",
        "magnet_status": "Z",
        "magnet_status_label": "Non-Magnet",
        "magnet_specialty": "Z",
        "magnet_specialty_label": "None",
        "physical_address": "5100 HOOD RD",
        "physical_city": "JACKSONVILLE",
        "physical_state": "FL",
        "physical_zip": "32257-1122",
        "phone_number": "(904)292-0555",
        "principal_first": "JULIE",
        "principal_last": "HUMPHREYS",
        "total_students": 1189,
        "cep_percentage": 30.5,
        "teacher_count": 54,
        "title1": "NO",
        "alt_school": "N",
        "alt_school_label": "No",
        "report_card_url": "https://edudata.fldoe.org/ReportCards/Schools.html?school=2591&district=16"
      }
    },
    {
      "type": "Feature",
      "geometry": {
        "type": "Point",
        "coordinates": [
          -81.66762,
          30.33236
        ]
      },
      "properties": {
        "source": "Florida Department of Education Know Your Schools Mapping",
        "source_url": "https://edudata.fldoe.org/ReportCards/Mapping.html",
        "year": "2526",
        "district_number": "16",
        "district_name": "DUVAL",
        "location_district": "16",
        "school_number": "2671",
        "school_name": "LAVILLA SCHOOL OF THE ARTS",
        "school_name_short": "LAVILLA SCHOOL OF THE ARTS",
        "school_type": "Middle School",
        "charter": "NO",
        "public_school_type": "Traditional Public",
        "magnet_status": "S",
        "magnet_status_label": "Magnet School",
        "magnet_specialty": "F",
        "magnet_specialty_label": "Performing Arts",
        "physical_address": "501 N DAVIS ST",
        "physical_city": "JACKSONVILLE",
        "physical_state": "FL",
        "physical_zip": "32202-4728",
        "phone_number": "(904)633-6069",
        "principal_first": "KIMBERLY",
        "principal_last": "HARRISON",
        "total_students": 1005,
        "cep_percentage": 29.1,
        "teacher_count": 51,
        "title1": "NO",
        "alt_school": "N",
        "alt_school_label": "No",
        "report_card_url": "https://edudata.fldoe.org/ReportCards/Schools.html?school=2671&district=16"
      }
    },
    {
      "type": "Feature",
      "geometry": {
        "type": "Point",
        "coordinates": [
          -81.48445,
          30.30472
        ]
      },
      "properties": {
        "source": "Florida Department of Education Know Your Schools Mapping",
        "source_url": "https://edudata.fldoe.org/ReportCards/Mapping.html",
        "year": "2526",
        "district_number": "16",
        "district_name": "DUVAL",
        "location_district": "16",
        "school_number": "2791",
        "school_name": "KERNAN MIDDLE SCHOOL",
        "school_name_short": "KERNAN MIDDLE SCHOOL",
        "school_type": "Middle School",
        "charter": "NO",
        "public_school_type": "Traditional Public",
        "magnet_status": "Z",
        "magnet_status_label": "Non-Magnet",
        "magnet_specialty": "Z",
        "magnet_specialty_label": "None",
        "physical_address": "2271 KERNAN BLVD S",
        "physical_city": "JACKSONVILLE",
        "physical_state": "FL",
        "physical_zip": "32276-4073",
        "phone_number": "(904)220-1350",
        "principal_first": "CHRISTINE",
        "principal_last": "BICKSLER-AKANDE",
        "total_students": 1038,
        "cep_percentage": 58.2,
        "teacher_count": 58,
        "title1": "NO",
        "alt_school": "N",
        "alt_school_label": "No",
        "report_card_url": "https://edudata.fldoe.org/ReportCards/Schools.html?school=2791&district=16"
      }
    }
  ]
}
