{
  "type": "FeatureCollection",
  "name": "FLDOE Duval traditional high schools",
  "features": [
    {
      "type": "Feature",
      "geometry": {
        "type": "Point",
        "coordinates": [
          -81.69602,
          30.33801
        ]
      },
      "properties": {
        "source": "Florida Department of Education Know Your Schools Mapping",
        "source_url": "https://edudata.fldoe.org/ReportCards/Mapping.html",
        "year": "2526",
        "district_number": "16",
        "district_name": "DUVAL",
        "location_district": "16",
        "school_number": "0291",
        "school_name": "THE BRIDGE TO SUCCESS ACADEMY AT W JACKSONVILLE",
        "school_name_short": "THE BRIDGE TO SUCCESS ACAD AT W JACKSONVILLE",
        "school_type": "High School",
        "charter": "NO",
        "public_school_type": "Traditional Public",
        "magnet_status": "Z",
        "magnet_status_label": "Non-Magnet",
        "magnet_specialty": "Z",
        "magnet_specialty_label": "None",
        "physical_address": "2115 COMMONWEALTH AVE",
        "physical_city": "JACKSONVILLE",
        "physical_state": "FL",
        "physical_zip": "32209-6919",
        "phone_number": "(904)630-6952",
        "principal_first": "MEGAN",
        "principal_last": "MCKINNEY",
        "total_students": 247,
        "cep_percentage": 100.0,
        "teacher_count": 14,
        "title1": "YES",
        "alt_school": "A",
        "alt_school_label": "Alternative Education Center",
        "report_card_url": "https://edudata.fldoe.org/ReportCards/Schools.html?school=0291&district=16"
      }
    },
    {
      "type": "Feature",
      "geometry": {
        "type": "Point",
        "coordinates": [
          -81.42774,
          30.39391
        ]
      },
      "properties": {
        "source": "Florida Department of Education Know Your Schools Mapping",
        "source_url": "https://edudata.fldoe.org/ReportCards/Mapping.html",
        "year": "2526",
        "district_number": "16",
        "district_name": "DUVAL",
        "location_district": "16",
        "school_number": "0321",
        "school_name": "MARINE SCIENCE EDUCATION CENTER",
        "school_name_short": "MARINE SCIENCE EDUCATION CENTER",
        "school_type": "High School",
        "charter": "NO",
        "public_school_type": "Traditional Public",
        "magnet_status": "Z",
        "magnet_status_label": "Non-Magnet",
        "magnet_specialty": "Z",
        "magnet_specialty_label": "None",
        "physical_address": "1347 PALMER ST",
        "physical_city": "ATLANTIC BEACH",
        "physical_state": "FL",
        "physical_zip": "32233-1347",
        "phone_number": "(904)247-5973",
        "principal_first": "JAMES",
        "principal_last": "LEDFORD",
        "total_students": 22,
        "cep_percentage": 27.3,
        "teacher_count": 4,
        "title1": "NO",
        "alt_school": "A",
        "alt_school_label": "Alternative Education Center",
        "report_card_url": "https://edudata.fldoe.org/ReportCards/Schools.html?school=0321&district=16"
      }
    },
    {
      "type": "Feature",
      "geometry": {
        "type": "Point",
        "coordinates": [
          -81.70388,
          30.30705
        ]
      },
      "properties": {
        "source": "Florida Department of Education Know Your Schools Mapping",
        "source_url": "https://edudata.fldoe.org/ReportCards/Mapping.html",
        "year": "2526",
        "district_number": "16",
        "district_name": "DUVAL",
        "location_district": "16",
        "school_number": "0331",
        "school_name": "RIVERSIDE HIGH SCHOOL",
        "school_name_short": "RIVERSIDE HIGH SCHOOL",
        "school_type": "High School",
        "charter": "NO",
        "public_school_type": "Traditional Public",
        "magnet_status": "P",
        "magnet_status_label": "Magnet Program",
        "magnet_specialty": "G",
        "magnet_specialty_label": "Science/Math",
        "physical_address": "1200 S MCDUFF AVE",
        "physical_city": "JACKSONVILLE",
        "physical_state": "FL",
        "physical_zip": "32205-8098",
        "phone_number": "(904)381-3930",
        "principal_first": "CHRIS",
        "principal_last": "KOEK",
        "total_students": 1567,
        "cep_percentage": 82.5,
        "teacher_count": 67,
        "title1": "YES",
        "alt_school": "N",
        "alt_school_label": "No",
        "report_card_url": "https://edudata.fldoe.org/ReportCards/Schools.html?school=0331&district=16"
      }
    },
    {
      "type": "Feature",
      "geometry": {
        "type": "Point",
        "coordinates": [
          -81.65598,
          30.36211
        ]
      },
      "properties": {
        "source": "Florida Department of Education Know Your Schools Mapping",
        "source_url": "https://edudata.fldoe.org/ReportCards/Mapping.html",
        "year": "2526",
        "district_number": "16",
        "district_name": "DUVAL",
        "location_district": "16",
        "school_number": "0351",
        "school_name": "ANDREW JACKSON HIGH SCHOOL",
        "school_name_short": "ANDREW JACKSON HIGH SCHOOL",
        "school_type": "High School",
        "charter": "NO",
        "public_school_type": "Traditional Public",
        "magnet_status": "S",
        "magnet_status_label": "Magnet School",
        "magnet_specialty": "O",
        "magnet_specialty_label": "Other",
        "physical_address": "3816 N MAIN ST",
        "physical_city": "JACKSONVILLE",
        "physical_state": "FL",
        "physical_zip": "32206-1450",
        "phone_number": "(904)630-6950",
        "principal_first": "TRUITTE",
        "principal_last": "MORELAND",
        "total_students": 908,
        "cep_percentage": 74.4,
        "teacher_count": 39,
        "title1": "YES",
        "alt_school": "N",
        "alt_school_label": "No",
        "report_card_url": "https://edudata.fldoe.org/ReportCards/Schools.html?school=0351&district=16"
      }
    },
    {
      "type": "Feature",
      "geometry": {
        "type": "Point",
        "coordinates": [
          -81.72398,
          30.34457
        ]
      },
      "properties": {
        "source": "Florida Department of Education Know Your Schools Mapping",
        "source_url": "https://edudata.fldoe.org/ReportCards/Mapping.html",
        "year": "2526",
        "district_number": "16",
        "district_name": "DUVAL",
        "location_district": "16",
        "school_number": "0751",
        "school_name": "PAXON SCHOOL/ADVANCED STUDIES",
        "school_name_short": "PAXON SCHOOL/ADVANCED STUDIES",
        "school_type": "High School",
        "charter": "NO",
        "public_school_type": "Traditional Public",
        "magnet_status": "S",
        "magnet_status_label": "Magnet School",
        "magnet_specialty": "A",
        "magnet_specialty_label": "Academically Talented",
        "physical_address": "3239 NORMAN E THAGARD BLVD",
        "physical_city": "JACKSONVILLE",
        "physical_state": "FL",
        "physical_zip": "32254-1796",
        "phone_number": "(904)693-7583",
        "principal_first": "ROYCE",
        "principal_last": "TURNER",
        "total_students": 1364,
        "cep_percentage": 32.3,
        "teacher_count": 61,
        "title1": "NO",
        "alt_school": "N",
        "alt_school_label": "No",
        "report_card_url": "https://edudata.fldoe.org/ReportCards/Schools.html?school=0751&district=16"
      }
    },
    {
      "type": "Feature",
      "geometry": {
        "type": "Point",
        "coordinates": [
          -81.57548,
          30.34208
        ]
      },
      "properties": {
        "source": "Florida Department of Education Know Your Schools Mapping",
        "source_url": "https://edudata.fldoe.org/ReportCards/Mapping.html",
        "year": "2526",
        "district_number": "16",
        "district_name": "DUVAL",
        "location_district": "16",
        "school_number": "0861",
        "school_name": "TERRY PARKER HIGH SCHOOL",
        "school_name_short": "TERRY PARKER HIGH SCHOOL",
        "school_type": "High School",
        "charter": "NO",
        "public_school_type": "Traditional Public",
        "magnet_status": "Z",
        "magnet_status_label": "Non-Magnet",
        "magnet_specialty": "Z",
        "magnet_specialty_label": "None",
        "physical_address": "7301 PARKER SCHOOL RD",
        "physical_city": "JACKSONVILLE",
        "physical_state": "FL",
        "physical_zip": "32211-5198",
        "phone_number": "(904)720-1650",
        "principal_first": "ROBERT",
        "principal_last": "HUDSON",
        "total_students": 1459,
        "cep_percentage": 85.3,
        "teacher_count": 71,
        "title1": "YES",
        "alt_school": "N",
        "alt_school_label": "No",
        "report_card_url": "https://edudata.fldoe.org/ReportCards/Schools.html?school=0861&district=16"
      }
    },
    {
      "type": "Feature",
      "geometry": {
        "type": "Point",
        "coordinates": [
          -81.61292,
          30.27741
        ]
      },
      "properties": {
        "source": "Florida Department of Education Know Your Schools Mapping",
        "source_url": "https://edudata.fldoe.org/ReportCards/Mapping.html",
        "year": "2526",
        "district_number": "16",
        "district_name": "DUVAL",
        "location_district": "16",
        "school_number": "0901",
        "school_name": "ENGLEWOOD HIGH SCHOOL",
        "school_name_short": "ENGLEWOOD HIGH SCHOOL",
        "school_type": "High School",
        "charter": "NO",
        "public_school_type": "Traditional Public",
        "magnet_status": "Z",
        "magnet_status_label": "Non-Magnet",
        "magnet_specialty": "Z",
        "magnet_specialty_label": "None",
        "physical_address": "4412 BARNES RD",
        "physical_city": "JACKSONVILLE",
        "physical_state": "FL",
        "physical_zip": "32207-7469",
        "phone_number": "(904)739-5212",
        "principal_first": "ABRAHAM",
        "principal_last": "REISING",
        "total_students": 1762,
        "cep_percentage": 74.8,
        "teacher_count": 85,
        "title1": "YES",
        "alt_school": "N",
        "alt_school_label": "No",
        "report_card_url": "https://edudata.fldoe.org/ReportCards/Schools.html?school=0901&district=16"
      }
    },
    {
      "type": "Feature",
      "geometry": {
        "type": "Point",
        "coordinates": [
          -81.70931,
          30.39003
        ]
      },
      "properties": {
        "source": "Florida Department of Education Know Your Schools Mapping",
        "source_url": "https://edudata.fldoe.org/ReportCards/Mapping.html",
        "year": "2526",
        "district_number": "16",
        "district_name": "DUVAL",
        "location_district": "16",
        "school_number": "0961",
        "school_name": "JEAN RIBAULT HIGH SCHOOL",
        "school_name_short": "JEAN RIBAULT HIGH SCHOOL",
        "school_type": "High School",
        "charter": "NO",
        "public_school_type": "Traditional Public",
        "magnet_status": "P",
        "magnet_status_label": "Magnet Program",
        "magnet_specialty": "O",
        "magnet_specialty_label": "Other",
        "physical_address": "3701 WINTON DR",
        "physical_city": "JACKSONVILLE",
        "physical_state": "FL",
        "physical_zip": "32208-2998",
        "phone_number": "(904)924-3092",
        "principal_first": "GREGORY",
        "principal_last": "BOSTIC",
        "total_students": 1531,
        "cep_percentage": 88.5,
        "teacher_count": 63,
        "title1": "YES",
        "alt_school": "N",
        "alt_school_label": "No",
        "report_card_url": "https://edudata.fldoe.org/ReportCards/Schools.html?school=0961&district=16"
      }
    },
    {
      "type": "Feature",
      "geometry": {
        "type": "Point",
        "coordinates": [
          -81.63771,
          30.30085
        ]
      },
      "properties": {
        "source": "Florida Department of Education Know Your Schools Mapping",
        "source_url": "https://edudata.fldoe.org/ReportCards/Mapping.html",
        "year": "2526",
        "district_number": "16",
        "district_name": "DUVAL",
        "location_district": "16",
        "school_number": "1073",
        "school_name": "DOUGLAS ANDERSON SCHOOL OF THE ARTS",
        "school_name_short": "DOUGLAS ANDERSON SCHOOL OF THE ARTS",
        "school_type": "High School",
        "charter": "NO",
        "public_school_type": "Traditional Public",
        "magnet_status": "S",
        "magnet_status_label": "Magnet School",
        "magnet_specialty": "F",
        "magnet_specialty_label": "Performing Arts",
        "physical_address": "2445 SAN DIEGO RD",
        "physical_city": "JACKSONVILLE",
        "physical_state": "FL",
        "physical_zip": "32207-3630",
        "phone_number": "(904)346-5620",
        "principal_first": "TIMOTHY",
        "principal_last": "FEAGINS",
        "total_students": 971,
        "cep_percentage": 18.4,
        "teacher_count": 51,
        "title1": "NO",
        "alt_school": "N",
        "alt_school_label": "No",
        "report_card_url": "https://edudata.fldoe.org/ReportCards/Schools.html?school=1073&district=16"
      }
    },
    {
      "type": "Feature",
      "geometry": {
        "type": "Point",
        "coordinates": [
          -81.6737,
          30.35205
        ]
      },
      "properties": {
        "source": "Florida Department of Education Know Your Schools Mapping",
        "source_url": "https://edudata.fldoe.org/ReportCards/Mapping.html",
        "year": "2526",
        "district_number": "16",
        "district_name": "DUVAL",
        "location_district": "16",
        "school_number": "1531",
        "school_name": "STANTON COLLEGE PREPARATORY",
        "school_name_short": "STANTON COLLEGE PREPARATORY",
        "school_type": "High School",
        "charter": "NO",
        "public_school_type": "Traditional Public",
        "magnet_status": "S",
        "magnet_status_label": "Magnet School",
        "magnet_specialty": "A",
        "magnet_specialty_label": "Academically Talented",
        "physical_address": "1149 W 13TH ST",
        "physical_city": "JACKSONVILLE",
        "physical_state": "FL",
        "physical_zip": "32209-5699",
        "phone_number": "(904)630-6760",
        "principal_first": "NONGONGOMA",
        "principal_last": "MAJOVA",
        "total_students": 1302,
        "cep_percentage": 15.1,
        "teacher_count": 71,
        "title1": "NO",
        "alt_school": "N",
        "alt_school_label": "No",
        "report_card_url": "https://edudata.fldoe.org/ReportCards/Schools.html?school=1531&district=16"
      }
    },
    {
      "type": "Feature",
      "geometry": {
        "type": "Point",
        "coordinates": [
          -81.71082,
          30.38277
        ]
      },
      "properties": {
        "source": "Florida Department of Education Know Your Schools Mapping",
        "source_url": "https://edudata.fldoe.org/ReportCards/Mapping.html",
        "year": "2526",
        "district_number": "16",
        "district_name": "DUVAL",
        "location_district": "16",
        "school_number": "1651",
        "school_name": "WILLIAM M. RAINES HIGH SCHOOL",
        "school_name_short": "WILLIAM M. RAINES HIGH SCHOOL",
        "school_type": "High School",
        "charter": "NO",
        "public_school_type": "Traditional Public",
        "magnet_status": "P",
        "magnet_status_label": "Magnet Program",
        "magnet_specialty": "O",
        "magnet_specialty_label": "Other",
        "physical_address": "3663 RAINES AVE",
        "physical_city": "JACKSONVILLE",
        "physical_state": "FL",
        "physical_zip": "32209-1999",
        "phone_number": "(904)924-3049",
        "principal_first": "VINCENT",
        "principal_last": "HALL",
        "total_students": 1332,
        "cep_percentage": 96.5,
        "teacher_count": 61,
        "title1": "YES",
        "alt_school": "N",
        "alt_school_label": "No",
        "report_card_url": "https://edudata.fldoe.org/ReportCards/Schools.html?school=1651&district=16"
      }
    },
    {
      "type": "Feature",
      "geometry": {
        "type": "Point",
        "coordinates": [
          -81.65057,
          30.32563
        ]
      },
      "properties": {
        "source": "Florida Department of Education Know Your Schools Mapping",
        "source_url": "https://edudata.fldoe.org/ReportCards/Mapping.html",
        "year": "2526",
        "district_number": "16",
        "district_name": "DUVAL",
        "location_district": "16",
        "school_number": "1761",
        "school_name": "PRETRIAL DETENTION FACILITY",
        "school_name_short": "PRETRIAL DETENTION FACILITY",
        "school_type": "High School",
        "charter": "NO",
        "public_school_type": "Traditional Public",
        "magnet_status": "Z",
        "magnet_status_label": "Non-Magnet",
        "magnet_specialty": "Z",
        "magnet_specialty_label": "None",
        "physical_address": "500 E ADAMS ST",
        "physical_city": "JACKSONVILLE",
        "physical_state": "FL",
        "physical_zip": "32202-2813",
        "phone_number": "(904)630-5717",
        "principal_first": "EDWARD",
        "principal_last": "ROBINSON",
        "total_students": 44,
        "cep_percentage": 52.3,
        "teacher_count": 6,
        "title1": "NO",
        "alt_school": "A",
        "alt_school_label": "Alternative Education Center",
        "report_card_url": "https://edudata.fldoe.org/ReportCards/Schools.html?school=1761&district=16"
      }
    },
    {
      "type": "Feature",
      "geometry": {
        "type": "Point",
        "coordinates": [
          -81.40129,
          30.30839
        ]
      },
      "properties": {
        "source": "Florida Department of Education Know Your Schools Mapping",
        "source_url": "https://edudata.fldoe.org/ReportCards/Mapping.html",
        "year": "2526",
        "district_number": "16",
        "district_name": "DUVAL",
        "location_district": "16",
        "school_number": "2231",
        "school_name": "DUNCAN U. FLETCHER HIGH SCHOOL",
        "school_name_short": "DUNCAN U. FLETCHER HIGH SCHOOL",
        "school_type": "High School",
        "charter": "NO",
        "public_school_type": "Traditional Public",
        "magnet_status": "Z",
        "magnet_status_label": "Non-Magnet",
        "magnet_specialty": "Z",
        "magnet_specialty_label": "None",
        "physical_address": "700 SEAGATE AVE",
        "physical_city": "NEPTUNE BEACH",
        "physical_state": "FL",
        "physical_zip": "32266-3505",
        "phone_number": "(904)247-5905",
        "principal_first": "DEAN",
        "principal_last": "LEDFORD",
        "total_students": 2117,
        "cep_percentage": 23.7,
        "teacher_count": 87,
        "title1": "NO",
        "alt_school": "N",
        "alt_school_label": "No",
        "report_card_url": "https://edudata.fldoe.org/ReportCards/Schools.html?school=2231&district=16"
      }
    },
    {
      "type": "Feature",
      "geometry": {
        "type": "Point",
        "coordinates": [
          -81.61571,
          30.25098
        ]
      },
      "properties": {
        "source": "Florida Department of Education Know Your Schools Mapping",
        "source_url": "https://edudata.fldoe.org/ReportCards/Mapping.html",
        "year": "2526",
        "district_number": "16",
        "district_name": "DUVAL",
        "location_district": "16",
        "school_number": "2241",
        "school_name": "SAMUEL W. WOLFSON HIGH SCHOOL",
        "school_name_short": "SAMUEL W. WOLFSON HIGH SCHOOL",
        "school_type": "High School",
        "charter": "NO",
        "public_school_type": "Traditional Public",
        "magnet_status": "S",
        "magnet_status_label": "Magnet School",
        "magnet_specialty": "A",
        "magnet_specialty_label": "Academically Talented",
        "physical_address": "7000 POWERS AVE",
        "physical_city": "JACKSONVILLE",
        "physical_state": "FL",
        "physical_zip": "32217-3398",
        "phone_number": "(904)739-5265",
        "principal_first": "CHRISTOPHER",
        "principal_last": "BEGLEY",
        "total_students": 1129,
        "cep_percentage": 13.5,
        "teacher_count": 52,
        "title1": "NO",
        "alt_school": "N",
        "alt_school_label": "No",
        "report_card_url": "https://edudata.fldoe.org/ReportCards/Schools.html?school=2241&district=16"
      }
    },
    {
      "type": "Feature",
      "geometry": {
        "type": "Point",
        "coordinates": [
          -81.51641,
          30.29819
        ]
      },
      "properties": {
        "source": "Florida Department of Education Know Your Schools Mapping",
        "source_url": "https://edudata.fldoe.org/ReportCards/Mapping.html",
        "year": "2526",
        "district_number": "16",
        "district_name": "DUVAL",
        "location_district": "16",
        "school_number": "2371",
        "school_name": "SANDALWOOD HIGH SCHOOL",
        "school_name_short": "SANDALWOOD HIGH SCHOOL",
        "school_type": "High School",
        "charter": "NO",
        "public_school_type": "Traditional Public",
        "magnet_status": "Z",
        "magnet_status_label": "Non-Magnet",
        "magnet_specialty": "Z",
        "magnet_specialty_label": "None",
        "physical_address": "2750 JOHN PROM BLVD",
        "physical_city": "JACKSONVILLE",
        "physical_state": "FL",
        "physical_zip": "32246-3999",
        "phone_number": "(904)646-5100",
        "principal_first": "SARYN",
        "principal_last": "HATCHER",
        "total_students": 2389,
        "cep_percentage": 34.3,
        "teacher_count": 105,
        "title1": "YES",
        "alt_school": "N",
        "alt_school_label": "No",
        "report_card_url": "https://edudata.fldoe.org/ReportCards/Schools.html?school=2371&district=16"
      }
    },
    {
      "type": "Feature",
      "geometry": {
        "type": "Point",
        "coordinates": [
          -81.76504,
          30.24545
        ]
      },
      "properties": {
        "source": "Florida Department of Education Know Your Schools Mapping",
        "source_url": "https://edudata.fldoe.org/ReportCards/Mapping.html",
        "year": "2526",
        "district_number": "16",
        "district_name": "DUVAL",
        "location_district": "16",
        "school_number": "2411",
        "school_name": "WESTSIDE HIGH SCHOOL",
        "school_name_short": "WESTSIDE HIGH SCHOOL",
        "school_type": "High School",
        "charter": "NO",
        "public_school_type": "Traditional Public",
        "magnet_status": "Z",
        "magnet_status_label": "Non-Magnet",
        "magnet_specialty": "Z",
        "magnet_specialty_label": "None",
        "physical_address": "5530 FIRESTONE RD",
        "physical_city": "JACKSONVILLE",
        "physical_state": "FL",
        "physical_zip": "32244-1599",
        "phone_number": "(904)573-1170",
        "principal_first": "VINCENT",
        "principal_last": "FOSTER",
        "total_students": 1432,
        "cep_percentage": 76.0,
        "teacher_count": 72,
        "title1": "YES",
        "alt_school": "N",
        "alt_school_label": "No",
        "report_card_url": "https://edudata.fldoe.org/ReportCards/Schools.html?school=2411&district=16"
      }
    },
    {
      "type": "Feature",
      "geometry": {
        "type": "Point",
        "coordinates": [
          -81.77032,
          30.28941
        ]
      },
      "properties": {
        "source": "Florida Department of Education Know Your Schools Mapping",
        "source_url": "https://edudata.fldoe.org/ReportCards/Mapping.html",
        "year": "2526",
        "district_number": "16",
        "district_name": "DUVAL",
        "location_district": "16",
        "school_number": "2481",
        "school_name": "EDWARD H. WHITE HIGH SCHOOL",
        "school_name_short": "EDWARD H. WHITE HIGH SCHOOL",
        "school_type": "High School",
        "charter": "NO",
        "public_school_type": "Traditional Public",
        "magnet_status": "P",
        "magnet_status_label": "Magnet Program",
        "magnet_specialty": "O",
        "magnet_specialty_label": "Other",
        "physical_address": "1700 OLD MIDDLEBURG RD N",
        "physical_city": "JACKSONVILLE",
        "physical_state": "FL",
        "physical_zip": "32210-1232",
        "phone_number": "(904)693-7620",
        "principal_first": "TRACI",
        "principal_last": "BATTEST",
        "total_students": 1758,
        "cep_percentage": 78.7,
        "teacher_count": 78,
        "title1": "YES",
        "alt_school": "N",
        "alt_school_label": "No",
        "report_card_url": "https://edudata.fldoe.org/ReportCards/Schools.html?school=2481&district=16"
      }
    },
    {
      "type": "Feature",
      "geometry": {
        "type": "Point",
        "coordinates": [
          -81.513,
          30.30023
        ]
      },
      "properties": {
        "source": "Florida Department of Education Know Your Schools Mapping",
        "source_url": "https://edudata.fldoe.org/ReportCards/Mapping.html",
        "year": "2526",
        "district_number": "16",
        "district_name": "DUVAL",
        "location_district": "16",
        "school_number": "2521",
        "school_name": "ALDEN ROAD EXCEP. STUDENT CENTER",
        "school_name_short": "ALDEN ROAD EXCEP. STUDENT CENTER",
        "school_type": "High School",
        "charter": "NO",
        "public_school_type": "Traditional Public",
        "magnet_status": "Z",
        "magnet_status_label": "Non-Magnet",
        "magnet_specialty": "Z",
        "magnet_specialty_label": "None",
        "physical_address": "11780 ALDEN RD",
        "physical_city": "JACKSONVILLE",
        "physical_state": "FL",
        "physical_zip": "32246-2499",
        "phone_number": "(904)565-2722",
        "principal_first": "JOSEPH",
        "principal_last": "BLITCH",
        "total_students": 190,
        "cep_percentage": 30.5,
        "teacher_count": 29,
        "title1": "YES",
        "alt_school": "E",
        "alt_school_label": "ESE Center",
        "report_card_url": "https://edudata.fldoe.org/ReportCards/Schools.html?school=2521&district=16"
      }
    },
    {
      "type": "Feature",
      "geometry": {
        "type": "Point",
        "coordinates": [
          -81.58645,
          30.16572
        ]
      },
      "properties": {
        "source": "Florida Department of Education Know Your Schools Mapping",
        "source_url": "https://edudata.fldoe.org/ReportCards/Mapping.html",
        "year": "2526",
        "district_number": "16",
        "district_name": "DUVAL",
        "location_district": "16",
        "school_number": "2601",
        "school_name": "MANDARIN HIGH SCHOOL",
        "school_name_short": "MANDARIN HIGH SCHOOL",
        "school_type": "High School",
        "charter": "NO",
        "public_school_type": "Traditional Public",
        "magnet_status": "Z",
        "magnet_status_label": "Non-Magnet",
        "magnet_specialty": "Z",
        "magnet_specialty_label": "None",
        "physical_address": "4831 GREENLAND RD",
        "physical_city": "JACKSONVILLE",
        "physical_state": "FL",
        "physical_zip": "32258-1517",
        "phone_number": "(904)260-3911",
        "principal_first": "SARA",
        "principal_last": "BRAVO",
        "total_students": 2397,
        "cep_percentage": 24.4,
        "teacher_count": 96,
        "title1": "NO",
        "alt_school": "N",
        "alt_school_label": "No",
        "report_card_url": "https://edudata.fldoe.org/ReportCards/Schools.html?school=2601&district=16"
      }
    },
    {
      "type": "Feature",
      "geometry": {
        "type": "Point",
        "coordinates": [
          -81.607,
          30.48266
        ]
      },
      "properties": {
        "source": "Florida Department of Education Know Your Schools Mapping",
        "source_url": "https://edudata.fldoe.org/ReportCards/Mapping.html",
        "year": "2526",
        "district_number": "16",
        "district_name": "DUVAL",
        "location_district": "16",
        "school_number": "2651",
        "school_name": "FIRST COAST HIGH SCHOOL",
        "school_name_short": "FIRST COAST HIGH SCHOOL",
        "school_type": "High School",
        "charter": "NO",
        "public_school_type": "Traditional Public",
        "magnet_status": "Z",
        "magnet_status_label": "Non-Magnet",
        "magnet_specialty": "Z",
        "magnet_specialty_label": "None",
        "physical_address": "590 DUVAL STATION RD",
        "physical_city": "JACKSONVILLE",
        "physical_state": "FL",
        "physical_zip": "32218-1869",
        "phone_number": "(904)757-0080",
        "principal_first": "RONNIE",
        "principal_last": "WILLIAMS",
        "total_students": 1975,
        "cep_percentage": 64.6,
        "teacher_count": 90,
        "title1": "YES",
        "alt_school": "N",
        "alt_school_label": "No",
        "report_card_url": "https://edudata.fldoe.org/ReportCards/Schools.html?school=2651&district=16"
      }
    },
    {
      "type": "Feature",
      "geometry": {
        "type": "Point",
        "coordinates": [
          -81.50535,
          30.20271
        ]
      },
      "properties": {
        "source": "Florida Department of Education Know Your Schools Mapping",
        "source_url": "https://edudata.fldoe.org/ReportCards/Mapping.html",
        "year": "2526",
        "district_number": "16",
        "district_name": "DUVAL",
        "location_district": "16",
        "school_number": "2681",
        "school_name": "ATLANTIC COAST HIGH SCHOOL",
        "school_name_short": "ATLANTIC COAST HIGH SCHOOL",
        "school_type": "High School",
        "charter": "NO",
        "public_school_type": "Traditional Public",
        "magnet_status": "Z",
        "magnet_status_label": "Non-Magnet",
        "magnet_specialty": "Z",
        "magnet_specialty_label": "None",
        "physical_address": "9735 R G SKINNER PKWY",
        "physical_city": "JACKSONVILLE",
        "physical_state": "FL",
        "physical_zip": "32256-3979",
        "phone_number": "(904)538-5120",
        "principal_first": "MARLENY",
        "principal_last": "CHIRINO",
        "total_students": 2899,
        "cep_percentage": 29.4,
        "teacher_count": 130,
        "title1": "NO",
        "alt_school": "N",
        "alt_school_label": "No",
        "report_card_url": "https://edudata.fldoe.org/ReportCards/Schools.html?school=2681&district=16"
      }
    },
    {
      "type": "Feature",
      "geometry": {
        "type": "Point",
        "coordinates": [
          -81.77266,
          30.26313
        ]
      },
      "properties": {
        "source": "Florida Department of Education Know Your Schools Mapping",
        "source_url": "https://edudata.fldoe.org/ReportCards/Mapping.html",
        "year": "2526",
        "district_number": "16",
        "district_name": "DUVAL",
        "location_district": "16",
        "school_number": "2801",
        "school_name": "FRANK H. PETERSON ACADEMIES",
        "school_name_short": "FRANK H. PETERSON ACADEMIES",
        "school_type": "High School",
        "charter": "NO",
        "public_school_type": "Traditional Public",
        "magnet_status": "S",
        "magnet_status_label": "Magnet School",
        "magnet_specialty": "J",
        "magnet_specialty_label": "Career Academy",
        "physical_address": "7450 WILSON BLVD",
        "physical_city": "JACKSONVILLE",
        "physical_state": "FL",
        "physical_zip": "32210-3523",
        "phone_number": "(904)573-1150",
        "principal_first": "JESSICA",
        "principal_last": "MASTROMATTO",
        "total_students": 1202,
        "cep_percentage": 71.2,
        "teacher_count": 53,
        "title1": "YES",
        "alt_school": "N",
        "alt_school_label": "No",
        "report_card_url": "https://edudata.fldoe.org/ReportCards/Schools.html?school=2801&district=16"
      }
    },
    {
      "type": "Feature",
      "geometry": {
        "type": "Point",
        "coordinates": [
          -81.67677,
          30.36774
        ]
      },
      "properties": {
        "source": "Florida Department of Education Know Your Schools Mapping",
        "source_url": "https://edudata.fldoe.org/ReportCards/Mapping.html",
        "year": "2526",
        "district_number": "16",
        "district_name": "DUVAL",
        "location_district": "16",
        "school_number": "2851",
        "school_name": "A. PHILIP RANDOLPH ACADEMIES",
        "school_name_short": "A. PHILIP RANDOLPH ACADEMIES",
        "school_type": "High School",
        "charter": "NO",
        "public_school_type": "Traditional Public",
        "magnet_status": "S",
        "magnet_status_label": "Magnet School",
        "magnet_specialty": "J",
        "magnet_specialty_label": "Career Academy",
        "physical_address": "1157 GOLFAIR BLVD",
        "physical_city": "JACKSONVILLE",
        "physical_state": "FL",
        "physical_zip": "32209-4037",
        "phone_number": "(904)924-3011",
        "principal_first": "MARY",
        "principal_last": "FLYNN",
        "total_students": 323,
        "cep_percentage": 92.6,
        "teacher_count": 18,
        "title1": "YES",
        "alt_school": "N",
        "alt_school_label": "No",
        "report_card_url": "https://edudata.fldoe.org/ReportCards/Schools.html?school=2851&district=16"
      }
    }
  ]
}
