{"type":"FeatureCollection","crs":{"type":"name","properties":{"name":"EPSG:4326"}},"features":[{"type":"Feature","id":1,"geometry":{"type":"Point","coordinates":[-81.7038409696856,30.3070850068853]},"properties":{"OBJECTID":1,"Loc_name":"World","Status":"M","Score":100,"Match_type":"A","Match_addr":"1200 McDuff Ave S, Jacksonville, Florida, 32205","LongLabel":"1200 McDuff Ave S, Jacksonville, FL, 32205, USA","ShortLabel":"1200 McDuff Ave S","Addr_type":"PointAddress","Type":null,"PlaceName":null,"Place_addr":"1200 McDuff Ave S, Jacksonville, Florida, 32205","Phone":null,"URL":null,"Rank":20,"AddBldg":null,"AddNum":"1200","AddNumFrom":null,"AddNumTo":null,"AddRange":null,"Side":null,"StPreDir":null,"StPreType":null,"StName":"McDuff","StType":"Ave","StDir":"S","BldgType":null,"BldgName":null,"LevelType":null,"LevelName":null,"UnitType":null,"UnitName":null,"SubAddr":null,"StAddr":"1200 McDuff Ave S","Block":null,"Sector":null,"Nbrhd":null,"District":null,"City":"Jacksonville","MetroArea":null,"Subregion":"Duval County","Region":"Florida","RegionAbbr":"FL","Territory":null,"Zone":null,"Postal":"32205","PostalExt":"8030","Country":"USA","CntryName":"United States","LangCode":"ENG","Distance":0,"X":-81.703476440955,"Y":30.307588088469,"DisplayX":-81.703840969924,"DisplayY":30.307085006641,"Xmin":-81.704840969924,"Xmax":-81.702840969924,"Ymin":30.306085006641,"Ymax":30.308085006641,"ExInfo":null,"StrucType":"Commercial","StrucDet":null,"IN_SingleLine":"1200 McDuff Ave. S. 32205","USER_School_Number":33,"USER_SCL_ID":3033,"USER_Short_Name":"Riverside","USER_Grade_Level":"High School","USER_Full_Name":"Riverside High School #33","USER_School_Address":"1200 McDuff Ave. S. 32205","USER_School_Phone_Number":"(904) 381-3930","USER_School_Fax_Number":"(904) 381-3945","USER_School_Grade_Level":"6th Grade - 12th Grade","USER_Board_Member":"Blount","USER_URL":"https://dcps.duvalschools.org/o/rhs","USER_SCL_ID_TXT":"3033"}},{"type":"Feature","id":2,"geometry":{"type":"Point","coordinates":[-81.9786269966609,30.3042719983241]},"properties":{"OBJECTID":2,"Loc_name":"World","Status":"M","Score":100,"Match_type":"A","Match_addr":"291 Mill St W, Jacksonville, Florida, 32234","LongLabel":"291 Mill St W, Jacksonville, FL, 32234, USA","ShortLabel":"291 Mill St W","Addr_type":"PointAddress","Type":null,"PlaceName":null,"Place_addr":"291 Mill St W, Jacksonville, Florida, 32234","Phone":null,"URL":null,"Rank":20,"AddBldg":null,"AddNum":"291","AddNumFrom":null,"AddNumTo":null,"AddRange":null,"Side":null,"StPreDir":null,"StPreType":null,"StName":"Mill","StType":"St","StDir":"W","BldgType":null,"BldgName":null,"LevelType":null,"LevelName":null,"UnitType":null,"UnitName":null,"SubAddr":null,"StAddr":"291 Mill St W","Block":null,"Sector":null,"Nbrhd":null,"District":null,"City":"Jacksonville","MetroArea":null,"Subregion":"Duval County","Region":"Florida","RegionAbbr":"FL","Territory":null,"Zone":null,"Postal":"32234","PostalExt":"1307","Country":"USA","CntryName":"United States","LangCode":"ENG","Distance":0,"X":-81.978620794592,"Y":30.303660538189,"DisplayX":-81.9786269972,"DisplayY":30.304271998026,"Xmin":-81.9796269972,"Xmax":-81.9776269972,"Ymin":30.303271998026,"Ymax":30.305271998026,"ExInfo":null,"StrucType":"Commercial","StrucDet":null,"IN_SingleLine":"291 Mill St. W., Baldwin 32234","USER_School_Number":38,"USER_SCL_ID":3038,"USER_Short_Name":"Baldwin","USER_Grade_Level":"Combination","USER_Full_Name":"Baldwin Middle-High School #38","USER_School_Address":"291 Mill St. W., Baldwin 32234","USER_School_Phone_Number":"(904) 266-1200","USER_School_Fax_Number":"(904) 266-1220","USER_School_Grade_Level":"6th Grade - 12th Grade","USER_Board_Member":"Joyce","USER_URL":"https://dcps.duvalschools.org/o/bhs","USER_SCL_ID_TXT":"3038"}},{"type":"Feature","id":3,"geometry":{"type":"Point","coordinates":[-81.5743079598124,30.3429999949435]},"properties":{"OBJECTID":3,"Loc_name":"World","Status":"M","Score":100,"Match_type":"A","Match_addr":"7301 Parker School Rd, Jacksonville, Florida, 32211","LongLabel":"7301 Parker School Rd, Jacksonville, FL, 32211, USA","ShortLabel":"7301 Parker School Rd","Addr_type":"PointAddress","Type":null,"PlaceName":null,"Place_addr":"7301 Parker School Rd, Jacksonville, Florida, 32211","Phone":null,"URL":null,"Rank":20,"AddBldg":null,"AddNum":"7301","AddNumFrom":null,"AddNumTo":null,"AddRange":null,"Side":null,"StPreDir":null,"StPreType":null,"StName":"Parker School","StType":"Rd","StDir":null,"BldgType":null,"BldgName":null,"LevelType":null,"LevelName":null,"UnitType":null,"UnitName":null,"SubAddr":null,"StAddr":"7301 Parker School Rd","Block":null,"Sector":null,"Nbrhd":null,"District":null,"City":"Jacksonville","MetroArea":null,"Subregion":"Duval County","Region":"Florida","RegionAbbr":"FL","Territory":null,"Zone":null,"Postal":"32211","PostalExt":"5105","Country":"USA","CntryName":"United States","LangCode":"ENG","Distance":0,"X":-81.574306451517,"Y":30.341306515197,"DisplayX":-81.57430796026,"DisplayY":30.342999994915,"Xmin":-81.57530796026,"Xmax":-81.57330796026,"Ymin":30.341999994915,"Ymax":30.343999994915,"ExInfo":null,"StrucType":"Commercial","StrucDet":null,"IN_SingleLine":"7301 Parker School Rd. 32211","USER_School_Number":86,"USER_SCL_ID":3086,"USER_Short_Name":"Terry Parker","USER_Grade_Level":"High School","USER_Full_Name":"Terry Parker High School #86","USER_School_Address":"7301 Parker School Rd. 32211","USER_School_Phone_Number":"(904) 720-1650","USER_School_Fax_Number":"(904) 720-1700","USER_School_Grade_Level":"6th Grade - 12th Grade","USER_Board_Member":"Ricardo","USER_URL":"https://dcps.duvalschools.org/o/tphs","USER_SCL_ID_TXT":"3086"}},{"type":"Feature","id":4,"geometry":{"type":"Point","coordinates":[-81.6124239938489,30.2770720102148]},"properties":{"OBJECTID":4,"Loc_name":"World","Status":"M","Score":100,"Match_type":"A","Match_addr":"4412 Barnes Rd, Jacksonville, Florida, 32207","LongLabel":"4412 Barnes Rd, Jacksonville, FL, 32207, USA","ShortLabel":"4412 Barnes Rd","Addr_type":"PointAddress","Type":null,"PlaceName":null,"Place_addr":"4412 Barnes Rd, Jacksonville, Florida, 32207","Phone":null,"URL":null,"Rank":20,"AddBldg":null,"AddNum":"4412","AddNumFrom":null,"AddNumTo":null,"AddRange":null,"Side":null,"StPreDir":null,"StPreType":null,"StName":"Barnes","StType":"Rd","StDir":null,"BldgType":null,"BldgName":null,"LevelType":null,"LevelName":null,"UnitType":null,"UnitName":null,"SubAddr":null,"StAddr":"4412 Barnes Rd","Block":null,"Sector":null,"Nbrhd":null,"District":null,"City":"Jacksonville","MetroArea":null,"Subregion":"Duval County","Region":"Florida","RegionAbbr":"FL","Territory":null,"Zone":null,"Postal":"32207","PostalExt":"7469","Country":"USA","CntryName":"United States","LangCode":"ENG","Distance":0,"X":-81.610021824767,"Y":30.276816361713,"DisplayX":-81.612423994398,"DisplayY":30.27707200976,"Xmin":-81.613423994398,"Xmax":-81.611423994398,"Ymin":30.27607200976,"Ymax":30.27807200976,"ExInfo":null,"StrucType":"Commercial","StrucDet":null,"IN_SingleLine":"4412 Barnes Rd. 32207","USER_School_Number":90,"USER_SCL_ID":3090,"USER_Short_Name":"Englewood","USER_Grade_Level":"High School","USER_Full_Name":"Englewood High School #90","USER_School_Address":"4412 Barnes Rd. 32207","USER_School_Phone_Number":"(904) 739-5212","USER_School_Fax_Number":"(904) 739-5324","USER_School_Grade_Level":"6th Grade - 12th Grade","USER_Board_Member":"Pearson","USER_URL":"https://dcps.duvalschools.org/o/ehs","USER_SCL_ID_TXT":"3090"}},{"type":"Feature","id":5,"geometry":{"type":"Point","coordinates":[-81.7106630014303,30.3925559860216]},"properties":{"OBJECTID":5,"Loc_name":"World","Status":"M","Score":100,"Match_type":"A","Match_addr":"3701 Winton Dr, Jacksonville, Florida, 32208","LongLabel":"3701 Winton Dr, Jacksonville, FL, 32208, USA","ShortLabel":"3701 Winton Dr","Addr_type":"PointAddress","Type":null,"PlaceName":null,"Place_addr":"3701 Winton Dr, Jacksonville, Florida, 32208","Phone":null,"URL":null,"Rank":20,"AddBldg":null,"AddNum":"3701","AddNumFrom":null,"AddNumTo":null,"AddRange":null,"Side":null,"StPreDir":null,"StPreType":null,"StName":"Winton","StType":"Dr","StDir":null,"BldgType":null,"BldgName":null,"LevelType":null,"LevelName":null,"UnitType":null,"UnitName":null,"SubAddr":null,"StAddr":"3701 Winton Dr","Block":null,"Sector":null,"Nbrhd":null,"District":null,"City":"Jacksonville","MetroArea":null,"Subregion":"Duval County","Region":"Florida","RegionAbbr":"FL","Territory":null,"Zone":null,"Postal":"32208","PostalExt":"2998","Country":"USA","CntryName":"United States","LangCode":"ENG","Distance":0,"X":-81.710663000918,"Y":30.392555985783,"DisplayX":-81.710663000918,"DisplayY":30.392555985783,"Xmin":-81.711663000918,"Xmax":-81.709663000918,"Ymin":30.391555985783,"Ymax":30.393555985783,"ExInfo":null,"StrucType":"Commercial","StrucDet":null,"IN_SingleLine":"3701 Winton Dr, 32208","USER_School_Number":96,"USER_SCL_ID":3096,"USER_Short_Name":"Jean Ribault","USER_Grade_Level":"High School","USER_Full_Name":"Jean Ribault High School #96","USER_School_Address":"3701 Winton Dr, 32208","USER_School_Phone_Number":"(904) 924-3092","USER_School_Fax_Number":"(904) 924-3154","USER_School_Grade_Level":"6th Grade - 12th Grade","USER_Board_Member":"Willie","USER_URL":"https://dcps.duvalschools.org/o/jrhs","USER_SCL_ID_TXT":"3096"}},{"type":"Feature","id":6,"geometry":{"type":"Point","coordinates":[-81.7101269775986,30.3817359966336]},"properties":{"OBJECTID":6,"Loc_name":"World","Status":"M","Score":100,"Match_type":"A","Match_addr":"3663 Raines Ave, Jacksonville, Florida, 32209","LongLabel":"3663 Raines Ave, Jacksonville, FL, 32209, USA","ShortLabel":"3663 Raines Ave","Addr_type":"PointAddress","Type":null,"PlaceName":null,"Place_addr":"3663 Raines Ave, Jacksonville, Florida, 32209","Phone":null,"URL":null,"Rank":20,"AddBldg":null,"AddNum":"3663","AddNumFrom":null,"AddNumTo":null,"AddRange":null,"Side":null,"StPreDir":null,"StPreType":null,"StName":"Raines","StType":"Ave","StDir":null,"BldgType":null,"BldgName":null,"LevelType":null,"LevelName":null,"UnitType":null,"UnitName":null,"SubAddr":null,"StAddr":"3663 Raines Ave","Block":null,"Sector":null,"Nbrhd":null,"District":null,"City":"Jacksonville","MetroArea":null,"Subregion":"Duval County","Region":"Florida","RegionAbbr":"FL","Territory":null,"Zone":null,"Postal":"32209","PostalExt":"1924","Country":"USA","CntryName":"United States","LangCode":"ENG","Distance":0,"X":-81.70860080128,"Y":30.381570537752,"DisplayX":-81.71012697821,"DisplayY":30.381735996521,"Xmin":-81.71112697821,"Xmax":-81.70912697821,"Ymin":30.380735996521,"Ymax":30.382735996521,"ExInfo":null,"StrucType":"Commercial","StrucDet":null,"IN_SingleLine":"3663 Raines Ave. 32209","USER_School_Number":165,"USER_SCL_ID":3165,"USER_Short_Name":"William M. Raines","USER_Grade_Level":"High School","USER_Full_Name":"William M. Raines High School #165","USER_School_Address":"3663 Raines Ave. 32209","USER_School_Phone_Number":"(904) 924-3049","USER_School_Fax_Number":"(904) 924-3058","USER_School_Grade_Level":"6th Grade - 12th Grade","USER_Board_Member":"Blount","USER_URL":"https://dcps.duvalschools.org/o/wehs","USER_SCL_ID_TXT":"3165"}},{"type":"Feature","id":7,"geometry":{"type":"Point","coordinates":[-81.4014720272826,30.3084030187659]},"properties":{"OBJECTID":7,"Loc_name":"World","Status":"M","Score":100,"Match_type":"A","Match_addr":"700 Seagate Ave, Neptune Beach, Florida, 32266","LongLabel":"700 Seagate Ave, Neptune Beach, FL, 32266, USA","ShortLabel":"700 Seagate Ave","Addr_type":"PointAddress","Type":null,"PlaceName":null,"Place_addr":"700 Seagate Ave, Neptune Beach, Florida, 32266","Phone":null,"URL":null,"Rank":20,"AddBldg":null,"AddNum":"700","AddNumFrom":null,"AddNumTo":null,"AddRange":null,"Side":null,"StPreDir":null,"StPreType":null,"StName":"Seagate","StType":"Ave","StDir":null,"BldgType":null,"BldgName":null,"LevelType":null,"LevelName":null,"UnitType":null,"UnitName":null,"SubAddr":null,"StAddr":"700 Seagate Ave","Block":null,"Sector":null,"Nbrhd":null,"District":null,"City":"Neptune Beach","MetroArea":null,"Subregion":"Duval County","Region":"Florida","RegionAbbr":"FL","Territory":null,"Zone":null,"Postal":"32266","PostalExt":"3505","Country":"USA","CntryName":"United States","LangCode":"ENG","Distance":0,"X":-81.401458113176,"Y":30.307590812588,"DisplayX":-81.401472027135,"DisplayY":30.308403019006,"Xmin":-81.402472027135,"Xmax":-81.400472027135,"Ymin":30.307403019006,"Ymax":30.309403019006,"ExInfo":null,"StrucType":"Commercial","StrucDet":null,"IN_SingleLine":"700 Seagate Ave., Neptune Beach, 32266","USER_School_Number":223,"USER_SCL_ID":3223,"USER_Short_Name":"Duncan Fletcher","USER_Grade_Level":"High School","USER_Full_Name":"Duncan Fletcher High School #223","USER_School_Address":"700 Seagate Ave., Neptune Beach, 32266","USER_School_Phone_Number":"(904) 247-5905","USER_School_Fax_Number":"(904) 247-5920","USER_School_Grade_Level":"6th Grade - 12th Grade","USER_Board_Member":"Carney","USER_URL":"https://dcps.duvalschools.org/o/dfhs","USER_SCL_ID_TXT":"3223"}},{"type":"Feature","id":8,"geometry":{"type":"Point","coordinates":[-81.51783103241,30.2970359847368]},"properties":{"OBJECTID":8,"Loc_name":"World","Status":"M","Score":100,"Match_type":"A","Match_addr":"2750 John Prom Blvd, Jacksonville, Florida, 32246","LongLabel":"2750 John Prom Blvd, Jacksonville, FL, 32246, USA","ShortLabel":"2750 John Prom Blvd","Addr_type":"PointAddress","Type":null,"PlaceName":null,"Place_addr":"2750 John Prom Blvd, Jacksonville, Florida, 32246","Phone":null,"URL":null,"Rank":20,"AddBldg":null,"AddNum":"2750","AddNumFrom":null,"AddNumTo":null,"AddRange":null,"Side":null,"StPreDir":null,"StPreType":null,"StName":"John Prom","StType":"Blvd","StDir":null,"BldgType":null,"BldgName":null,"LevelType":null,"LevelName":null,"UnitType":null,"UnitName":null,"SubAddr":null,"StAddr":"2750 John Prom Blvd","Block":null,"Sector":null,"Nbrhd":null,"District":null,"City":"Jacksonville","MetroArea":null,"Subregion":"Duval County","Region":"Florida","RegionAbbr":"FL","Territory":null,"Zone":null,"Postal":"32246","PostalExt":"3921","Country":"USA","CntryName":"United States","LangCode":"ENG","Distance":0,"X":-81.516108886114,"Y":30.297054844115,"DisplayX":-81.51783103194,"DisplayY":30.297035984833,"Xmin":-81.51883103194,"Xmax":-81.51683103194,"Ymin":30.296035984833,"Ymax":30.298035984833,"ExInfo":null,"StrucType":"Commercial","StrucDet":null,"IN_SingleLine":"2750 John Prom Blvd. 32246","USER_School_Number":237,"USER_SCL_ID":3237,"USER_Short_Name":"Sandalwood","USER_Grade_Level":"High School","USER_Full_Name":"Sandalwood High School #237","USER_School_Address":"2750 John Prom Blvd. 32246","USER_School_Phone_Number":"(904) 646-5100","USER_School_Fax_Number":"(904) 646-5126","USER_School_Grade_Level":"6th Grade - 12th Grade","USER_Board_Member":"Pearson","USER_URL":"https://dcps.duvalschools.org/o/shs","USER_SCL_ID_TXT":"3237"}},{"type":"Feature","id":9,"geometry":{"type":"Point","coordinates":[-81.765669994872,30.2464589937022]},"properties":{"OBJECTID":9,"Loc_name":"World","Status":"M","Score":100,"Match_type":"A","Match_addr":"5530 Firestone Rd, Jacksonville, Florida, 32244","LongLabel":"5530 Firestone Rd, Jacksonville, FL, 32244, USA","ShortLabel":"5530 Firestone Rd","Addr_type":"PointAddress","Type":null,"PlaceName":null,"Place_addr":"5530 Firestone Rd, Jacksonville, Florida, 32244","Phone":null,"URL":null,"Rank":20,"AddBldg":null,"AddNum":"5530","AddNumFrom":null,"AddNumTo":null,"AddRange":null,"Side":null,"StPreDir":null,"StPreType":null,"StName":"Firestone","StType":"Rd","StDir":null,"BldgType":null,"BldgName":null,"LevelType":null,"LevelName":null,"UnitType":null,"UnitName":null,"SubAddr":null,"StAddr":"5530 Firestone Rd","Block":null,"Sector":null,"Nbrhd":null,"District":null,"City":"Jacksonville","MetroArea":null,"Subregion":"Duval County","Region":"Florida","RegionAbbr":"FL","Territory":null,"Zone":null,"Postal":"32244","PostalExt":"1530","Country":"USA","CntryName":"United States","LangCode":"ENG","Distance":0,"X":-81.76453667775,"Y":30.246455893035,"DisplayX":-81.765669994878,"DisplayY":30.246458994339,"Xmin":-81.766669994878,"Xmax":-81.764669994878,"Ymin":30.245458994339,"Ymax":30.247458994339,"ExInfo":null,"StrucType":"Commercial","StrucDet":null,"IN_SingleLine":"5530 Firestone Rd. 32244","USER_School_Number":241,"USER_SCL_ID":3241,"USER_Short_Name":"Westside","USER_Grade_Level":"High School","USER_Full_Name":"Westside High School #241","USER_School_Address":"5530 Firestone Rd. 32244","USER_School_Phone_Number":"(904) 573-1170","USER_School_Fax_Number":"(904) 573-1177","USER_School_Grade_Level":"6th Grade - 12th Grade","USER_Board_Member":"Joyce","USER_URL":"https://dcps.duvalschools.org/o/wehs","USER_SCL_ID_TXT":"3241"}},{"type":"Feature","id":10,"geometry":{"type":"Point","coordinates":[-81.7679139981298,30.2893400150932]},"properties":{"OBJECTID":10,"Loc_name":"World","Status":"M","Score":99.22,"Match_type":"A","Match_addr":"1700 Old Middleburg Rd N, Jacksonville, Florida, 32210","LongLabel":"1700 Old Middleburg Rd N, Jacksonville, FL, 32210, USA","ShortLabel":"1700 Old Middleburg Rd N","Addr_type":"PointAddress","Type":null,"PlaceName":null,"Place_addr":"1700 Old Middleburg Rd N, Jacksonville, Florida, 32210","Phone":null,"URL":null,"Rank":20,"AddBldg":null,"AddNum":"1700","AddNumFrom":null,"AddNumTo":null,"AddRange":null,"Side":null,"StPreDir":null,"StPreType":null,"StName":"Old Middleburg","StType":"Rd","StDir":"N","BldgType":null,"BldgName":null,"LevelType":null,"LevelName":null,"UnitType":null,"UnitName":null,"SubAddr":null,"StAddr":"1700 Old Middleburg Rd N","Block":null,"Sector":null,"Nbrhd":null,"District":null,"City":"Jacksonville","MetroArea":null,"Subregion":"Duval County","Region":"Florida","RegionAbbr":"FL","Territory":null,"Zone":null,"Postal":"32210","PostalExt":"1232","Country":"USA","CntryName":"United States","LangCode":"ENG","Distance":0,"X":-81.76659619518,"Y":30.288736769133,"DisplayX":-81.767913997997,"DisplayY":30.289340014704,"Xmin":-81.768913997997,"Xmax":-81.766913997997,"Ymin":30.288340014704,"Ymax":30.290340014704,"ExInfo":null,"StrucType":"Commercial","StrucDet":null,"IN_SingleLine":"1700 Old Middleburg Rd. 32210","USER_School_Number":248,"USER_SCL_ID":3248,"USER_Short_Name":"Edward H. White","USER_Grade_Level":"High School","USER_Full_Name":"Edward H. White High School #248","USER_School_Address":"1700 Old Middleburg Rd. 32210","USER_School_Phone_Number":"(904) 693-7620","USER_School_Fax_Number":"(904) 693-7639","USER_School_Grade_Level":"6th Grade - 12th Grade","USER_Board_Member":"Blount","USER_URL":"https://dcps.duvalschools.org/o/ewhs","USER_SCL_ID_TXT":"3248"}},{"type":"Feature","id":11,"geometry":{"type":"Point","coordinates":[-81.5860690278039,30.1614480140529]},"properties":{"OBJECTID":11,"Loc_name":"World","Status":"M","Score":100,"Match_type":"A","Match_addr":"4831 Greenland Rd, Jacksonville, Florida, 32258","LongLabel":"4831 Greenland Rd, Jacksonville, FL, 32258, USA","ShortLabel":"4831 Greenland Rd","Addr_type":"PointAddress","Type":null,"PlaceName":null,"Place_addr":"4831 Greenland Rd, Jacksonville, Florida, 32258","Phone":null,"URL":null,"Rank":20,"AddBldg":null,"AddNum":"4831","AddNumFrom":null,"AddNumTo":null,"AddRange":null,"Side":null,"StPreDir":null,"StPreType":null,"StName":"Greenland","StType":"Rd","StDir":null,"BldgType":null,"BldgName":null,"LevelType":null,"LevelName":null,"UnitType":null,"UnitName":null,"SubAddr":null,"StAddr":"4831 Greenland Rd","Block":null,"Sector":null,"Nbrhd":null,"District":null,"City":"Jacksonville","MetroArea":null,"Subregion":"Duval County","Region":"Florida","RegionAbbr":"FL","Territory":null,"Zone":null,"Postal":"32258","PostalExt":"1517","Country":"USA","CntryName":"United States","LangCode":"ENG","Distance":0,"X":-81.586065926396,"Y":30.161249698215,"DisplayX":-81.5860690277,"DisplayY":30.161448014044,"Xmin":-81.5870690277,"Xmax":-81.5850690277,"Ymin":30.160448014044,"Ymax":30.162448014044,"ExInfo":null,"StrucType":"Commercial","StrucDet":null,"IN_SingleLine":"4831 Greenland Rd. 32258","USER_School_Number":260,"USER_SCL_ID":3260,"USER_Short_Name":"Mandarin","USER_Grade_Level":"High School","USER_Full_Name":"Mandarin High School #260","USER_School_Address":"4831 Greenland Rd. 32258","USER_School_Phone_Number":"(904) 260-3911","USER_School_Fax_Number":"(904) 260-5439","USER_School_Grade_Level":"6th Grade - 12th Grade","USER_Board_Member":"Bolduc","USER_URL":"https://dcps.duvalschools.org/o/mhs","USER_SCL_ID_TXT":"3260"}},{"type":"Feature","id":12,"geometry":{"type":"Point","coordinates":[-81.608257014673,30.4823829979697]},"properties":{"OBJECTID":12,"Loc_name":"World","Status":"M","Score":100,"Match_type":"A","Match_addr":"590 Duval Station Rd, Jacksonville, Florida, 32218","LongLabel":"590 Duval Station Rd, Jacksonville, FL, 32218, USA","ShortLabel":"590 Duval Station Rd","Addr_type":"PointAddress","Type":null,"PlaceName":null,"Place_addr":"590 Duval Station Rd, Jacksonville, Florida, 32218","Phone":null,"URL":null,"Rank":20,"AddBldg":null,"AddNum":"590","AddNumFrom":null,"AddNumTo":null,"AddRange":null,"Side":null,"StPreDir":null,"StPreType":null,"StName":"Duval Station","StType":"Rd","StDir":null,"BldgType":null,"BldgName":null,"LevelType":null,"LevelName":null,"UnitType":null,"UnitName":null,"SubAddr":null,"StAddr":"590 Duval Station Rd","Block":null,"Sector":null,"Nbrhd":null,"District":null,"City":"Jacksonville","MetroArea":null,"Subregion":"Duval County","Region":"Florida","RegionAbbr":"FL","Territory":null,"Zone":null,"Postal":"32218","PostalExt":"1869","Country":"USA","CntryName":"United States","LangCode":"ENG","Distance":0,"X":-81.607744545493,"Y":30.484423320966,"DisplayX":-81.608257015053,"DisplayY":30.482382998095,"Xmin":-81.609257015053,"Xmax":-81.607257015053,"Ymin":30.481382998095,"Ymax":30.483382998095,"ExInfo":null,"StrucType":"Commercial","StrucDet":null,"IN_SingleLine":"590 Duval Station Rd. 32218","USER_School_Number":265,"USER_SCL_ID":3265,"USER_Short_Name":"First Coast","USER_Grade_Level":"High School","USER_Full_Name":"First Coast High School #265","USER_School_Address":"590 Duval Station Rd. 32218","USER_School_Phone_Number":"(904) 757-0080","USER_School_Fax_Number":"(904) 696-8721","USER_School_Grade_Level":"6th Grade - 12th Grade","USER_Board_Member":"Willie","USER_URL":"https://dcps.duvalschools.org/o/fchs","USER_SCL_ID_TXT":"3265"}},{"type":"Feature","id":13,"geometry":{"type":"Point","coordinates":[-81.5065186899709,30.2028076266886]},"properties":{"OBJECTID":13,"Loc_name":" ","Status":"M","Score":100,"Match_type":"PP","Match_addr":"x=496160.846384, y=2134040.321544","LongLabel":null,"ShortLabel":null,"Addr_type":null,"Type":null,"PlaceName":null,"Place_addr":null,"Phone":null,"URL":null,"Rank":0,"AddBldg":null,"AddNum":null,"AddNumFrom":null,"AddNumTo":null,"AddRange":null,"Side":" ","StPreDir":null,"StPreType":null,"StName":null,"StType":null,"StDir":null,"BldgType":null,"BldgName":null,"LevelType":null,"LevelName":null,"UnitType":null,"UnitName":null,"SubAddr":null,"StAddr":null,"Block":null,"Sector":null,"Nbrhd":null,"District":null,"City":null,"MetroArea":null,"Subregion":null,"Region":null,"RegionAbbr":null,"Territory":null,"Zone":null,"Postal":null,"PostalExt":null,"Country":null,"CntryName":null,"LangCode":null,"Distance":0,"X":0,"Y":0,"DisplayX":0,"DisplayY":0,"Xmin":0,"Xmax":0,"Ymin":0,"Ymax":0,"ExInfo":null,"StrucType":null,"StrucDet":null,"IN_SingleLine":"9735 R.G. Skinner Parkway, 32256","USER_School_Number":268,"USER_SCL_ID":3268,"USER_Short_Name":"Atlantic Coast","USER_Grade_Level":"High School","USER_Full_Name":"Atlantic Coast High School #268","USER_School_Address":"9735 R.G. Skinner Parkway, 32256","USER_School_Phone_Number":"(904) 538-5120","USER_School_Fax_Number":"(904) 538-5159","USER_School_Grade_Level":"6th Grade - 12th Grade","USER_Board_Member":"Bolduc","USER_URL":"https://dcps.duvalschools.org/o/achs","USER_SCL_ID_TXT":"3268"}},{"type":"Feature","id":15,"geometry":{"type":"Point","coordinates":[-81.9786269966609,30.3042719983241]},"properties":{"OBJECTID":15,"Loc_name":"World","Status":"M","Score":100,"Match_type":"A","Match_addr":"291 Mill St W, Jacksonville, Florida, 32234","LongLabel":"291 Mill St W, Jacksonville, FL, 32234, USA","ShortLabel":"291 Mill St W","Addr_type":"PointAddress","Type":null,"PlaceName":null,"Place_addr":"291 Mill St W, Jacksonville, Florida, 32234","Phone":null,"URL":null,"Rank":20,"AddBldg":null,"AddNum":"291","AddNumFrom":null,"AddNumTo":null,"AddRange":null,"Side":null,"StPreDir":null,"StPreType":null,"StName":"Mill","StType":"St","StDir":"W","BldgType":null,"BldgName":null,"LevelType":null,"LevelName":null,"UnitType":null,"UnitName":null,"SubAddr":null,"StAddr":"291 Mill St W","Block":null,"Sector":null,"Nbrhd":null,"District":null,"City":"Jacksonville","MetroArea":null,"Subregion":"Duval County","Region":"Florida","RegionAbbr":"FL","Territory":null,"Zone":null,"Postal":"32234","PostalExt":"1307","Country":"USA","CntryName":"United States","LangCode":"ENG","Distance":0,"X":-81.978620794592,"Y":30.303660538189,"DisplayX":-81.9786269972,"DisplayY":30.304271998026,"Xmin":-81.9796269972,"Xmax":-81.9776269972,"Ymin":30.303271998026,"Ymax":30.305271998026,"ExInfo":null,"StrucType":"Commercial","StrucDet":null,"IN_SingleLine":"291 Mill St. W., Baldwin 32234","USER_School_Number":38,"USER_SCL_ID":3038,"USER_Short_Name":"Baldwin","USER_Grade_Level":"Combination","USER_Full_Name":"Baldwin Middle-High School #38","USER_School_Address":"291 Mill St. W., Baldwin 32234","USER_School_Phone_Number":"(904) 266-1200","USER_School_Fax_Number":"(904) 266-1220","USER_School_Grade_Level":"6th Grade - 12th Grade","USER_Board_Member":"Joyce","USER_URL":"https://dcps.duvalschools.org/o/bhs","USER_SCL_ID_TXT":"3038"}},{"type":"Feature","id":30,"geometry":{"type":"Point","coordinates":[-81.8221480128291,30.2526820126387]},"properties":{"OBJECTID":30,"Loc_name":"World","Status":"M","Score":100,"Match_type":"A","Match_addr":"5270 Connie Jean Rd, Jacksonville, Florida, 32210","LongLabel":"5270 Connie Jean Rd, Jacksonville, FL, 32210, USA","ShortLabel":"5270 Connie Jean Rd","Addr_type":"PointAddress","Type":null,"PlaceName":null,"Place_addr":"5270 Connie Jean Rd, Jacksonville, Florida, 32210","Phone":null,"URL":null,"Rank":20,"AddBldg":null,"AddNum":"5270","AddNumFrom":null,"AddNumTo":null,"AddRange":null,"Side":null,"StPreDir":null,"StPreType":null,"StName":"Connie Jean","StType":"Rd","StDir":null,"BldgType":null,"BldgName":null,"LevelType":null,"LevelName":null,"UnitType":null,"UnitName":null,"SubAddr":null,"StAddr":"5270 Connie Jean Rd","Block":null,"Sector":null,"Nbrhd":null,"District":null,"City":"Jacksonville","MetroArea":null,"Subregion":"Duval County","Region":"Florida","RegionAbbr":"FL","Territory":null,"Zone":null,"Postal":"32210","PostalExt":"8697","Country":"USA","CntryName":"United States","LangCode":"ENG","Distance":0,"X":-81.822483708068,"Y":30.252617974883,"DisplayX":-81.822148012846,"DisplayY":30.252682012623,"Xmin":-81.823148012846,"Xmax":-81.821148012846,"Ymin":30.251682012623,"Ymax":30.253682012623,"ExInfo":null,"StrucType":"Commercial","StrucDet":null,"IN_SingleLine":"5270 Connie Jean Rd. 32210","USER_School_Number":274,"USER_SCL_ID":3274,"USER_Short_Name":"Westview K - 8","USER_Grade_Level":"Elementary School","USER_Full_Name":"Westview K - 8 Elementary School #274","USER_School_Address":"5270 Connie Jean Rd. 32210","USER_School_Phone_Number":"(904) 573-1082","USER_School_Fax_Number":"(904) 573-1087","USER_School_Grade_Level":"PreK - 8th Grade","USER_Board_Member":"Joyce","USER_URL":"https://dcps.duvalschools.org/o/wkes","USER_SCL_ID_TXT":"3274"}}]}