{"type":"FeatureCollection","crs":{"type":"name","properties":{"name":"EPSG:4326"}},"features":[{"type":"Feature","id":89,"geometry":{"type":"Point","coordinates":[-81.6296179603894,30.4667419901056]},"properties":{"OBJECTID":89,"Loc_name":"World","Status":"M","Score":100,"Match_type":"A","Match_addr":"143 Oceanway Ave, Jacksonville, Florida, 32218","LongLabel":"143 Oceanway Ave, Jacksonville, FL, 32218, USA","ShortLabel":"143 Oceanway Ave","Addr_type":"PointAddress","Type":null,"PlaceName":null,"Place_addr":"143 Oceanway Ave, Jacksonville, Florida, 32218","Phone":null,"URL":null,"Rank":20,"AddBldg":null,"AddNum":"143","AddNumFrom":null,"AddNumTo":null,"AddRange":null,"Side":null,"StPreDir":null,"StPreType":null,"StName":"Oceanway","StType":"Ave","StDir":null,"BldgType":null,"BldgName":null,"LevelType":null,"LevelName":null,"UnitType":null,"UnitName":null,"SubAddr":null,"StAddr":"143 Oceanway Ave","Block":null,"Sector":null,"Nbrhd":null,"District":null,"City":"Jacksonville","MetroArea":null,"Subregion":"Duval County","Region":"Florida","RegionAbbr":"FL","Territory":null,"Zone":null,"Postal":"32218","PostalExt":"2615","Country":"USA","CntryName":"United States","LangCode":"ENG","Distance":0,"X":-81.629614774897,"Y":30.466560689018,"DisplayX":-81.62961796002,"DisplayY":30.466741989584,"Xmin":-81.63061796002,"Xmax":-81.62861796002,"Ymin":30.465741989584,"Ymax":30.467741989584,"ExInfo":null,"StrucType":"Residential","StrucDet":"Single Family","IN_SingleLine":"143 Oceanway Ave. 32218","USER_School_Number":62,"USER_SCL_ID":3062,"USER_Short_Name":"Oceanway","USER_Grade_Level":"Middle School","USER_Full_Name":"Oceanway Middle School #62","USER_School_Address":"143 Oceanway Ave. 32218","USER_School_Phone_Number":"(904) 714-4680","USER_School_Fax_Number":"(904) 714-4685","USER_School_Grade_Level":"6th Grade - 8th Grade","USER_Board_Member":"Willie","USER_URL":"https://dcps.duvalschools.org/o/oms","USER_SCL_ID_TXT":"3062"}},{"type":"Feature","id":90,"geometry":{"type":"Point","coordinates":[-81.9786269966609,30.3042719983241]},"properties":{"OBJECTID":90,"Loc_name":"World","Status":"M","Score":100,"Match_type":"A","Match_addr":"291 Mill St W, Jacksonville, Florida, 32234","LongLabel":"291 Mill St W, Jacksonville, FL, 32234, USA","ShortLabel":"291 Mill St W","Addr_type":"PointAddress","Type":null,"PlaceName":null,"Place_addr":"291 Mill St W, Jacksonville, Florida, 32234","Phone":null,"URL":null,"Rank":20,"AddBldg":null,"AddNum":"291","AddNumFrom":null,"AddNumTo":null,"AddRange":null,"Side":null,"StPreDir":null,"StPreType":null,"StName":"Mill","StType":"St","StDir":"W","BldgType":null,"BldgName":null,"LevelType":null,"LevelName":null,"UnitType":null,"UnitName":null,"SubAddr":null,"StAddr":"291 Mill St W","Block":null,"Sector":null,"Nbrhd":null,"District":null,"City":"Jacksonville","MetroArea":null,"Subregion":"Duval County","Region":"Florida","RegionAbbr":"FL","Territory":null,"Zone":null,"Postal":"32234","PostalExt":"1307","Country":"USA","CntryName":"United States","LangCode":"ENG","Distance":0,"X":-81.978620794592,"Y":30.303660538189,"DisplayX":-81.9786269972,"DisplayY":30.304271998026,"Xmin":-81.9796269972,"Xmax":-81.9776269972,"Ymin":30.303271998026,"Ymax":30.305271998026,"ExInfo":null,"StrucType":"Commercial","StrucDet":null,"IN_SingleLine":"291 Mill St. W., Baldwin 32234","USER_School_Number":38,"USER_SCL_ID":3038,"USER_Short_Name":"Baldwin","USER_Grade_Level":"Combination","USER_Full_Name":"Baldwin Middle-High School #38","USER_School_Address":"291 Mill St. W., Baldwin 32234","USER_School_Phone_Number":"(904) 266-1200","USER_School_Fax_Number":"(904) 266-1220","USER_School_Grade_Level":"6th Grade - 12th Grade","USER_Board_Member":"Joyce","USER_URL":"https://dcps.duvalschools.org/o/bhs","USER_SCL_ID_TXT":"3038"}},{"type":"Feature","id":91,"geometry":{"type":"Point","coordinates":[-81.6317229906794,30.2505799991331]},"properties":{"OBJECTID":91,"Loc_name":"World","Status":"M","Score":100,"Match_type":"A","Match_addr":"2710 Dupont Ave, Jacksonville, Florida, 32217","LongLabel":"2710 Dupont Ave, Jacksonville, FL, 32217, USA","ShortLabel":"2710 Dupont Ave","Addr_type":"PointAddress","Type":null,"PlaceName":null,"Place_addr":"2710 Dupont Ave, Jacksonville, Florida, 32217","Phone":null,"URL":null,"Rank":20,"AddBldg":null,"AddNum":"2710","AddNumFrom":null,"AddNumTo":null,"AddRange":null,"Side":null,"StPreDir":null,"StPreType":null,"StName":"Dupont","StType":"Ave","StDir":null,"BldgType":null,"BldgName":null,"LevelType":null,"LevelName":null,"UnitType":null,"UnitName":null,"SubAddr":null,"StAddr":"2710 Dupont Ave","Block":null,"Sector":null,"Nbrhd":null,"District":null,"City":"Jacksonville","MetroArea":null,"Subregion":"Duval County","Region":"Florida","RegionAbbr":"FL","Territory":null,"Zone":null,"Postal":"32217","PostalExt":"2635","Country":"USA","CntryName":"United States","LangCode":"ENG","Distance":0,"X":-81.632686910048,"Y":30.251834518393,"DisplayX":-81.631722991183,"DisplayY":30.250579998945,"Xmin":-81.632722991183,"Xmax":-81.630722991183,"Ymin":30.249579998945,"Ymax":30.251579998945,"ExInfo":null,"StrucType":"Commercial","StrucDet":null,"IN_SingleLine":"2710 duPont Ave. 32217","USER_School_Number":66,"USER_SCL_ID":3066,"USER_Short_Name":"Alfred I. duPont","USER_Grade_Level":"Middle School","USER_Full_Name":"Alfred I. duPont Middle School #66","USER_School_Address":"2710 duPont Ave. 32217","USER_School_Phone_Number":"(904) 739-5200","USER_School_Fax_Number":"(904) 739-5321","USER_School_Grade_Level":"6th Grade - 8th Grade","USER_Board_Member":"Pearson","USER_URL":"https://dcps.duvalschools.org/o/aims","USER_SCL_ID_TXT":"3066"}},{"type":"Feature","id":92,"geometry":{"type":"Point","coordinates":[-81.7241219904117,30.2729109818909]},"properties":{"OBJECTID":92,"Loc_name":"World","Status":"M","Score":100,"Match_type":"A","Match_addr":"2519 Bayview Rd, Jacksonville, Florida, 32210","LongLabel":"2519 Bayview Rd, Jacksonville, FL, 32210, USA","ShortLabel":"2519 Bayview Rd","Addr_type":"PointAddress","Type":null,"PlaceName":null,"Place_addr":"2519 Bayview Rd, Jacksonville, Florida, 32210","Phone":null,"URL":null,"Rank":20,"AddBldg":null,"AddNum":"2519","AddNumFrom":null,"AddNumTo":null,"AddRange":null,"Side":null,"StPreDir":null,"StPreType":null,"StName":"Bayview","StType":"Rd","StDir":null,"BldgType":null,"BldgName":null,"LevelType":null,"LevelName":null,"UnitType":null,"UnitName":null,"SubAddr":null,"StAddr":"2519 Bayview Rd","Block":null,"Sector":null,"Nbrhd":null,"District":null,"City":"Jacksonville","MetroArea":null,"Subregion":"Duval County","Region":"Florida","RegionAbbr":"FL","Territory":null,"Zone":null,"Postal":"32210","PostalExt":"5303","Country":"USA","CntryName":"United States","LangCode":"ENG","Distance":0,"X":-81.726067262574,"Y":30.272903437853,"DisplayX":-81.724121990485,"DisplayY":30.272910981566,"Xmin":-81.725121990485,"Xmax":-81.723121990485,"Ymin":30.271910981566,"Ymax":30.273910981566,"ExInfo":null,"StrucType":"Commercial","StrucDet":null,"IN_SingleLine":"2519 Bayview Rd. 32210","USER_School_Number":69,"USER_SCL_ID":3069,"USER_Short_Name":"Lake Shore","USER_Grade_Level":"Middle School","USER_Full_Name":"Lake Shore Middle School #69","USER_School_Address":"2519 Bayview Rd. 32210","USER_School_Phone_Number":"(904) 381-7440","USER_School_Fax_Number":"(904) 381-7437","USER_School_Grade_Level":"6th Grade - 8th Grade","USER_Board_Member":"Joyce","USER_URL":"https://dcps.duvalschools.org/o/lsms","USER_SCL_ID_TXT":"3069"}},{"type":"Feature","id":93,"geometry":{"type":"Point","coordinates":[-81.3967919906036,30.3070239861811]},"properties":{"OBJECTID":93,"Loc_name":"World","Status":"M","Score":99.86,"Match_type":"A","Match_addr":"2000 3rd St N, Jacksonville Beach, Florida, 32250","LongLabel":"2000 3rd St N, Jacksonville Beach, FL, 32250, USA","ShortLabel":"2000 3rd St N","Addr_type":"PointAddress","Type":null,"PlaceName":null,"Place_addr":"2000 3rd St N, Jacksonville Beach, Florida, 32250","Phone":null,"URL":null,"Rank":20,"AddBldg":null,"AddNum":"2000","AddNumFrom":null,"AddNumTo":null,"AddRange":null,"Side":null,"StPreDir":null,"StPreType":null,"StName":"3rd","StType":"St","StDir":"N","BldgType":null,"BldgName":null,"LevelType":null,"LevelName":null,"UnitType":null,"UnitName":null,"SubAddr":null,"StAddr":"2000 3rd St N","Block":null,"Sector":null,"Nbrhd":null,"District":null,"City":"Jacksonville Beach","MetroArea":null,"Subregion":"Duval County","Region":"Florida","RegionAbbr":"FL","Territory":null,"Zone":null,"Postal":"32250","PostalExt":"7430","Country":"USA","CntryName":"United States","LangCode":"ENG","Distance":0,"X":-81.395729920546,"Y":30.307243676068,"DisplayX":-81.396791991497,"DisplayY":30.307023986386,"Xmin":-81.397791991497,"Xmax":-81.395791991497,"Ymin":30.306023986386,"Ymax":30.308023986386,"ExInfo":null,"StrucType":"Commercial","StrucDet":null,"IN_SingleLine":"2000 N. 3rd St., Jacksonville Beach, 32250","USER_School_Number":63,"USER_SCL_ID":3063,"USER_Short_Name":"Duncan Fletcher","USER_Grade_Level":"Middle School","USER_Full_Name":"Duncan Fletcher Middle School #63","USER_School_Address":"2000 N. 3rd St., Jacksonville Beach, 32250","USER_School_Phone_Number":"(904) 247-5929","USER_School_Fax_Number":"(904) 247-5940","USER_School_Grade_Level":"6th Grade - 8th Grade","USER_Board_Member":"Carney","USER_URL":"https://dcps.duvalschools.org/Page/33980","USER_SCL_ID_TXT":"3063"}},{"type":"Feature","id":94,"geometry":{"type":"Point","coordinates":[-81.8555693029688,30.2801097537936]},"properties":{"OBJECTID":94,"Loc_name":" ","Status":"M","Score":100,"Match_type":"PP","Match_addr":"x=386106.336433, y=2162814.528550","LongLabel":null,"ShortLabel":null,"Addr_type":null,"Type":null,"PlaceName":null,"Place_addr":null,"Phone":null,"URL":null,"Rank":0,"AddBldg":null,"AddNum":null,"AddNumFrom":null,"AddNumTo":null,"AddRange":null,"Side":" ","StPreDir":null,"StPreType":null,"StName":null,"StType":null,"StDir":null,"BldgType":null,"BldgName":null,"LevelType":null,"LevelName":null,"UnitType":null,"UnitName":null,"SubAddr":null,"StAddr":null,"Block":null,"Sector":null,"Nbrhd":null,"District":null,"City":null,"MetroArea":null,"Subregion":null,"Region":null,"RegionAbbr":null,"Territory":null,"Zone":null,"Postal":null,"PostalExt":null,"Country":null,"CntryName":null,"LangCode":null,"Distance":0,"X":0,"Y":0,"DisplayX":0,"DisplayY":0,"Xmin":0,"Xmax":0,"Ymin":0,"Ymax":0,"ExInfo":null,"StrucType":null,"StrucDet":null,"IN_SingleLine":"11770 Sam Caruso Way, 32221","USER_School_Number":140,"USER_SCL_ID":3140,"USER_Short_Name":"Chaffee Trail","USER_Grade_Level":"Middle School","USER_Full_Name":"Chaffee Trail Middle School #140","USER_School_Address":"11770 Sam Caruso Way, 32221","USER_School_Phone_Number":"(904) 390-2000","USER_School_Fax_Number":"TBD","USER_School_Grade_Level":"6th Grade - 8th Grade","USER_Board_Member":"Joyce","USER_URL":"https://dcps.duvalschools.org/o/ctms","USER_SCL_ID_TXT":"3140"}},{"type":"Feature","id":95,"geometry":{"type":"Point","coordinates":[-81.639569038966,30.3419919867957]},"properties":{"OBJECTID":95,"Loc_name":"World","Status":"M","Score":100,"Match_type":"A","Match_addr":"1424 Franklin St, Jacksonville, Florida, 32206","LongLabel":"1424 Franklin St, Jacksonville, FL, 32206, USA","ShortLabel":"1424 Franklin St","Addr_type":"PointAddress","Type":null,"PlaceName":null,"Place_addr":"1424 Franklin St, Jacksonville, Florida, 32206","Phone":null,"URL":null,"Rank":20,"AddBldg":null,"AddNum":"1424","AddNumFrom":null,"AddNumTo":null,"AddRange":null,"Side":null,"StPreDir":null,"StPreType":null,"StName":"Franklin","StType":"St","StDir":null,"BldgType":null,"BldgName":null,"LevelType":null,"LevelName":null,"UnitType":null,"UnitName":null,"SubAddr":null,"StAddr":"1424 Franklin St","Block":null,"Sector":null,"Nbrhd":null,"District":null,"City":"Jacksonville","MetroArea":null,"Subregion":"Duval County","Region":"Florida","RegionAbbr":"FL","Territory":null,"Zone":null,"Postal":"32206","PostalExt":"4806","Country":"USA","CntryName":"United States","LangCode":"ENG","Distance":0,"X":-81.639323617164,"Y":30.341010047282,"DisplayX":-81.639569039289,"DisplayY":30.341991987239,"Xmin":-81.640569039289,"Xmax":-81.638569039289,"Ymin":30.340991987239,"Ymax":30.342991987239,"ExInfo":null,"StrucType":"Commercial","StrucDet":null,"IN_SingleLine":"1424 Franklin St. 32206","USER_School_Number":146,"USER_SCL_ID":3146,"USER_Short_Name":"Matthew W. Gilbert","USER_Grade_Level":"Middle School","USER_Full_Name":"Matthew W. Gilbert Middle School #146","USER_School_Address":"1424 Franklin St. 32206","USER_School_Phone_Number":"(904) 630-6700","USER_School_Fax_Number":"(904) 630-6713","USER_School_Grade_Level":"6th Grade - 8th Grade","USER_Board_Member":"Blount","USER_URL":"https://dcps.duvalschools.org/o/mgms","USER_SCL_ID_TXT":"3146"}},{"type":"Feature","id":96,"geometry":{"type":"Point","coordinates":[-81.7368810067338,30.25344401137]},"properties":{"OBJECTID":96,"Loc_name":"World","Status":"M","Score":100,"Match_type":"A","Match_addr":"4815 Wesconnett Blvd, Jacksonville, Florida, 32210","LongLabel":"4815 Wesconnett Blvd, Jacksonville, FL, 32210, USA","ShortLabel":"4815 Wesconnett Blvd","Addr_type":"PointAddress","Type":null,"PlaceName":null,"Place_addr":"4815 Wesconnett Blvd, Jacksonville, Florida, 32210","Phone":null,"URL":null,"Rank":20,"AddBldg":null,"AddNum":"4815","AddNumFrom":null,"AddNumTo":null,"AddRange":null,"Side":null,"StPreDir":null,"StPreType":null,"StName":"Wesconnett","StType":"Blvd","StDir":null,"BldgType":null,"BldgName":null,"LevelType":null,"LevelName":null,"UnitType":null,"UnitName":null,"SubAddr":null,"StAddr":"4815 Wesconnett Blvd","Block":null,"Sector":null,"Nbrhd":null,"District":null,"City":"Jacksonville","MetroArea":null,"Subregion":"Duval County","Region":"Florida","RegionAbbr":"FL","Territory":null,"Zone":null,"Postal":"32210","PostalExt":"7316","Country":"USA","CntryName":"United States","LangCode":"ENG","Distance":0,"X":-81.739877034788,"Y":30.253380392796,"DisplayX":-81.736881007318,"DisplayY":30.253444011441,"Xmin":-81.737881007318,"Xmax":-81.735881007318,"Ymin":30.252444011441,"Ymax":30.254444011441,"ExInfo":null,"StrucType":"Commercial","StrucDet":null,"IN_SingleLine":"4815 Wesconnett Blvd. 32210","USER_School_Number":207,"USER_SCL_ID":3207,"USER_Short_Name":"Westside","USER_Grade_Level":"Middle School","USER_Full_Name":"Westside Middle School #207","USER_School_Address":"4815 Wesconnett Blvd. 32210","USER_School_Phone_Number":"(904) 573-1000","USER_School_Fax_Number":"(904) 573-3213","USER_School_Grade_Level":"6th Grade - 8th Grade","USER_Board_Member":"Blount","USER_URL":"https://dcps.duvalschools.org/o/wms","USER_SCL_ID_TXT":"3207"}},{"type":"Feature","id":97,"geometry":{"type":"Point","coordinates":[-81.5956929606154,30.2710559830236]},"properties":{"OBJECTID":97,"Loc_name":"World","Status":"M","Score":100,"Match_type":"A","Match_addr":"2948 Knights Ln E, Jacksonville, Florida, 32216","LongLabel":"2948 Knights Ln E, Jacksonville, FL, 32216, USA","ShortLabel":"2948 Knights Ln E","Addr_type":"PointAddress","Type":null,"PlaceName":null,"Place_addr":"2948 Knights Ln E, Jacksonville, Florida, 32216","Phone":null,"URL":null,"Rank":20,"AddBldg":null,"AddNum":"2948","AddNumFrom":null,"AddNumTo":null,"AddRange":null,"Side":null,"StPreDir":null,"StPreType":null,"StName":"Knights","StType":"Ln","StDir":"E","BldgType":null,"BldgName":null,"LevelType":null,"LevelName":null,"UnitType":null,"UnitName":null,"SubAddr":null,"StAddr":"2948 Knights Ln E","Block":null,"Sector":null,"Nbrhd":null,"District":null,"City":"Jacksonville","MetroArea":null,"Subregion":"Duval County","Region":"Florida","RegionAbbr":"FL","Territory":null,"Zone":null,"Postal":"32216","PostalExt":"5603","Country":"USA","CntryName":"United States","LangCode":"ENG","Distance":0,"X":-81.594474400205,"Y":30.271012312859,"DisplayX":-81.595692961288,"DisplayY":30.271055982574,"Xmin":-81.596692961288,"Xmax":-81.594692961288,"Ymin":30.270055982574,"Ymax":30.272055982574,"ExInfo":null,"StrucType":"Commercial","StrucDet":null,"IN_SingleLine":"2948 Knights Ln E. 32216","USER_School_Number":211,"USER_SCL_ID":3211,"USER_Short_Name":"Southside","USER_Grade_Level":"Middle School","USER_Full_Name":"Southside Middle School #211","USER_School_Address":"2948 Knights Ln E. 32216","USER_School_Phone_Number":"(904) 739-5238","USER_School_Fax_Number":"(904) 739-5244","USER_School_Grade_Level":"6th Grade - 8th Grade","USER_Board_Member":"Pearson","USER_URL":"https://dcps.duvalschools.org/o/sms","USER_SCL_ID_TXT":"3211"}},{"type":"Feature","id":98,"geometry":{"type":"Point","coordinates":[-81.7090359898557,30.3910739811079]},"properties":{"OBJECTID":98,"Loc_name":"World","Status":"M","Score":100,"Match_type":"A","Match_addr":"3610 Ribault Scenic Dr, Jacksonville, Florida, 32208","LongLabel":"3610 Ribault Scenic Dr, Jacksonville, FL, 32208, USA","ShortLabel":"3610 Ribault Scenic Dr","Addr_type":"PointAddress","Type":null,"PlaceName":null,"Place_addr":"3610 Ribault Scenic Dr, Jacksonville, Florida, 32208","Phone":null,"URL":null,"Rank":20,"AddBldg":null,"AddNum":"3610","AddNumFrom":null,"AddNumTo":null,"AddRange":null,"Side":null,"StPreDir":null,"StPreType":null,"StName":"Ribault Scenic","StType":"Dr","StDir":null,"BldgType":null,"BldgName":null,"LevelType":null,"LevelName":null,"UnitType":null,"UnitName":null,"SubAddr":null,"StAddr":"3610 Ribault Scenic Dr","Block":null,"Sector":null,"Nbrhd":null,"District":null,"City":"Jacksonville","MetroArea":null,"Subregion":"Duval County","Region":"Florida","RegionAbbr":"FL","Territory":null,"Zone":null,"Postal":"32208","PostalExt":"2918","Country":"USA","CntryName":"United States","LangCode":"ENG","Distance":0,"X":-81.709825229696,"Y":30.390260685417,"DisplayX":-81.709035989693,"DisplayY":30.391073981482,"Xmin":-81.710035989693,"Xmax":-81.708035989693,"Ymin":30.390073981482,"Ymax":30.392073981482,"ExInfo":null,"StrucType":"Commercial","StrucDet":null,"IN_SingleLine":"3610 Ribault Scenic Dr. 32208","USER_School_Number":212,"USER_SCL_ID":3212,"USER_Short_Name":"Jean Ribault","USER_Grade_Level":"Middle School","USER_Full_Name":"Jean Ribault Middle School #212","USER_School_Address":"3610 Ribault Scenic Dr. 32208","USER_School_Phone_Number":"(904) 924-3062","USER_School_Fax_Number":"(904) 924-3167","USER_School_Grade_Level":"6th Grade - 8th Grade","USER_Board_Member":"Willie","USER_URL":"https://dcps.duvalschools.org/o/jrms","USER_SCL_ID_TXT":"3212"}},{"type":"Feature","id":99,"geometry":{"type":"Point","coordinates":[-81.570033022004,30.3402249978012]},"properties":{"OBJECTID":99,"Loc_name":"World","Status":"M","Score":100,"Match_type":"A","Match_addr":"8141 Lone Star Rd, Jacksonville, Florida, 32211","LongLabel":"8141 Lone Star Rd, Jacksonville, FL, 32211, USA","ShortLabel":"8141 Lone Star Rd","Addr_type":"PointAddress","Type":null,"PlaceName":null,"Place_addr":"8141 Lone Star Rd, Jacksonville, Florida, 32211","Phone":null,"URL":null,"Rank":20,"AddBldg":null,"AddNum":"8141","AddNumFrom":null,"AddNumTo":null,"AddRange":null,"Side":null,"StPreDir":null,"StPreType":null,"StName":"Lone Star","StType":"Rd","StDir":null,"BldgType":null,"BldgName":null,"LevelType":null,"LevelName":null,"UnitType":null,"UnitName":null,"SubAddr":null,"StAddr":"8141 Lone Star Rd","Block":null,"Sector":null,"Nbrhd":null,"District":null,"City":"Jacksonville","MetroArea":null,"Subregion":"Duval County","Region":"Florida","RegionAbbr":"FL","Territory":null,"Zone":null,"Postal":"32211","PostalExt":"5145","Country":"USA","CntryName":"United States","LangCode":"ENG","Distance":0,"X":-81.570028076679,"Y":30.337677570218,"DisplayX":-81.570033022002,"DisplayY":30.34022499823,"Xmin":-81.571033022002,"Xmax":-81.569033022002,"Ymin":30.33922499823,"Ymax":30.34122499823,"ExInfo":null,"StrucType":"Commercial","StrucDet":null,"IN_SingleLine":"8141 Lone Star Rd. 32211","USER_School_Number":213,"USER_SCL_ID":3213,"USER_Short_Name":"Arlington","USER_Grade_Level":"Middle School","USER_Full_Name":"Arlington Middle School #213","USER_School_Address":"8141 Lone Star Rd. 32211","USER_School_Phone_Number":"(904) 720-1680","USER_School_Fax_Number":"(904) 720-1702","USER_School_Grade_Level":"6th Grade - 8th Grade","USER_Board_Member":"Ricardo","USER_URL":"https://dcps.duvalschools.org/o/ams","USER_SCL_ID_TXT":"3213"}},{"type":"Feature","id":100,"geometry":{"type":"Point","coordinates":[-81.6813860187853,30.433944985243]},"properties":{"OBJECTID":100,"Loc_name":"World","Status":"M","Score":100,"Match_type":"A","Match_addr":"10913 Pine Estates Rd E, Jacksonville, Florida, 32218","LongLabel":"10913 Pine Estates Rd E, Jacksonville, FL, 32218, USA","ShortLabel":"10913 Pine Estates Rd E","Addr_type":"PointAddress","Type":null,"PlaceName":null,"Place_addr":"10913 Pine Estates Rd E, Jacksonville, Florida, 32218","Phone":null,"URL":null,"Rank":20,"AddBldg":null,"AddNum":"10913","AddNumFrom":null,"AddNumTo":null,"AddRange":null,"Side":null,"StPreDir":null,"StPreType":null,"StName":"Pine Estates","StType":"Rd","StDir":"E","BldgType":null,"BldgName":null,"LevelType":null,"LevelName":null,"UnitType":null,"UnitName":null,"SubAddr":null,"StAddr":"10913 Pine Estates Rd E","Block":null,"Sector":null,"Nbrhd":null,"District":null,"City":"Jacksonville","MetroArea":null,"Subregion":"Duval County","Region":"Florida","RegionAbbr":"FL","Territory":null,"Zone":null,"Postal":"32218","PostalExt":"4634","Country":"USA","CntryName":"United States","LangCode":"ENG","Distance":0,"X":-81.682899371573,"Y":30.433923946896,"DisplayX":-81.681386018955,"DisplayY":30.433944985473,"Xmin":-81.682386018955,"Xmax":-81.680386018955,"Ymin":30.432944985473,"Ymax":30.434944985473,"ExInfo":null,"StrucType":"Commercial","StrucDet":null,"IN_SingleLine":"10913 Pine Estates Rd. E. 32218","USER_School_Number":244,"USER_SCL_ID":3244,"USER_Short_Name":"Highlands","USER_Grade_Level":"Middle School","USER_Full_Name":"Highlands Middle School #244","USER_School_Address":"10913 Pine Estates Rd. E. 32218","USER_School_Phone_Number":"(904) 696-8771","USER_School_Fax_Number":"(904) 696-8782","USER_School_Grade_Level":"6th Grade - 8th Grade","USER_Board_Member":"Willie","USER_URL":"https://dcps.duvalschools.org/o/hms","USER_SCL_ID_TXT":"3244"}},{"type":"Feature","id":101,"geometry":{"type":"Point","coordinates":[-81.4873530067218,30.3232850037173]},"properties":{"OBJECTID":101,"Loc_name":"World","Status":"M","Score":100,"Match_type":"A","Match_addr":"101 Kernan Blvd N, Jacksonville, Florida, 32225","LongLabel":"101 Kernan Blvd N, Jacksonville, FL, 32225, USA","ShortLabel":"101 Kernan Blvd N","Addr_type":"PointAddress","Type":null,"PlaceName":null,"Place_addr":"101 Kernan Blvd N, Jacksonville, Florida, 32225","Phone":null,"URL":null,"Rank":20,"AddBldg":null,"AddNum":"101","AddNumFrom":null,"AddNumTo":null,"AddRange":null,"Side":null,"StPreDir":null,"StPreType":null,"StName":"Kernan","StType":"Blvd","StDir":"N","BldgType":null,"BldgName":null,"LevelType":null,"LevelName":null,"UnitType":null,"UnitName":null,"SubAddr":null,"StAddr":"101 Kernan Blvd N","Block":null,"Sector":null,"Nbrhd":null,"District":null,"City":"Jacksonville","MetroArea":null,"Subregion":"Duval County","Region":"Florida","RegionAbbr":"FL","Territory":null,"Zone":null,"Postal":"32225","PostalExt":"5301","Country":"USA","CntryName":"United States","LangCode":"ENG","Distance":0,"X":-81.489331303857,"Y":30.323228677885,"DisplayX":-81.48735300707,"DisplayY":30.323285004275,"Xmin":-81.48835300707,"Xmax":-81.48635300707,"Ymin":30.322285004275,"Ymax":30.324285004275,"ExInfo":null,"StrucType":"Commercial","StrucDet":null,"IN_SingleLine":"101 Kernan Blvd. N. 32225","USER_School_Number":256,"USER_SCL_ID":3256,"USER_Short_Name":"Landmark","USER_Grade_Level":"Middle School","USER_Full_Name":"Landmark Middle School #256","USER_School_Address":"101 Kernan Blvd. N. 32225","USER_School_Phone_Number":"(904) 221-7125","USER_School_Fax_Number":"(904) 221-8847","USER_School_Grade_Level":"6th Grade - 8th Grade","USER_Board_Member":"Carney","USER_URL":"https://dcps.duvalschools.org/o/lms","USER_SCL_ID_TXT":"3256"}},{"type":"Feature","id":102,"geometry":{"type":"Point","coordinates":[-81.4157289735612,30.3627139800279]},"properties":{"OBJECTID":102,"Loc_name":"World","Status":"M","Score":100,"Match_type":"A","Match_addr":"2600 Mayport Rd, Jacksonville, Florida, 32233","LongLabel":"2600 Mayport Rd, Jacksonville, FL, 32233, USA","ShortLabel":"2600 Mayport Rd","Addr_type":"PointAddress","Type":null,"PlaceName":null,"Place_addr":"2600 Mayport Rd, Jacksonville, Florida, 32233","Phone":null,"URL":null,"Rank":20,"AddBldg":null,"AddNum":"2600","AddNumFrom":null,"AddNumTo":null,"AddRange":null,"Side":null,"StPreDir":null,"StPreType":null,"StName":"Mayport","StType":"Rd","StDir":null,"BldgType":null,"BldgName":null,"LevelType":null,"LevelName":null,"UnitType":null,"UnitName":null,"SubAddr":null,"StAddr":"2600 Mayport Rd","Block":null,"Sector":null,"Nbrhd":null,"District":null,"City":"Jacksonville","MetroArea":null,"Subregion":"Duval County","Region":"Florida","RegionAbbr":"FL","Territory":null,"Zone":null,"Postal":"32233","PostalExt":"2804","Country":"USA","CntryName":"United States","LangCode":"ENG","Distance":0,"X":-81.412387528184,"Y":30.362043427472,"DisplayX":-81.415728973884,"DisplayY":30.362713979726,"Xmin":-81.416728973884,"Xmax":-81.414728973884,"Ymin":30.361713979726,"Ymax":30.363713979726,"ExInfo":null,"StrucType":"Commercial","StrucDet":null,"IN_SingleLine":"2600 Mayport Rd., Atlantic Beach, 32233","USER_School_Number":254,"USER_SCL_ID":3254,"USER_Short_Name":"Mayport Coastal Sciences","USER_Grade_Level":"Middle School","USER_Full_Name":"Mayport Coastal Sciences Middle School #254","USER_School_Address":"2600 Mayport Rd., Atlantic Beach, 32233","USER_School_Phone_Number":"(904) 247-5977","USER_School_Fax_Number":"(904) 247-5987","USER_School_Grade_Level":"6th Grade - 8th Grade","USER_Board_Member":"Carney","USER_URL":"https://dcps.duvalschools.org/o/mcms","USER_SCL_ID_TXT":"3254"}},{"type":"Feature","id":103,"geometry":{"type":"Point","coordinates":[-81.5875190128771,30.1894239991878]},"properties":{"OBJECTID":103,"Loc_name":"World","Status":"M","Score":100,"Match_type":"A","Match_addr":"5100 Hood Rd, Jacksonville, Florida, 32257","LongLabel":"5100 Hood Rd, Jacksonville, FL, 32257, USA","ShortLabel":"5100 Hood Rd","Addr_type":"PointAddress","Type":null,"PlaceName":null,"Place_addr":"5100 Hood Rd, Jacksonville, Florida, 32257","Phone":null,"URL":null,"Rank":20,"AddBldg":null,"AddNum":"5100","AddNumFrom":null,"AddNumTo":null,"AddRange":null,"Side":null,"StPreDir":null,"StPreType":null,"StName":"Hood","StType":"Rd","StDir":null,"BldgType":null,"BldgName":null,"LevelType":null,"LevelName":null,"UnitType":null,"UnitName":null,"SubAddr":null,"StAddr":"5100 Hood Rd","Block":null,"Sector":null,"Nbrhd":null,"District":null,"City":"Jacksonville","MetroArea":null,"Subregion":"Duval County","Region":"Florida","RegionAbbr":"FL","Territory":null,"Zone":null,"Postal":"32257","PostalExt":"1122","Country":"USA","CntryName":"United States","LangCode":"ENG","Distance":0,"X":-81.587720011169,"Y":30.190512137576,"DisplayX":-81.587519013131,"DisplayY":30.189423998906,"Xmin":-81.588519013131,"Xmax":-81.586519013131,"Ymin":30.188423998906,"Ymax":30.190423998906,"ExInfo":null,"StrucType":"Commercial","StrucDet":null,"IN_SingleLine":"5100 Hood Rd. 32257","USER_School_Number":259,"USER_SCL_ID":3259,"USER_Short_Name":"Mandarin","USER_Grade_Level":"Middle School","USER_Full_Name":"Mandarin Middle School #259","USER_School_Address":"5100 Hood Rd. 32257","USER_School_Phone_Number":"(904) 292-0555","USER_School_Fax_Number":"(904) 260-5415","USER_School_Grade_Level":"6th Grade - 8th Grade","USER_Board_Member":"Bolduc","USER_URL":"https://dcps.duvalschools.org/o/mms","USER_SCL_ID_TXT":"3259"}},{"type":"Feature","id":104,"geometry":{"type":"Point","coordinates":[-81.4858789656637,30.304866987182]},"properties":{"OBJECTID":104,"Loc_name":"World","Status":"M","Score":100,"Match_type":"A","Match_addr":"2271 Kernan Blvd S, Jacksonville, Florida, 32246","LongLabel":"2271 Kernan Blvd S, Jacksonville, FL, 32246, USA","ShortLabel":"2271 Kernan Blvd S","Addr_type":"PointAddress","Type":null,"PlaceName":null,"Place_addr":"2271 Kernan Blvd S, Jacksonville, Florida, 32246","Phone":null,"URL":null,"Rank":20,"AddBldg":null,"AddNum":"2271","AddNumFrom":null,"AddNumTo":null,"AddRange":null,"Side":null,"StPreDir":null,"StPreType":null,"StName":"Kernan","StType":"Blvd","StDir":"S","BldgType":null,"BldgName":null,"LevelType":null,"LevelName":null,"UnitType":null,"UnitName":null,"SubAddr":null,"StAddr":"2271 Kernan Blvd S","Block":null,"Sector":null,"Nbrhd":null,"District":null,"City":"Jacksonville","MetroArea":null,"Subregion":"Duval County","Region":"Florida","RegionAbbr":"FL","Territory":null,"Zone":null,"Postal":"32246","PostalExt":"1186","Country":"USA","CntryName":"United States","LangCode":"ENG","Distance":0,"X":-81.488967026345,"Y":30.304803787873,"DisplayX":-81.485878965578,"DisplayY":30.304866987423,"Xmin":-81.486878965578,"Xmax":-81.484878965578,"Ymin":30.303866987423,"Ymax":30.305866987423,"ExInfo":null,"StrucType":"Residential","StrucDet":"Multifamily","IN_SingleLine":"2271 Kernan Blvd. S. 32246","USER_School_Number":279,"USER_SCL_ID":3279,"USER_Short_Name":"Kernan","USER_Grade_Level":"Middle School","USER_Full_Name":"Kernan Middle School #279","USER_School_Address":"2271 Kernan Blvd. S. 32246","USER_School_Phone_Number":"(904) 220-1350","USER_School_Fax_Number":"(904) 220-1355","USER_School_Grade_Level":"6th Grade - 8th Grade","USER_Board_Member":"Carney","USER_URL":"https://dcps.duvalschools.org/o/kms","USER_SCL_ID_TXT":"3279"}},{"type":"Feature","id":105,"geometry":{"type":"Point","coordinates":[-81.8221480128291,30.2526820126387]},"properties":{"OBJECTID":105,"Loc_name":"World","Status":"M","Score":100,"Match_type":"A","Match_addr":"5270 Connie Jean Rd, Jacksonville, Florida, 32210","LongLabel":"5270 Connie Jean Rd, Jacksonville, FL, 32210, USA","ShortLabel":"5270 Connie Jean Rd","Addr_type":"PointAddress","Type":null,"PlaceName":null,"Place_addr":"5270 Connie Jean Rd, Jacksonville, Florida, 32210","Phone":null,"URL":null,"Rank":20,"AddBldg":null,"AddNum":"5270","AddNumFrom":null,"AddNumTo":null,"AddRange":null,"Side":null,"StPreDir":null,"StPreType":null,"StName":"Connie Jean","StType":"Rd","StDir":null,"BldgType":null,"BldgName":null,"LevelType":null,"LevelName":null,"UnitType":null,"UnitName":null,"SubAddr":null,"StAddr":"5270 Connie Jean Rd","Block":null,"Sector":null,"Nbrhd":null,"District":null,"City":"Jacksonville","MetroArea":null,"Subregion":"Duval County","Region":"Florida","RegionAbbr":"FL","Territory":null,"Zone":null,"Postal":"32210","PostalExt":"8697","Country":"USA","CntryName":"United States","LangCode":"ENG","Distance":0,"X":-81.822483708068,"Y":30.252617974883,"DisplayX":-81.822148012846,"DisplayY":30.252682012623,"Xmin":-81.823148012846,"Xmax":-81.821148012846,"Ymin":30.251682012623,"Ymax":30.253682012623,"ExInfo":null,"StrucType":"Commercial","StrucDet":null,"IN_SingleLine":"5270 Connie Jean Rd. 32210","USER_School_Number":274,"USER_SCL_ID":3274,"USER_Short_Name":"Westview K - 8","USER_Grade_Level":"Elementary School","USER_Full_Name":"Westview K - 8 Elementary School #274","USER_School_Address":"5270 Connie Jean Rd. 32210","USER_School_Phone_Number":"(904) 573-1082","USER_School_Fax_Number":"(904) 573-1087","USER_School_Grade_Level":"PreK - 8th Grade","USER_Board_Member":"Joyce","USER_URL":"https://dcps.duvalschools.org/o/wkes","USER_SCL_ID_TXT":"3274"}},{"type":"Feature","id":106,"geometry":{"type":"Point","coordinates":[-81.5157870210839,30.2221730166694]},"properties":{"OBJECTID":106,"Loc_name":"World","Status":"M","Score":100,"Match_type":"A","Match_addr":"8050 Point Meadows Dr, Jacksonville, Florida, 32256","LongLabel":"8050 Point Meadows Dr, Jacksonville, FL, 32256, USA","ShortLabel":"8050 Point Meadows Dr","Addr_type":"PointAddress","Type":null,"PlaceName":null,"Place_addr":"8050 Point Meadows Dr, Jacksonville, Florida, 32256","Phone":null,"URL":null,"Rank":20,"AddBldg":null,"AddNum":"8050","AddNumFrom":null,"AddNumTo":null,"AddRange":null,"Side":null,"StPreDir":null,"StPreType":null,"StName":"Point Meadows","StType":"Dr","StDir":null,"BldgType":null,"BldgName":null,"LevelType":null,"LevelName":null,"UnitType":null,"UnitName":null,"SubAddr":null,"StAddr":"8050 Point Meadows Dr","Block":null,"Sector":null,"Nbrhd":null,"District":null,"City":"Jacksonville","MetroArea":null,"Subregion":"Duval County","Region":"Florida","RegionAbbr":"FL","Territory":null,"Zone":null,"Postal":"32256","PostalExt":"4556","Country":"USA","CntryName":"United States","LangCode":"ENG","Distance":0,"X":-81.514824191814,"Y":30.222121970831,"DisplayX":-81.515787021031,"DisplayY":30.222173016622,"Xmin":-81.516787021032,"Xmax":-81.514787021031,"Ymin":30.221173016622,"Ymax":30.223173016622,"ExInfo":null,"StrucType":"Commercial","StrucDet":null,"IN_SingleLine":"8050 Point Meadows Dr. 32256","USER_School_Number":253,"USER_SCL_ID":3253,"USER_Short_Name":"Twin Lakes","USER_Grade_Level":"Middle School","USER_Full_Name":"Twin Lakes Academy Middle School #253","USER_School_Address":"8050 Point Meadows Dr. 32256","USER_School_Phone_Number":"(904) 538-0825","USER_School_Fax_Number":"(904) 538-0840","USER_School_Grade_Level":"6th Grade - 8th Grade","USER_Board_Member":"Bolduc","USER_URL":"https://dcps.duvalschools.org/o/tlms","USER_SCL_ID_TXT":"3253"}}]}